id,trackingnumber,status,name,country,city,destination,postcode
1,XE374215572US,P4,Edeline Rittmeier,US,Fairbanks,39193 La Follette Way,99709
2,XA595353881DT,C2,Fedora Defond,RS,Banatski Despotovac,756 David Court,
3,ZL473776243BA,D3,Chrysler Bosworth,CN,Gongji,8 Dawn Terrace,
4,KV101113028NE,P3,Emilia Mc Ilory,RU,Krivyanskaya,149 Moland Crossing,347686
5,JM450915299HT,P3,Meier McGruar,VE,Biscucuy,47336 Lakeland Junction,
6,YH676156860GV,U1,Hermine Croci,MN,Tsagaanders,0484 Loeprich Trail,
7,BQ162774341ZX,P2,Inesita Gillatt,BS,Masons Bay,910 David Court,
8,QW923056096MN,D2,Louis Tirrell,PL,Rokietnica,6056 Mitchell Circle,62-090
9,FU599588487NF,R2,Rosco Hudd,PK,Islāmkot,03 Grim Center,69240
10,QQ335206884LK,P4,Bealle Simants,CN,Huogezhuang,8966 Oneill Street,
11,BE840563209NI,P2,Axe Haly,RU,Kastornoye,20 Monument Place,306700
12,ZF339566738AC,P3,Sharlene Guwer,BR,Cravinhos,09979 Sheridan Avenue,14140-000
13,WK376033515TZ,P3,Crista Tainton,BR,Ouro Branco,8586 Bunker Hill Junction,59347-000
14,ZW688771703CI,U1,Bartholomeus Lotte,BR,Cordeiro,532 Hanson Street,28540-000
15,KQ657845601XD,P4,Ludovico Wormstone,PH,Bagong Sikat,8573 Vermont Center,4903
16,GO331362851KP,P3,Chandler Watchorn,RU,Asbest,4297 Charing Cross Pass,624269
17,CW388931943PA,P2,Pryce Pickthorne,ID,Krenggan,34 Killdeer Court,
18,CB376010173NB,P3,Angelita Kilian,TZ,Bugene,8336 Village Green Street,
19,LA584571810QX,P2,Olympia Birtonshaw,CN,Tiechang,2 Thierer Court,
20,ZT963418808KW,P2,Dyanne Fedynski,FR,Guyancourt,5291 Sommers Trail,78280
21,RD132784569TH,D1,Ansell Ambroz,CN,Zhangcun,1928 Buell Place,
22,VH248186182AM,P3,Andi Mayoral,RU,Issa,1812 Bobwhite Drive,442710
23,DO046328857BN,U2,Avery Musicka,CN,Pozhang,1 Lighthouse Bay Hill,
24,DH632075269GA,D1,Nat Lasselle,TH,Chian Yai,34 Bluestem Park,80190
25,CA524940568OB,P4,Wendall Roe,CN,Shiqian,8403 Fisk Hill,
26,CO686921559FK,P3,Windham Twitty,PT,Estrada,2259 Mayfield Center,5100-873
27,QR787817583BK,P3,Romola Gepp,CN,Huangyang,840 Bayside Lane,
28,CR438697873QH,U2,Galven Goosnell,GT,Sololá,898 Grasskamp Road,07023
29,NI421878104XU,P3,Annabel MacCallister,KM,Mohoro,53516 Bunting Street,
30,FV662475838LF,D1,Biddie Bentinck,CN,Ta’erqi,6 Vernon Way,
31,JQ813771322WE,P3,Myrtia O'Cullinane,CN,Dalianwan,89 Fulton Center,
32,VS519960868II,P2,Huey Lashmore,SE,Stockholm,48 Lighthouse Bay Crossing,114 24
33,IP245797522II,D2,Immanuel Duran,MX,Vicente Guerrero,78574 Hazelcrest Point,40230
34,LN878232174GZ,R2,Travus Booy,CN,Daqian,46136 Autumn Leaf Hill,
35,HY697915826WD,P3,Sybyl Favell,VN,Quán Hành,05530 Upham Terrace,
36,ZM930679669AE,P3,Erma Falla,BR,Areia Branca,8004 Nelson Road,49580-000
37,OB709150802JW,P4,Candy Dowdell,LU,Waldbredimus,6022 Mandrake Drive,L-5465
38,WW161063356UG,D3,Penn Lamprey,RS,Novi Kneževac,530 Melby Hill,
39,ES821308133KI,P4,Algernon Bartlam,PE,Huata,4386 Declaration Hill,
40,EW792626013ER,P3,Sheff Polfer,FR,Strasbourg,78 Vahlen Trail,67080 CEDEX
41,PS604193702FL,D1,Xylia Willoughey,TH,Trakan Phut Phon,9 Northland Way,90120
42,AF821614997CL,D2,Jacquenetta Leall,ZA,Ixopo,0461 Old Shore Trail,1980
43,MM876613351HO,D2,Arthur Lebourn,FI,Petäjävesi,30070 Bartelt Plaza,41901
44,XS600212162MZ,P2,Ealasaid Skillern,ID,Ciduren,2 Cottonwood Plaza,
45,IP164312263PL,P3,Thorny Colegate,CN,Baizhang,1 Toban Alley,
46,RP902915969QU,D1,Janel Acory,CN,Guohuan,81 Reindahl Trail,
47,DL437842842CX,P1,Elspeth Brailey,LY,Al Jadīd,1 Canary Lane,
48,NE927254501TM,D1,Joanne Dunsmuir,ID,Fukadale,38895 Dahle Point,
49,CT857249965CL,P2,Karlis Stiant,RU,Yekimovichi,11 5th Point,216533
50,XS415586509DE,P2,Britt Laurance,RU,Annino,2 Monterey Drive,346516
51,KT449746199CP,R2,Nadiya Jizhaki,SE,Vänersborg,883 Eliot Pass,462 73
52,MM224826705EW,P3,Vicky Maypole,ID,Tembeling,951 Fuller Parkway,
53,KG676763341FE,C2,Jorry Patemore,CN,Xinan,2937 Schurz Avenue,
54,CU580678504TG,P2,Ailee Bostock,ID,Colendra,064 Warbler Court,
55,PW591185083LI,D3,Maxi Anthona,SE,Filipstad,37545 Bonner Point,682 33
56,DJ279227901FI,P4,Ellette Eighteen,ID,Bagiktinggang,43959 Ludington Lane,
57,JT183659884LH,P2,Murdock Litchfield,TH,Bang Krathum,42235 Old Gate Court,65110
58,WJ633791668AY,P3,Wilona Footitt,UA,Kramators’k,9 Melby Way,
59,RK019103592RF,R2,Pollyanna Bampforth,HN,Sandy Bay,2 Carioca Trail,
60,XR767946412HA,P4,Kit Southon,CN,Shanhou,2487 3rd Plaza,
61,LA461993397SA,R1,Jake Dayborne,FR,Le Mans,19 Cambridge Center,72004 CEDEX 1
62,IS452085268OB,P3,Marena Bernini,CN,Mocun,56 Manitowish Point,
63,MK437530651FI,D1,Aurie Millin,PL,Mirów,91 Sunfield Circle,53-402
64,WT871406292FA,R2,Glynda Echallier,CN,Honglai,39 Valley Edge Junction,
65,WM651406802ZK,P1,Federica McDonnell,CN,Xinjie,6753 Columbus Circle,
66,NC669429802MI,P2,Pooh Terzza,ID,Dairiti,825 Fairfield Alley,
67,KS514349818PV,U1,Kincaid Birchall,US,Salt Lake City,22 Sugar Alley,84115
68,TD404198979TI,R2,Lisa Friedenbach,MX,La Victoria,14 Dottie Place,95603
69,TS126942261CI,R2,Krysta Pegden,JP,Nagahama,3 Rigney Road,968-0442
70,QV549198300PD,P3,Beau Westover,RU,Tsotsin-Yurt,42 Northland Pass,368033
71,UB167344734BT,P4,Ruth Niesel,CN,Pingli,49222 Oriole Way,
72,UJ707302965OY,X1,Carolynn Champagne,BT,Daphu,05510 Holmberg Alley,
73,WY810737130PZ,R1,Codee Rowlinson,CN,Futang,2826 Lerdahl Avenue,
74,WG584063786KZ,P3,Iorgos Caulier,SE,Täby,69 Kensington Terrace,187 06
75,KH663584400KY,D3,Lonna Douse,CN,Wufu,4146 Sachs Place,
76,ND706854651WT,X1,Nikolaos Beddo,GR,Makrochóri,9582 Steensland Place,
77,IW856951072EL,P1,Theadora Lismer,ID,Geumpang,03532 Grover Hill,
78,GL199601072PL,C1,Corrianne Feakins,CN,Wulan,17 Spaight Lane,
79,LH966753798WQ,P1,Willdon Peacham,BR,Poço Verde,2 Northridge Trail,49490-000
80,IR110159489LV,D1,Ailey Flatt,RU,Novokuybyshevsk,72049 Bunker Hill Avenue,446209
81,DK551481345EW,P3,Obed Ralphs,RU,Berëzovka,184 Stoughton Pass,665028
82,FU902492971MT,R2,Elia Keune,ID,Kawengan,30 Mayer Parkway,
83,NU140843457SW,X1,Averell Haworth,PH,San Rafael,7 Cody Road,5039
84,RW922929642MI,U2,Anthe Barnfield,PH,Muladbucad,76252 John Wall Road,1095
85,LV432686496HF,P4,Natal Kirwin,UY,San Bautista,595 Kim Lane,
86,TK002587602UJ,C2,Claire Slorance,PL,Złoty Stok,619 Dryden Hill,57-250
87,SO138319615FW,D1,Quint Wardall,ZA,Izingolweni,3 Sachs Road,4261
88,TH860004001ON,P4,Kissee Breem,PH,Maindang,56284 Sunfield Alley,1255
89,YE115550097DF,P4,Chadd Tongs,SE,Gävle,81227 Dorton Circle,802 80
90,XI576315473XD,P3,Amos Ewles,PE,Callanca,92286 Roth Court,
91,VU813933412SD,R2,Bili Darrigone,FR,Marseille,59938 Jay Pass,13298 CEDEX 20
92,AI840301236JX,P3,Fredelia Rennix,CN,Dancheng,83556 Everett Avenue,
93,DS973529670WJ,P2,Dillie Lehr,PE,Punta Hermosa,40099 Basil Place,
94,TB515120250WS,P3,Deirdre Shippam,BR,Mairiporã,38 Hermina Trail,07600-000
95,DS786707557MX,D2,Micheal Vase,HN,Araulí,5 Tennyson Avenue,
96,FN600297213XR,P3,Edgard Shovelin,TH,Na Klang,30501 Miller Lane,39170
97,FM166625987DW,P3,Merle Passman,RU,Orlovskiy,004 Becker Court,347513
98,UT660090003UR,P4,Adair McRavey,SD,Kināna,75 Southridge Lane,
99,TW613922199XY,P1,Cori Asken,CZ,Nivnice,524 Hudson Crossing,687 51
100,IZ249374941XF,P2,Juliette Mordacai,ID,Ciburial,1 Northridge Crossing,
101,AV154995174IL,D2,Emerson Facher,UY,San José de Mayo,20161 Pepper Wood Park,
102,DT287417516HL,X1,Milly Mattam,GE,Sokhumi,06 Esch Circle,
103,WC283420356JE,R2,Wilfred Blacktin,CZ,Horní Libina,555 Almo Road,789 74
104,LE544462556RX,R2,Steffane Hindenberger,ID,Cikadondongdesa,96 5th Terrace,
105,PK912313955FC,X1,Sibeal Mattiello,CN,Yucheng,55438 Talmadge Terrace,
106,SO181797773DZ,P2,Randa Kelcher,SE,Kiruna,099 Emmet Place,981 80
107,RW713558001WW,R2,Brandise Caisley,MX,Las Flores,352 Di Loreto Avenue,25290
108,RP108698701GV,D1,Stanly Seddon,MX,El Aguacate,33 Arizona Crossing,40687
109,TR860385482QH,P3,Jacinta Weild,BY,Karelichy,07336 Summer Ridge Trail,
110,TU978169281RA,U1,Graig Oakenfield,PL,Bałtów,576 Jana Way,27-423
111,PQ529558019OI,P2,Cacilie Waghorn,AF,Zaranj,48 5th Place,
112,FO065803241GF,C1,Rupert Jenson,EE,Jõgeva,60 Bay Drive,
113,JA128459836RD,P3,Philly Bettlestone,BG,Gorna Oryakhovitsa,4 Chive Lane,5145
114,OD646751646US,R1,Ekaterina Cheves,MX,Benito Juarez,6 Texas Street,70760
115,GO374284688MQ,R1,Pietrek Jacobovitz,FR,Nancy,9 Sauthoff Crossing,54076 CEDEX
116,ZS294978369ZN,R1,Cully Aston,RU,Donetsk,662 Westerfield Street,353810
117,JA933632369ZL,P2,Laurice Dargavel,PL,Widuchowa,52062 Hintze Court,74-120
118,OS942418148PZ,D2,Rowena Yair,FR,Saint-Germain-en-Laye,6057 Norway Maple Plaza,78105 CEDEX
119,NI863481134KR,X1,Raddy De Ruggero,FR,Grenoble,5 Erie Street,38066 CEDEX 2
120,FY319648212MV,P4,Alyse Elsdon,CU,Pinar del Río,654 Crescent Oaks Parkway,
121,GR073351532HT,D1,Bond Brantzen,AI,Stoney Ground,80 Chive Junction,
122,CW733541413OP,U1,Adrienne Earlam,BY,Horad Rechytsa,9359 Onsgard Hill,
123,YH994319638GP,R1,Eugenio Jellett,ID,Waitenepang,3955 Bowman Crossing,
124,DN104204981XP,P3,Corbet Chetham,CN,Pucheng,31 Rutledge Crossing,
125,QB998358455UN,U1,Sybilla Dawtrey,CN,Moxi,4 Spenser Junction,
126,YC840276032CV,R1,Leandra Roberds,BR,Bom Jesus dos Perdões,49731 Stuart Drive,12955-000
127,NM201016416JI,D1,Taber Laffoley-Lane,RS,Pančevo,73192 Roth Terrace,
128,ID665258425BC,P2,Micah Northway,FR,Montaigu,43880 Manufacturers Trail,85614 CEDEX
129,TN568815645JV,D1,Ty Somers,CN,Xunhe,2 Stuart Trail,
130,PT348144298SH,P3,Francesca Demangel,ID,Cimaragas,969 Lyons Street,
131,VV666944067EQ,P3,Moishe Tirte,BR,Unaí,1304 Oak Valley Crossing,38610-000
132,KX592865510KV,P2,Patin Dodd,UA,Torez,57 Heffernan Road,
133,DI668136874DD,R2,Berry O' Cloney,ID,Sampit,4 Boyd Crossing,
134,PV707488310MZ,P3,Martino Eastham,CO,Neiva,6 Elgar Hill,410018
135,HB183828431UY,P2,Cchaddie Portman,ID,Balun,57 Brentwood Lane,
136,LH039518841ND,P1,Fiona Muzzall,AF,Mehtar Lām,9 Messerschmidt Point,
137,AK758968179EL,P4,Marabel Gethouse,FI,Kuhmalahti,5 Bellgrove Crossing,36810
138,SU764242969DG,P4,Lanae Blanshard,LB,Joubb Jannîne,85446 Magdeline Court,
139,HV092230940TV,P3,Caren Tingey,ID,Karanganyar,1108 Lotheville Point,
140,MW822649308KW,P2,Essie Scrigmour,BR,Itupiranga,9715 Sugar Parkway,68580-000
141,RH529353279HZ,C2,Adair Dureden,ID,Detusoko,57391 Elmside Lane,
142,MZ740899734EN,D2,Kellsie Gudyer,FI,Evijärvi,060 Muir Pass,62501
143,XY933557389RP,P4,Lissie De Beauchamp,BR,Pederneiras,2067 Beilfuss Way,17280-000
144,CF690237080IS,P3,Masha Dod,DK,København,3 Corscot Road,1420
145,RO839600581UO,U2,Rosie Matkovic,GR,Lianokládhion,54 5th Crossing,
146,OF211220616JX,P1,Vonni Ewert,PS,Sīlat al Ḩārithīyah,39300 Northview Circle,
147,KI819168180XH,P1,Honoria Gladdifh,PK,Dokri,16 Bay Road,77060
148,YP331121212UR,R2,Peggi Fancett,ID,Desa Gegempalan,7393 Mccormick Street,
149,SK632072726KT,P3,Trevor Hove,PT,Nine,265 Arizona Plaza,4775-446
150,VQ149531968VT,P2,Werner Margrie,CN,Wuqiao,26 Norway Maple Alley,
151,EY590896177BB,R2,Valentia MacNulty,CN,Anding,99 Raven Terrace,
152,AU444785594LF,P2,Greta Cubbon,SE,Kävlinge,7209 Veith Alley,244 82
153,KM011997532SY,P3,Daniela Clemett,AL,Iballë,39438 Graceland Avenue,
154,RC884423347LJ,P2,Sean Meegin,ID,Jalasenga,54005 Debra Lane,
155,EK399671168NU,P2,Mellisent Blowen,NL,Hoogeveen,6 Leroy Place,7909
156,UP394186169AA,P3,Diarmid Paxeford,PH,Kagay,487 Anzinger Center,1441
157,YK397065376XA,R1,Dannel Upston,PT,Malveira,976 Ridgeview Way,2665-189
158,GO358755987WC,X1,Rolph Wainwright,JP,Masaki-chō,0 Northridge Circle,799-3115
159,VF269807101GU,R1,Bernie Salliss,CI,Bouaflé,06 Sachs Circle,
160,TH070863944FQ,P2,Hayyim Lovie,BS,Spanish Wells,56524 Westridge Point,
161,XV133041984HH,P3,Trenton Frontczak,GE,Tsalka,35 Red Cloud Road,
162,YM083484277QC,P4,Erda Moutray Read,NG,Gakem,7818 Brentwood Avenue,
163,QX458993228KI,P3,Mile Sarah,MX,Lazaro Cardenas,2889 Old Shore Park,81803
164,AG400124219TN,P4,Dimitri Hedling,ZA,Wolmaransstad,0960 Arapahoe Alley,2630
165,NQ409397295RJ,P2,Mathe Hedde,VN,Hà Tĩnh,112 Arrowood Road,
166,AP491749211XN,P3,Gloriane Bridgeland,ID,Tanahedang,2460 Kipling Court,
167,KC151853071YY,D1,Moshe Longfellow,UA,Horodne,909 Summerview Avenue,
168,DY191446208BD,D3,Ertha Erett,SA,Tanūmah,70 Bashford Plaza,
169,QV840154082VQ,D1,Webb Cottisford,CR,Pocora,30180 Carioca Avenue,70603
170,KD168948189GU,P3,Omero Billsberry,PH,Pasian,269 Garrison Circle,4311
171,WR036101350AB,P2,Gearalt Duesbury,NO,Stavanger,57983 Spohn Plaza,4064
172,FU167326045FK,P3,Waldemar Carrabott,CN,Anxi,289 Algoma Circle,
173,AO408198443WL,P4,Munmro Lintott,PH,San Nicolas,40362 Tomscot Road,4207
174,FS472066250KU,P4,Lyle Attwood,ID,Pendawanbaru,3 Morrow Place,
175,XT090769841NB,P1,Nataniel Tonkes,RU,Presnenskiy,023 Arrowood Point,901993
176,IK687767563VW,P1,Winthrop Kull,RU,Izhmorskiy,0110 Kingsford Parkway,652120
177,MD189699033MS,D1,Sully Cuttin,ID,Palu,50 Northfield Court,
178,SW178827559RQ,P1,Neddy Townrow,CN,Yanshang,99162 Maywood Street,
179,HC087339481JR,P4,Star Milberry,RU,Novonikol’sk,40 Sage Court,692557
180,MP362157164GK,P3,Nappie Galliver,CN,Hushan,1883 Hooker Avenue,
181,RU449546510BZ,P3,Ardath Rives,VE,Las Tejerías,0892 Stone Corner Street,
182,HG186380251HL,P3,Farrel Streeten,CN,Dongzhang,03 Fremont Street,
183,XU345293810KG,D1,Beckie Kingcote,ID,Oefau,59804 Muir Court,
184,IB049192946KC,U1,Killie Dearden,FR,Angers,792 Atwood Junction,49033 CEDEX 01
185,VX802222689IF,C2,Celina Copins,ID,Juhut,36600 Sutherland Center,
186,SM035201915TM,P2,Tommy Coxon,ID,Tanahwangko,6963 Charing Cross Plaza,
187,BN005977112JA,P2,Humberto Oselton,PH,Aurelliana,61691 Sugar Drive,5702
188,KI139966732EU,P3,Brittaney Deware,AR,Colonia Elía,842 Pearson Point,3261
189,WJ177418505ZP,P3,Mona Brundell,BW,Thamaga,317 Dixon Lane,
190,KJ292150944MN,P3,Maxy Newlands,UZ,Dashtobod,8038 Sycamore Avenue,
191,KN825938902PX,D3,Ravid Bouttell,BI,Ruyigi,06510 Utah Trail,
192,RJ909107204PP,P3,Mickie Sara,CA,Beaverlodge,487 Crowley Point,G8A
193,US989856014WH,P2,Vittoria Mallalieu,RU,Paratunka,8796 Scofield Lane,659642
194,AW961450202ZW,P2,Goraud Atte-Stone,CA,Swift Current,3705 Eliot Way,S9H
195,NC951673138PY,P1,Aurelea Glentworth,MG,Ambanja,4644 Grayhawk Park,
196,HF051236078PU,R1,Goober Rippen,CN,Yantang,97 Rieder Plaza,
197,PL238165261KR,P2,Virgie Llopis,TH,Wang Nam Khiao,6 Armistice Avenue,55130
198,MG860724743KC,D2,Suki Probert,PH,Limbaan,980 Pennsylvania Way,8104
199,NA475206342FF,D1,Wilona Tyhurst,RU,Nizhniy Ufaley,4006 Briar Crest Crossing,456811
200,JV852190057TL,P4,Danell Snibson,BR,Além Paraíba,53683 Susan Alley,36660-000
201,PM605538450IF,P3,Renate Alcido,PH,Buenlag,599 Karstens Park,2302
202,RO462521856ZA,C1,Westbrook Odd,PE,San Antonio,2066 Basil Street,
203,ZT330190900EP,P4,Lincoln Proom,FR,Brie-Comte-Robert,62319 Alpine Plaza,77254 CEDEX
204,ED061657838DS,R1,Monah Connerly,ID,Pasar Kulon,66 Blue Bill Park Park,
205,DC224824030AC,P3,Philip Limeburn,PH,Malayal,8109 Sugar Lane,1070
206,RT199254158SZ,D3,Denys Ascough,RU,Suzdal’,1099 Bay Alley,601293
207,TU962801424PX,P2,Romola Cockayne,RU,Ust’-Katav,946 Ridge Oak Way,456049
208,QO248718927HE,R2,Lowell Nolot,FR,Paris 16,50 Sycamore Junction,75778 CEDEX 16
209,HX389344352DE,P1,Melania Pladen,UA,Kolochava,85857 Crest Line Avenue,
210,MM915726675SC,D3,Tye Sowerby,CA,Bonnyville,43068 Park Meadow Place,T9N
211,VL027615090ZO,P3,Valle Jendrassik,RS,Tomaševac,333 Clove Terrace,
212,UJ376094636CU,U2,Felice Wenban,MX,Reforma,39768 Daystar Avenue,32600
213,AN666098984VY,D1,Chen Applegate,PS,Al Fukhkhārī,438 Summer Ridge Parkway,
214,EU762500378NO,P4,Kleon MacAlroy,RU,Sosnovyy Bor,2 West Terrace,601808
215,IC135617149IM,D3,Koenraad Olivi,ID,Puamata,519 Sherman Lane,
216,JJ898236510ZN,D3,Melba York,AD,Ordino,58 Granby Way,AD300
217,ZC406564726ZY,D2,Darrin Gresswell,CN,Dawusu,19374 Glendale Plaza,
218,DZ080374255CQ,C2,Jacynth Casiero,ID,Nunutba,3 Manley Way,
219,PI407733934UZ,P3,Neddie Hurley,PH,Impalutao,100 8th Center,8702
220,FE035736499SN,P3,Stearn Rykert,TH,Phibun Mangsahan,975 Karstens Street,34110
221,QE112988064BZ,P2,Leola Passion,RU,Kuznechikha,41664 Longview Circle,416507
222,AW459551981BT,U2,Maridel Bulcock,PL,Nowe,92 Loeprich Hill,99-333
223,YG936471302ST,D2,Rakel Somerled,CN,Tanjiaqiao,65637 Barby Hill,
224,TG526719825HE,P3,Chery Brothwell,PH,Magdalena,6150 Mallory Way,4007
225,BR441936849KK,D1,Ebony Pietesch,FI,Kittilä,87 Hollow Ridge Avenue,99101
226,RZ043389787RJ,P3,Mack Giacomello,RU,Rasskazovo,5 Burrows Pass,301288
227,ST427477974LG,D3,Shelba De Roberto,PH,Canturay,63 Mendota Park,1676
228,XH779833280NH,X1,Willette Story,ET,Debark’,13622 Eastlawn Point,
229,QR763185471RD,P3,Nicoline Allaway,CN,Wangping,14904 Sloan Street,
230,TU671537417SP,R2,Bevvy Druett,PE,Carapo,721 Manley Avenue,
231,ZD068797277XN,P2,Madison Chitson,ZA,Brandfort,4024 Thierer Junction,9400
232,TU610451630OT,P1,Aurora Bysouth,ID,Bulahblangaro,50 Hansons Center,
233,NB369877407RC,X1,Martica McClosh,CN,Yongfeng,0 Waubesa Alley,
234,LH413295554KA,U2,Simone Ysson,JP,Isehara,506 Bobwhite Terrace,277-0883
235,LB693564487NJ,P2,Nonnah Rushbrooke,ID,Pucangkrajan,587 Hovde Center,
236,BW940055785AK,P3,Franzen Dictus,GT,Jacaltenango,9630 Grim Center,13007
237,SV072806826QU,D2,Alyce Winsom,NI,Wiwilí,965 Forest Alley,
238,ZS483934346BZ,P3,Cynthea Baudacci,CN,Yucun,0074 Vernon Parkway,
239,CJ805809277OU,P4,Shepard Mum,CN,Dainan,532 Hayes Center,
240,IH460412093KF,P1,Bartholomew Reid,KZ,Kokshetau,2192 Ridge Oak Lane,
241,EL558662344QL,D2,Austen Hatje,FR,Nîmes,03 Cordelia Alley,30006 CEDEX 4
242,SG307604797PY,C1,Redd Gerhardt,KR,Hongsung,72 Gina Court,
243,SM354034897AM,P4,Frederich Kislingbury,HN,Nacaome,52 Mandrake Pass,
244,KQ774555534XZ,P3,Carma Mattedi,BR,Coxim,0408 Jackson Way,79400-000
245,LL065947246VR,P2,Marika Abelson,RU,Tomilino,77 Dawn Trail,140074
246,PN247484318UX,D1,Nikola Trusler,MY,Shah Alam,2129 Gerald Alley,40706
247,EG238997685FZ,D3,Spenser Yukhnevich,PK,Dhanot,30551 Center Hill,42001
248,TK882774427AL,P3,Jareb Saurat,CN,Fangqiang,70614 Warbler Circle,
249,VP122256949MK,P3,Devlen Sainter,PL,Trablice,43658 Mifflin Trail,90-557
250,TH478966953VC,P4,Bo Sinnott,ID,Kebon Tengah,8290 Eagle Crest Alley,
251,AD960643801VS,P3,Ax Burger,CN,Tangyin,5 Haas Avenue,
252,MV041791451UU,D3,Johnath Jackes,US,Minneapolis,394 Judy Place,55470
253,SG825628148JP,P3,Vi Ollivier,TN,Tajerouine,0 Wayridge Court,
254,DL859664340DY,P3,Alethea Apedaile,SE,Halmstad,8 Fordem Point,302 55
255,ME351182634LY,D2,Stavro Sharpin,NP,Butwāl,918 School Place,
256,RC368512468HC,P2,Farleigh Godridge,AE,Sharjah,8707 David Park,
257,FV183835159BB,P3,Coral Woollhead,BR,Guanambi,94 5th Plaza,46430-000
258,MB735338063DS,P2,Berna Matyugin,EG,Kafr Şaqr,474 Westend Drive,
259,ET215838111HU,P2,Emmy Sibbit,PL,Łopuszna,790 Holmberg Junction,34-432
260,YN804306911TR,P4,Michell Cowl,US,Delray Beach,31 Pennsylvania Drive,33448
261,CC860255369EB,P1,Roth Jenner,RU,Il’inskiy Pogost,50769 Darwin Terrace,142655
262,PL842243108LF,X1,Hubert Arnopp,BG,Velingrad,50 Summer Ridge Point,4645
263,IH443260962ZT,D2,Diarmid Plumtree,CN,Xinyi,56540 Kings Pass,
264,NP096512637TY,P2,Bobine Gapper,AM,Arshaluys,2 Delladonna Avenue,
265,FB316035664RT,P3,Eirena Mathet,ID,Tembeling,35 Declaration Plaza,
266,WJ358398489AA,P3,Keven Yelding,CN,Leiyang,082 Kenwood Junction,
267,ST126826089XY,P3,Obed Archbold,RS,Turija,4452 Gulseth Avenue,
268,CF160714292HL,R1,Sonnie Scoble,GR,Áyioi Apóstoloi,37355 Tomscot Way,
269,FV920569088XR,U2,Krista Manilo,VN,Tân Châu,412 Manufacturers Center,
270,KZ029340663AB,P4,Marcelle Owain,LY,Masallātah,2082 Del Sol Crossing,
271,GK778813645DU,C2,Van Byer,AF,Surkh Bilandī,314 Oriole Road,
272,FD585920420SN,P4,Thorn Caser,RU,Ukhta,24796 Vera Circle,169309
273,AF689014776BY,P2,Kirbie Ecclestone,PH,Santa Teresa,59577 Blackbird Lane,5717
274,OT624574293QJ,P4,Emeline Baggott,FI,Pertunmaa,2 Waubesa Road,19430
275,CD746337245NF,U2,Ted Eglin,RU,Gribanovskiy,2 Cascade Alley,397243
276,ZR998261049HU,R1,Arnold Seeking,LV,Jaunpils,04284 Stephen Crossing,
277,DJ733380268JZ,D2,Bell Aubury,CN,Ruixi,1 Lotheville Place,
278,UD044467207CE,D2,Sheila-kathryn Regelous,GT,Melchor de Mencos,17 Scott Lane,17011
279,RZ496219383PQ,R1,Salim McCard,ID,Bantaeng,9712 Schlimgen Pass,
280,BB334294150RS,D1,Gannon Stucke,ZA,Himeville,692 Gulseth Way,3652
281,UB635695959MG,P3,Honey Gurys,ID,Puncakmanis,03 Fordem Trail,
282,RC809227725TP,P3,Melisa Bollis,CU,Ciego de Ávila,62 Florence Plaza,
283,PJ228345204IB,P1,Petunia Klimowski,TN,Ksour Essaf,080 Sage Alley,
284,KN140399268QB,P1,Gale Bragg,ID,Padangbatung,0125 Schmedeman Avenue,
285,BH620308112PN,R2,Justinn Ogilvie,PH,Hagonoy,1361 Eastlawn Circle,8006
286,VV498536200YP,R2,Adlai Hadlington,ID,Ruteng,175 Drewry Center,
287,YA929327961OS,P2,Laina Tear,SE,Norrköping,7467 Dawn Avenue,602 24
288,WX301273857PX,D1,Elise Stores,CN,Zhongdong,394 Tomscot Hill,
289,EP884832024UZ,R2,Tanner Janaway,MN,Höviyn Am,09 Oak Valley Parkway,
290,QO216663769HM,D1,Phil Tomalin,RU,Zavidovo,39 Lotheville Parkway,171275
291,LJ142346065DX,D3,Immanuel Liversedge,FR,Palaiseau,29284 Drewry Terrace,91124 CEDEX
292,FS407385887UV,D1,Carlina Fateley,CN,Huizhai,4 Melvin Center,
293,IT477973144KQ,R1,Jenny Roycroft,WS,Nofoali‘i,15436 Beilfuss Point,
294,QG627114071DG,P3,Stace Jowitt,CA,Lachute,75475 Vahlen Plaza,J8H
295,XV209079012ZZ,D2,Raddy Durkin,TZ,Igurubi,78 Raven Trail,
296,QR065730605WS,D2,Carly Ginn,TH,Si Mahosot,0897 Anzinger Terrace,25190
297,EU429081559LY,P4,Ambur Antrobus,CN,Macheng,54546 Victoria Circle,
298,QP079783966KX,C2,Dahlia Brunelli,CN,Dongshangguan,390 Pleasure Parkway,
299,KW887803826TN,D1,Padraig Akess,ID,Waitenepang,2 Scoville Drive,
300,UA354630636KI,P3,Mikey Clowney,KP,Sinmak,0 Sutteridge Crossing,
301,AK295017087QJ,P2,Marji Duckett,MK,Bitola,4 Ridgeview Plaza,7000
302,DI646214825NY,P2,Lionello Volage,ID,Anin,10 Arapahoe Crossing,
303,HK824968082SO,P4,Barnabas Dwire,PT,Ribaldeira,50 Barby Parkway,2565-245
304,NC619651044RM,P4,Deni Blagburn,RU,Novozybkov,740 Sunbrook Court,243036
305,JL051392094ZK,P4,Ebba Matis,CN,Wanli,683 Fordem Circle,
306,OI250621713AZ,D2,Noni Tabbernor,NO,Oslo,468 Jackson Alley,0477
307,VU120875114KY,D1,Carolin Boule,PT,Santa Catarina,43707 Del Sol Avenue,2500-772
308,RO285152314GX,D1,Philomena Christophers,VN,Tây Đằng,4697 Northridge Hill,
309,YO148739705QI,P2,Roland Kantor,CN,Tuguanpu,564 Forest Run Avenue,
310,KN087496242UH,P2,Joelle Surgey,PH,Dukay,93396 Scott Park,2101
311,KO656811058LV,P2,Mannie Michael,PH,Maria Aurora,9 Florence Road,3202
312,WX599769130BP,C1,Taddeusz Rothermel,US,Jacksonville,50 Hoffman Lane,32255
313,MP745670844ZA,P2,Killie Lenglet,CN,Agarsin,934 Glacier Hill Avenue,
314,RD277293037GH,P4,Hermione Barkshire,CN,Longgao,6806 Ilene Park,
315,BT337695202GI,P1,Audra Scocroft,RU,Nyrob,67707 Elgar Point,618630
316,QD640182315ZY,D1,Bary Bassett,PL,Kamieniec Ząbkowicki,25376 Victoria Pass,57-230
317,TK317410234ZU,D2,Henri Godwin,PL,Ręczno,426 Daystar Trail,97-510
318,IU070041061HK,D1,Ileana Ruddle,CN,Batuan,01430 Briar Crest Avenue,
319,QM126631788WK,P4,Victoir Spencook,BR,Goiás,44 Crest Line Parkway,76600-000
320,QK696937191GZ,P3,Tera Connow,DK,København,35898 Prentice Pass,1618
321,OR263482164QU,U1,Maribeth Dive,PT,Carrasqueira,9 Lerdahl Avenue,2965-212
322,NY266685817LY,P4,Juliette Naismith,TM,Atamyrat,8917 Artisan Alley,
323,QQ711823222BJ,R2,Shawn Ayliffe,ID,Cililitan,99 Fairfield Center,
324,AW078692429DG,U1,Bjorn Graves,CN,Lianghu,7 North Place,
325,EF425891170PA,C2,Isidor Fison,MX,Ojo de Agua,1 Park Meadow Trail,58353
326,ZE555812219VV,P2,Bo Wigsell,PH,Sergio Osmeña Sr,447 Anderson Trail,7108
327,PU665087278KV,P3,Cesar Haggith,BR,União da Vitória,02 Logan Alley,84600-000
328,MS892758059VD,D3,Kali Banham,SY,Damascus,391 Lawn Plaza,
329,SA304674603QP,P4,Laverna Girdler,CN,Yangqing,501 Birchwood Drive,
330,QA001240349YG,D3,Vivi Late,BR,Trindade,714 Dottie Point,56250-000
331,TN072354389PR,P2,Casper Swoffer,RU,Sokol,855 Buena Vista Trail,347252
332,XF714689919XW,P3,Elicia Lyenyng,CA,Ladner,20874 Harbort Junction,V7A
333,OA885461659MA,D3,Stinky Noot,JP,Ōhara,71758 Badeau Avenue,299-4624
334,BN840007251XB,X1,Rockey Lidierth,SI,Štore,86 Glendale Park,3220
335,YU182121542HO,P4,Axe Matuszynski,PT,Peroguarda,67 Knutson Way,7900-455
336,PC849514813CG,P4,Ceil Gantlett,XK,Gllogjan,3 Towne Court,
337,NZ349689934VO,D2,Maren Billyeald,US,Clearwater,343 Oak Valley Point,34615
338,ZS347503430WA,U1,Eleanore Baud,ZM,Mufulira,9 Bunker Hill Street,
339,IJ399758676AN,P4,Luelle Fitt,PH,Buenavista,7662 Emmet Drive,8601
340,AF582935972OO,P3,Lotty Seedull,RU,Yekaterinovka,00797 Melby Hill,692974
341,OQ270681990MK,P2,Jimmy Bartlett,TW,Taitung City,28 Scott Crossing,
342,YE739605087NJ,P3,Laurice Camplin,PL,Góra,77297 Grim Center,56-200
343,QY162719682PT,D1,Gaspar McClifferty,CN,Foluo,97611 4th Drive,
344,UI396400043XW,U2,Rita Kibel,CN,Weibin,3 Muir Pass,
345,ZI398352787HS,X1,Toiboid Foxhall,CN,Qianhong,325 Magdeline Lane,
346,YI791457871EK,P3,Joline Docharty,PL,Sadkowice,748 Loeprich Place,96-206
347,GO360023623WQ,P3,Doralynn Sirette,TH,Tamot,3888 Thackeray Circle,93160
348,SU116414795PR,R1,Isadora Bixley,AM,Ptghunk’,09388 Rutledge Alley,
349,TT010336080IH,P1,Brynne Calrow,ID,Kota Trieng,24879 Little Fleur Drive,
350,HS385784434XZ,P3,Xenos O'Lennane,BR,Juàzeirinho,617 Welch Street,58823-000
351,UJ471590586WQ,P3,Todd Pettersen,HN,Las Lajas,24674 Barby Lane,
352,KP090561036HT,P2,Vern Hurleston,VN,Thị Trấn Phù Yên,447 Blue Bill Park Court,
353,TM375905327MO,P1,Adora Elton,CN,Wuxia,41 Oneill Crossing,
354,HH047043640UL,D2,Storm Bownde,CN,Baisha,241 Farwell Center,
355,ZQ170974103SV,R2,Kristian Narrie,SE,Svalöv,20 Daystar Place,268 90
356,NP847139089MW,P4,Consuela Grieves,US,Colorado Springs,01111 Hayes Court,80935
357,BX032322109IQ,R2,Fredelia Shipperbottom,PL,Piekoszów,6 Melrose Alley,26-065
358,SY152462883NL,P3,Jay Weber,NG,Kura,51 Bluestem Trail,
359,WV829481731ON,P3,Antonietta Arrow,MX,5 de Mayo,9092 Straubel Avenue,93350
360,HL806244043GY,P4,Orland Hevner,VE,Sinamaica,99 Mcbride Court,
361,JC303092497BR,P2,Garrek Ollier,MK,Радовиш,3 Meadow Ridge Street,2423
362,MH955422090EI,P4,Cristal Plewes,PT,Montinho,06775 Mifflin Parkway,4625-608
363,OY220051975SO,D3,Karlens Elsmore,CN,Bajingzi,8680 Lerdahl Street,
364,VE503459367DY,D2,Korey Flello,AF,Shahrak,51 Marcy Alley,
365,RS440580863LF,P3,Georgianna Matuszewski,ID,Halong,64803 Corry Parkway,
366,KO252192698ZT,P2,Elonore Kimblin,CN,Jitan,87 School Junction,
367,VU621888001NW,P2,Wendye Inwood,ID,Nyapar,9931 Northview Parkway,
368,PF765021166CM,D1,Ynez Malloch,RU,Okhotsk,98680 Farwell Court,450083
369,NB158078287CU,D1,Vasili Gent,SE,Tranås,57806 La Follette Alley,573 23
370,ZH145885151MV,R2,Andrey Backs,JP,Nagato,8 Memorial Alley,950-3345
371,FA769912304YY,D2,Amory Jan,AR,Villa Carlos Paz,5244 Lyons Pass,5152
372,AT726849091JW,P2,Olivia Stollwerk,CN,Changhao,09 Hoffman Court,
373,MT521932986YD,X1,Dagmar Sprulls,CM,Manjo,66312 Grover Terrace,
374,RB430920914RZ,P1,Othello Mowsdale,KP,P’yŏngsŏng,87652 Springs Street,
375,RF941962341AP,D1,Eyde Paulon,AM,Norashen,3 Moulton Way,
376,WN609046465ZC,R1,Netta Offa,PT,Freixo de Numão,252 Canary Point,5155-205
377,RP445566492HL,U1,Geneva Carbery,UA,Pavlivka,2439 Muir Avenue,
378,OS106758586NK,X1,Sydelle Sandels,BR,Nova Granada,8983 Mcbride Parkway,15440-000
379,KR200858278ZR,P3,Vernen Gallihaulk,BR,Gravataí,171 Moland Lane,94000-000
380,QZ459282089XN,P2,Leese Wardroper,PH,Bilar,40 Dixon Park,6317
381,WA629071632KV,U2,Ronnie Batchelder,BR,Tapera,85 Grayhawk Court,99490-000
382,MR585478855BB,U1,Tobi Littlemore,FR,Montélimar,48 Donald Drive,26204 CEDEX
383,AY190701014YC,D3,Bax Deluca,ID,Telangi Satu,65708 Westridge Circle,
384,XQ177215447VF,P3,Spencer Rames,AL,Çlirim,9856 Dapin Road,
385,TB176970202WS,P2,Bastien Cufflin,CN,Zhangbang,3 Waxwing Terrace,
386,IS561984305WR,P3,Vonni Shortcliffe,BR,Franco da Rocha,31800 Thompson Street,07800-000
387,XG302286806VS,U1,Aida Kumar,AR,Quilmes,02585 Harper Pass,5270
388,OA222116695YJ,C2,Chanda Lambdin,PH,Magallon Cadre,76203 Kedzie Court,6132
389,SG692600492LB,X1,Onfroi Fishpool,CZ,Trmice,0482 Monument Pass,400 04
390,AL163692064JG,X1,Faydra Ilewicz,VN,Thị Trấn Bắc Hà,53574 Dexter Avenue,
391,JR374944041ZH,R2,Nevile Niland,ID,Bestala,218 Quincy Parkway,
392,BV908148974ST,P3,Boyd McEwen,HN,Santa Rosa de Aguán,71037 Shopko Lane,
393,VS465245256MA,D2,Grier Snarie,FI,Iniö,99 Cottonwood Alley,23390
394,NK560755303EQ,D2,Gaultiero Emmatt,CN,Yao’an,6 Eliot Drive,
395,RH414733345GK,P3,Bambie Lattka,PS,Quşrah,2724 Veith Lane,
396,YO358095101OV,P3,Josi Bellows,RU,Novoderevyankovskaya,52041 Thierer Way,353710
397,WB688119858MD,P3,Quillan Priden,CN,Jining,0 Rowland Crossing,
398,SB836164617UF,C2,Tuckie Rotge,AF,Dū Qal‘ah,68163 Banding Road,
399,YU429589009XB,P3,Gaspar Vant,YE,Al ‘Āqir,855 Union Place,
400,MW282394010VH,D3,Keith Lippitt,EC,Guaranda,62 Green Ridge Trail,
401,BW741535425LV,P2,Natassia Orriss,RU,Pushkino,34851 Sunbrook Plaza,142139
402,OI759177996VI,U2,Melinde Halhead,LV,Engure,9946 Loeprich Court,
403,RB143551551BO,C2,Elmore Challoner,CN,Zheng’an,2232 Birchwood Circle,
404,KO520727276JR,R1,Celie Audibert,IE,Charlesland,68275 Vidon Parkway,A63
405,GT731648605ZE,P3,Padraig Boxer,BR,Cachoeirinha,8 Crowley Court,77915-000
406,PP800209356NF,P2,Silvia Netting,JP,Hotaka,1 Cordelia Center,399-8303
407,LL021018475RI,R1,Gwen Bridge,BY,Buda-Kashalyova,41 Paget Way,
408,GG500290865QZ,X1,Gavin McLelland,TH,Dan Makham Tia,12 Anderson Road,71260
409,IC007544219JA,P3,Thedric Eltone,CO,Acevedo,90 Farmco Avenue,417088
410,LX851895695JR,R1,Shaylynn Reimer,CA,Montague,2 Vahlen Junction,C0A
411,EY575906523WB,P4,Rosa Lowbridge,CN,Jinbo,05 Drewry Center,
412,BH479774780YA,R2,Maire Sharville,PA,Llano de Piedra,31 Spaight Point,
413,SV994647606KN,U1,Salvidor Amiranda,ES,Badajoz,2745 Service Drive,06010
414,XY769622498SH,D1,Eimile Dorn,CN,Huangyang,7 Hanson Circle,
415,OG246468265EK,R1,Lita Kuna,CN,Gexi,0470 Miller Road,
416,BI327505153FP,C2,Virgie Quilkin,MN,Bayshint,2489 Dawn Alley,
417,IN243742104XB,P4,Theadora Hacun,CN,Shangfang,496 Upham Point,
418,BK250843693CT,P3,Mella Agglio,PH,Sibulan,8 Fallview Terrace,6201
419,AM247816618DX,X1,Blythe Dearden,MA,Souq Larb’a al Gharb,0 Heffernan Hill,
420,LL197009888RD,U1,Mercedes Quinby,KZ,Taraz,547 Green Pass,
421,OT506439583GN,D1,Devonna Leuty,NO,Stavanger,4 Truax Place,4064
422,UV898582072SE,U1,Creighton Woffenden,ID,Wahai,399 Ryan Pass,
423,AO037643325AX,D2,Xylia Vaulkhard,CO,Arbeláez,74703 Macpherson Lane,252219
424,OF429121226SY,R2,Katie Gullifant,ID,Ili,56467 Mallard Road,
425,RX262827470WE,P2,Miguel July,RS,Bor,0 Farragut Center,
426,KI237397706WL,P2,Amalia Blest,AZ,Zabrat,7 Express Avenue,
427,VL924579988UN,P4,Moore Riolfo,PT,São Mamede,25425 5th Plaza,3700-585
428,CM722638307RF,X1,Harriet Peealess,PL,Złocieniec,29 Arrowood Center,78-524
429,WG771842895QU,P2,Koo Cutress,LY,Zawiya,58 Hovde Junction,
430,FA583108271XE,D2,Evaleen Erik,ID,Boro Utara,6 Sunbrook Center,
431,IR313990895ZW,P3,Allys Chant,CN,Guanqiao,8273 Bartelt Court,
432,UP921114394XD,P2,Nels Philbrook,NG,Boje,7426 Gulseth Crossing,
433,XM906903357PH,D1,Aguie Casbon,CN,Doumen,4591 Linden Junction,
434,JI891022559HZ,P4,Glyn Malan,UA,Uman’,36560 Nelson Circle,
435,SW139124715ZS,P1,Brittan Usher,MQ,Fort-de-France,070 Amoth Court,97265 CEDEX
436,JN594623583HI,P3,Denys Maggs,BR,Tupã,665 Carey Avenue,17600-000
437,KY027963180PP,P1,Kaylyn Fairbanks,PT,Bairro de Santo António,89948 Straubel Street,2765-133
438,YJ305676215JE,D3,Vernen Kohrs,ID,Mautapaga Bawah,807 Summerview Street,
439,SL160147529VY,P4,Orville Totaro,CN,Yichun,67052 Riverside Terrace,
440,BO325047262ZS,D3,Chandler Bote,PT,Boleiros,251 Arrowood Center,2495-313
441,RJ226354803UX,P3,Quinta Burree,CN,Wangge’ertang,4 Nobel Avenue,
442,NB117106470PM,D1,Lorry Baitey,RS,Jagodina,6 Springs Point,
443,NU797474265VZ,P1,Enrica Ziemsen,PH,Rominimbang,48 Hollow Ridge Hill,9614
444,PG513559040LH,P1,Barbara-anne Blanket,BG,Borino,6114 Ramsey Road,4824
445,FA432830868PJ,D2,Ware Trubshaw,PT,Carvoeira,95325 Heffernan Terrace,2655-034
446,KZ323615510YF,P3,Brook Spurden,SE,Landskrona,3788 Old Gate Place,261 45
447,DX454292806SE,P4,Marci Kilsby,PH,Pagangan,3502 Dryden Crossing,4801
448,LG403990788KC,U1,Sanford Moreby,CN,Taiping,95 Prairieview Crossing,
449,MY346213400KC,P2,Jodie Shoesmith,AR,Arroyo Seco,26177 Mitchell Junction,5196
450,GV072300142VW,P3,Emelita Tregea,CN,Xialu,78 Truax Terrace,
451,QY612584618BM,R1,Sherwin Burges,GM,Karantaba,2618 Moland Center,
452,YU848832988SM,C1,Clarisse Runnett,ID,Sekarjalak,094 Esker Alley,
453,GD497532469QC,C2,Sheryl Tuley,SE,Hultsfred,55 Oak Valley Terrace,577 92
454,UO832519234KF,D1,Hendrik Comolli,MA,Oujda,94415 Hallows Pass,
455,YA505123023EW,P3,Corney Mara,FR,Sarreguemines,3 Raven Circle,57204 CEDEX
456,EU055389161MJ,P3,Wendye Spenclay,BF,Diapaga,8782 Mandrake Alley,
457,DF621700643SS,P3,Hieronymus Andreuzzi,CD,Matadi,58 Gerald Pass,
458,OH538193687QA,R1,Lynea Grossman,MK,Morani,16974 Elgar Avenue,2436
459,QG562593620XQ,P3,Margaux Shuard,SI,Cerkvenjak,5984 Hintze Terrace,2236
460,FB076415521YU,P2,Charmain Hackly,SA,Tārūt,182 Sachtjen Road,
461,WV861325693YJ,P3,Thalia Mogra,PH,Cantao-an,95 Pine View Point,9023
462,XF132102113MQ,U2,Vally Lehrer,CN,Zhangqiang,09 Vahlen Circle,
463,ZK053125770GK,P3,Chev Charlet,CN,Liji,92508 Spohn Trail,
464,BS750850470ZZ,D2,Janaya Sayles,ID,Cilegong,01065 Dakota Park,
465,MR986411242XQ,P3,Carola Svanetti,PH,Caramay,0293 Charing Cross Lane,1607
466,XH775618904YX,P4,Nani Lamar,PL,Bystra,42848 Pond Crossing,34-382
467,UZ002060142JW,D3,Tan Jerrans,ID,Bagu,89 Burrows Lane,
468,WO153685512SZ,P3,Vincent Halksworth,PL,Opatowiec,92 Cordelia Center,28-520
469,XC530409091CT,P3,Druci Wort,PH,Concordia,19094 Hagan Point,5046
470,QR088835464IE,P3,Burk Noraway,CN,Miaojie,70 Fairfield Drive,
471,AG709292966NT,P1,Gasparo Slocumb,PK,Lārkāna,4 Monterey Crossing,77381
472,LK573179985YL,D1,Kynthia Kneebone,ID,Satowebrang,1687 Golden Leaf Court,
473,GK925446939TM,X1,Bevvy Kilminster,CA,Beloeil,6 Golf View Circle,J3H
474,CW165649676TX,D1,Langsdon Doick,CN,Pingfeng,19909 Laurel Park,
475,XP033782449OW,P4,Wendi Wilkins,ID,Boto,4 Colorado Center,
476,GX424015718EX,U1,Imojean Kirkland,MX,San Jose,1 Gale Way,43161
477,DS764659755VW,P4,Tomas Till,CN,Zhuangxing,5133 Butternut Street,
478,AI753057782NI,P4,Kaitlin O'Dyvoy,ID,Kadukaung,1 Pine View Center,
479,IK901324331LZ,P3,Brnaba Darrell,SL,Bumbuna,939 Melvin Court,
480,RB738717977SX,X1,Bevan Dugall,RS,Klenak,30 Dixon Junction,
481,BW145669018IZ,P1,Min De Winton,RU,Muranovo,1 Upham Hill,385741
482,FN443620517VF,P3,Jeramie Starsmeare,BY,Drybin,0899 Burning Wood Trail,
483,VF713768272UQ,P4,Otho Michal,ID,Jembatandua,8 David Terrace,
484,MF382375381XT,P4,Francyne Phipson,JP,Ami,5 Eggendart Drive,300-0331
485,SP785327700ZB,P3,Rowney Goodbairn,CN,Yutan,2 Cordelia Trail,
486,CP232761021MR,P3,Harmony Rubke,SD,Wagar,228 Rutledge Center,
487,VA309569585HZ,P4,Orsa Chappel,CN,Shalang,3 Lawn Road,
488,MX416615140AI,P3,Barbie Belasco,TH,Akat Amnuai,58 Larry Plaza,47170
489,QO181333835ZX,P3,Brigid Marshland,RU,Kalinovskoye,5 Maple Wood Park,356326
490,ZI053925979LG,R2,Pepi Baudichon,CN,Beiqi,59601 Sheridan Junction,
491,NM691635191YX,P2,Loni Fernely,CF,Berbérati,8 Stang Hill,
492,NC502821491SR,P3,Joshuah Aronowicz,CN,Jinhui,81 International Alley,
493,UV785883142XF,P3,Adham Arnoud,CN,Da’anshan,441 Mitchell Road,
494,WI557961822UN,P2,Hedwig Suttling,TH,Nong Hin,7 Clove Park,10250
495,CZ829967054NI,P3,Nissie Lippard,BR,Catu,9958 Brown Circle,48110-000
496,OW631411110ZK,P3,Lilias Kempshall,CN,Liulimiao,76651 Leroy Court,
497,WP090828597ES,P4,Tatiana Bernhard,CN,Yalukou,8 Morningstar Way,
498,RX681976191IA,P1,Karim Spatoni,AM,Argavand,21 Granby Junction,
499,WW204336008XE,P3,Barbabas Wordsworth,SE,Munka-Ljungby,98 Coolidge Pass,266 91
500,BC322024462AJ,P2,Maren Goulborn,JP,Okunoya,071 Fairview Way,314-0116
501,VR304762507PC,P1,Dot Winder,JP,Okazaki,70 Stuart Terrace,800-0331
502,GD389369391RF,X1,Audrye Fuentez,ID,Cisalakdesa,85000 Sutteridge Road,
503,GB733917326VO,P2,Giuditta Ballam,ID,Mangunjaya,83 Rowland Place,
504,BX454896427FP,X1,Hogan Snodin,CO,Girardot,12 Paget Junction,252437
505,KY891682682KJ,P2,Josephina Everson,BO,Las Carreras,3 Emmet Park,
506,IP366396356YW,D2,Fax Malthus,CN,Huanglong,2 Tomscot Terrace,
507,JY750175709MK,P2,Niall Scarff,VG,Road Town,51604 Moland Terrace,
508,WM707829267VI,C2,Kylie Graeber,RU,Nikolo-Pavlovskoye,5 Tennessee Drive,622911
509,ER331589993OD,X1,Killian Finker,PH,Matala,37119 Granby Place,1105
510,RO847081536TJ,P4,Penni Mityashev,RU,Nizhnyaya Tavda,273 Truax Pass,626020
511,HV892743961DP,P3,Nissy Edmonstone,CN,Liushun,22882 Raven Hill,
512,EE689971333RJ,P3,Cchaddie Saffin,CN,Hulan,0 Mccormick Crossing,
513,IC590167350OV,R1,Godfry Hovell,EC,Nueva Loja,088 Bluejay Hill,
514,AE475712281ZX,P3,Bruce Mapstone,DK,København,9 Bartillon Junction,1676
515,CU999426336FD,P2,Ana La Croce,FR,Sarlat-la-Canéda,10048 Hovde Place,24212 CEDEX
516,PM942471021RT,P3,Chev Eichmann,RU,Kudinovo,03938 Hauk Point,249064
517,WR359001611PP,P3,Theadora Probey,BR,Jatobá,2 Brickson Park Alley,56470-000
518,TU807395544FB,P3,Kiley Linder,PH,Bagahanlad,5 Westerfield Trail,5418
519,KT017766830QO,P4,Adair Pirdue,MY,Alor Setar,4 Grover Terrace,05590
520,WI888849133XP,P4,Karel Clemencon,KM,Moya,74 Claremont Street,
521,VM447701796AW,P2,Ade Kemer,YE,Ḩadādah,2 Commercial Drive,
522,HJ429036726MN,X1,Kat Chifney,UA,Korosten’,6483 Lyons Place,
523,DD117045918EK,R2,George Witsey,TH,Nong Khai,52400 Vermont Court,48130
524,OR567005798XC,P2,Alidia Siveter,ID,Ciawitali,4 Holy Cross Alley,
525,ZX129615029HT,P3,Phillida Savoury,CN,Guancangping,15488 Armistice Crossing,
526,XF478438382BK,P1,Sher Fortesquieu,PL,Przystajń,83 Hayes Pass,42-141
527,KJ750014317LV,X1,Jandy Mulhill,ID,Ombul Barat,716 Esch Court,
528,IZ439046735KT,P4,Aguste Roantree,BW,Mosopa,203 Sunbrook Avenue,
529,NO246800250LB,D1,Clarance Trench,PH,Malim,1882 Kipling Trail,7034
530,MD596550204QV,C2,Howie Gillfillan,ID,Gunung Talang,1946 Luster Circle,
531,GP511301764DY,R2,Bernardina Waggett,PH,Malaga,122 Barby Hill,1109
532,RC089363503EG,D2,Dagny Tomkiss,PH,Ilagan,2 Coolidge Hill,3300
533,EX865471168CJ,P2,Dill Wilcockes,PH,Dalupaon,1951 Thackeray Road,9506
534,IO578643170YB,P3,Shaine McGhie,CO,Cimitarra,453 Moland Place,686058
535,OV663805809EK,P2,Myrvyn Ridge,SI,Ormož,0518 Daystar Way,2270
536,YZ025310670ZC,P3,Salomi Terrey,CN,Pailiao,1 Delaware Circle,
537,AE273132418BB,P4,Philomena McIver,PH,Nagbukel,8494 Schmedeman Court,2725
538,FQ769526003FK,P3,Martie Goldspink,KZ,Zhezqazghan,48 Summerview Circle,
539,UH650670539TH,P3,Nadya Struan,GT,Santiago Atitlán,9 Longview Drive,07019
540,PS639508051MW,D1,Leigha Jepson,CN,Sanjing,37847 Burrows Terrace,
541,XO813100040TI,P3,Inigo Peirazzi,SM,Serravalle,4 Dakota Avenue,47899
542,SY980912864BZ,P2,Roxane Acres,RU,Lokosovo,2942 Blue Bill Park Lane,368814
543,WQ426095630SJ,D3,Erinna Mateos,CN,Fengtai Chengguanzhen,2626 Chive Hill,
544,GT211913192CK,P4,Esther Tows,CO,San Jacinto,33 Acker Parkway,132037
545,UJ944902860ZH,P2,Morry Beavon,RU,Goyty,38992 Anderson Drive,366502
546,TG013629905RC,P2,Delmore Barkly,ID,Purwojoyo,2514 Veith Terrace,
547,VX986771735YS,D2,Jackie Vernazza,CN,Jindou,649 Rusk Hill,
548,EG572389911MM,P3,Devan Lean,CN,Qiaotou,86216 3rd Crossing,
549,IB903791217TG,P2,Linnie Alasdair,ID,Turus,91795 Elgar Road,
550,MI326491426EN,P3,Carolus Burman,CN,Jiaocun,963 Butternut Point,
551,CC476912860PK,D2,Cristal Sprankling,CN,Sanlian,650 Westend Parkway,
552,DF960504323WL,D1,Sallie Atkirk,ID,Pasuruan,934 Moland Parkway,
553,AZ613498736NI,U2,Dorian Cornall,IQ,Al Başrah,97301 Maple Park,
554,BN815190337VW,P2,Courtnay Leiden,SE,Lerum,189 Ruskin Way,443 33
555,YE566856646AP,D1,Jacky Goodrick,MN,Bulag,69 Independence Point,
556,OH872969403OY,U1,Wynn Spering,NL,Voorburg,1566 Northridge Parkway,2274
557,HT766376529ZI,P2,Lorry Dicey,ID,Sukasari,713 Comanche Point,
558,UN666584851DF,P3,Bob Duffrie,CM,Bali,83 Vera Point,
559,PL158573511BU,R2,Kaela Dessaur,CN,Xinpo,106 Village Way,
560,FE635176689KL,C1,Mathian Cashley,PH,Carpenter,6 Declaration Avenue,2009
561,DY866302566LF,P3,Frasier Grewes,CN,Xi’an,14024 Pearson Street,
562,MD255207682MQ,D1,Eolande Russan,DK,København,99 Eliot Drive,1532
563,HV024068885TO,D2,Warner Gilstoun,CY,Ýpsonas,14233 Cardinal Center,
564,DB817047303RD,P4,Kaspar McSorley,FR,Versailles,871 Vahlen Place,78020 CEDEX
565,WB289096381WK,P2,Alvin Aspole,LT,Eišiškės,964 Annamark Place,17017
566,XR876549410RU,P3,Adamo Scorthorne,CN,Huangcun,1541 Green Ridge Street,
567,OO806302019BE,P3,Roxine Anstice,PL,Załuski,36 High Crossing Park,09-142
568,BQ965110270OX,R1,Valaree Stoneman,PL,Pieńsk,0 Westridge Place,59-930
569,AG852602921EC,P3,Tony Murphey,HN,El Triunfo,81 Cascade Plaza,
570,FH149360080FH,D1,Efren Rooksby,ID,Nyapar,295 Westerfield Road,
571,HE198388878AD,P3,Sarette Vinten,AR,Los Charrúas,2367 Weeping Birch Plaza,3212
572,ZV711980746RD,P4,Mellisent Stot,SY,Qārah,0526 Express Street,
573,QB342228419NN,R2,Nola De Blasiis,HR,Šenkovec,2 Schlimgen Hill,40000
574,TK018587345PI,D1,Rudy Anderl,CN,Jieguanting,71 Jana Junction,
575,AH737832824LO,P3,Eric Boocock,ID,Maredakamau,97353 Jenifer Center,
576,ZF270826031ED,P3,Jamaal Delete,TZ,Bagamoyo,3163 Barby Plaza,
577,QZ606520615JD,P3,Natasha Mouser,PT,Zambujal,6 Green Ridge Plaza,2785-549
578,ZG046139328VK,P2,Alwyn Kersley,CN,Changning,917 Harbort Terrace,
579,DA658097819HZ,P3,Fancy Pindred,ID,Kasonawejo,98 Crownhardt Alley,
580,QU577487694LV,P3,Geri Phippen,FI,Liminka,3057 Declaration Way,91901
581,VN253803312BD,P3,Ivette Di Bartolommeo,OM,Şūr,63 Acker Hill,
582,RS555622030YH,D1,Julio Volette,ZA,KwaMbonambi,6268 Elmside Hill,3915
583,GP263293994DH,D1,Parnell Soles,PH,Manoc-Manoc,1906 Mariners Cove Circle,1114
584,LT467283981EJ,D3,Feodora Lacelett,CN,Xiaojiang,230 Maywood Terrace,
585,LU471917624UW,P4,Walliw Glendining,CN,Taokeng,2142 Monterey Trail,
586,UM071154051II,P3,Stacie Szach,ZA,Queenstown,64 Transport Road,5330
587,UI476984749KT,D3,Cloe Penwarden,CZ,Těšetice,10 Logan Pass,783 46
588,IU099882646SC,D1,Gillie Ca,UA,Brody,186 Bluejay Pass,
589,AH273832110HU,P2,Erhart Cribbott,SE,Eksjö,243 Northland Court,575 35
590,BE795590859LT,P3,Derrek Munnery,CN,Gongnong,6 Johnson Center,
591,QH278258755LD,P3,Dorelia Standish,AM,Nizami,569 Debs Junction,
592,ZA268258050VZ,P2,Larine Warbrick,MY,Kuala Lumpur,3980 Stuart Plaza,50515
593,HM619473561GU,P4,Hillier Marielle,CZ,Vrbice,786 Anderson Drive,735 51
594,MV278977482KQ,D2,Waverly Blazeby,CN,Yayao,14 Lake View Alley,
595,OK126182262UP,P4,Carlin Wimlet,MY,Kuala Lumpur,96 Di Loreto Court,50515
596,AW325005347GF,P3,Rodrique Godwyn,CZ,Planá,72829 Brickson Park Junction,348 15
597,KT367057195IC,P3,Brantley Summerlad,US,Louisville,64305 Division Trail,40293
598,BF695397173ID,P2,Al Dorricott,PT,Valença do Douro,5 Fieldstone Park,5120-504
599,ZM111127859EK,P3,Joyan Baytrop,ID,Laironja,3168 Ridgeview Plaza,
600,SH587355889WE,P3,Olivette Van der Beek,PH,Aguilar,89 Bonner Lane,2415
601,EC859850547XH,P3,Egon Nesey,RU,Shedok,08954 Merrick Point,352560
602,HW601815794RT,D1,Paige Longfut,FR,Miribel,3732 Judy Circle,26350
603,OF847342719CV,R2,Ugo Antoons,RU,Kromy,19101 Crescent Oaks Crossing,303211
604,TB465004271AK,D1,Iosep Dunkley,RU,Tolstoy-Yurt,00 Badeau Parkway,366013
605,JI308646761UI,D2,Merle Murthwaite,NG,Mahuta,20224 Lillian Avenue,
606,IO648181986NX,P2,Maynord Skakunas,SE,Huskvarna,66 Summer Ridge Way,561 85
607,OE296815129FF,P2,Beitris Probey,ID,Kuaro,1665 1st Way,
608,CE596206568JS,D1,Jessie Marquet,CN,Heping,734 Warrior Pass,
609,LU708816661LZ,P3,Muffin Spratley,CZ,Klášter,67 Graceland Drive,582 83
610,BC522633960XQ,U2,Garner Godsell,CN,Luniao,0 Shasta Crossing,
611,NC413039960GK,D2,Artur Kinnon,CN,Tai’an,63606 Pepper Wood Circle,
612,MC677858611VD,D1,Wright Rude,MX,Juarez,01 Waxwing Lane,32630
613,BK676427299OM,D2,Elliot Vear,CO,Mitú,110 Sunfield Crossing,054028
614,WB980937879IV,P1,Rosalinde Vassie,FR,Sophia Antipolis,946 Fisk Street,06905 CEDEX
615,TI295939405EX,D2,Kelbee Brittlebank,PH,Dulangan,73 Shasta Avenue,5203
616,SS294709034CB,D1,Bevin Perello,CN,Tawa,7 Northport Parkway,
617,AR801941783DD,P4,Gay Sillito,NG,Nsukka,799 Monterey Circle,
618,XK606194054US,P2,Antoni Huddle,CN,Chengxi,6 Grim Road,
619,EM961065924HE,P4,Marika Rodden,CN,Xinfeng,6 Bonner Plaza,
620,YE182495717YM,P3,Hugues Frampton,CN,Shifan,10 Troy Terrace,
621,PS151624223ZO,P2,Gaylord Crissil,ID,Langensari,0533 Valley Edge Circle,
622,IR944134163UT,R1,Winthrop Lowne,CN,Chengnan,8 Buell Trail,
623,VR897368310TE,P3,Ray Gilardoni,PT,Folques,96 Ruskin Plaza,3300-265
624,TP498714340TJ,U2,Madelin Milbourne,MK,Veles,37810 Eagle Crest Hill,1400
625,KR714167541MU,U1,Lyndell Bartlet,AF,Herāt,5 Mayer Park,
626,RH890871631CZ,P2,Niall Meagher,DE,Bremerhaven,0005 Fairfield Lane,27576
627,RF684821000XH,P1,Fiorenze Esson,BR,Armação de Búzios,3974 Mallory Road,89790-000
628,XD474437558YM,D1,Guntar Burnet,BR,Pedro Leopoldo,97024 Anderson Terrace,33600-000
629,XN783287869GM,D1,Dominga Kleint,CN,Wuma,44 Elgar Court,
630,AH537617117LH,C1,Andy Flanner,CN,Hengli,67076 Veith Circle,
631,UY605270675SK,P3,Goldi Newlan,RU,Knyaze-Volkonskoye,1806 Lake View Junction,658693
632,XL680309980QF,P3,Aurora Chelley,CF,Kembé,1622 Oak Valley Circle,
633,YW667264335RC,P3,Jori De Vaar,CN,Beigucheng,28 Little Fleur Plaza,
634,QY874315829UM,P2,Mavra Strangman,BE,Tournai,953 Hovde Alley,7504
635,GN774982534WW,P3,Janeczka Linforth,NI,Masatepe,27 Fisk Hill,
636,OX296209901SN,R1,Bondon Winders,PH,Busay,81 Sherman Terrace,1556
637,CD297634759HJ,P3,Bronny Pierucci,BR,Conde,92 Pepper Wood Pass,58322-000
638,WH645040959ME,C2,Elsey Paydon,DO,Sabana Grande de Boyá,4712 Gerald Hill,10136
639,XL345795501KC,P3,Sophey Austing,KZ,Energeticheskiy,606 Schmedeman Plaza,
640,PE916785778UV,D1,Olia Beavis,CZ,Zlaté Hory,22 Hovde Hill,793 76
641,CB742936289KL,P3,Kendra Coltan,KP,Pyongyang,2798 Mesta Avenue,
642,AN944353341XB,P3,Hannah Eickhoff,CZ,Netvořice,3 Farwell Center,257 44
643,OZ461455397XE,P2,Niki Mosen,JP,Kukichūō,47782 Dahle Crossing,349-1148
644,EQ470725512HM,P2,Dorry Kealy,CL,Arauco,4506 Thierer Terrace,
645,YJ986334709SO,P1,Chanda Afield,CD,Bulungu,97 Northridge Circle,
646,YI587049125UQ,D2,Natalina Fundell,CA,Lloydminster,02457 Crowley Junction,S9V
647,DR237033931AJ,D2,Raffarty O'Gaven,PL,Kiełczów,37 Drewry Place,55-093
648,XP106502073WG,D2,Cymbre Mulligan,ID,Jembayan Hitam,59 Stephen Alley,
649,RB466709306MC,D1,Durand Golling,PT,Alcoutim,184 Morning Place,8970-055
650,WC044049480VW,P3,Sydney Harbard,MG,Ambohitrolomahitsy,2 Jay Court,
651,GH990813691KW,P3,Nye Boc,CN,Shunhe,680 Annamark Place,
652,AD801151918QP,U1,Karen Wherrit,PL,Rychwał,3 Reindahl Trail,62-570
653,YU717293284OV,P4,Lincoln Leif,UA,Slatyne,07125 Del Sol Court,
654,YE428487944NN,D1,Breanne Raulstone,TH,Sam Khok,274 Melby Hill,12160
655,CM319581037CZ,P3,Elias Wallage,RU,Zhukovskiy,9373 Maple Drive,142143
656,AI780319913ER,D1,Cora Brenton,PL,Grojec,52771 Cottonwood Point,32-615
657,EH497188493RY,P2,Lynn Ebbutt,PH,Tartaro,3639 Arkansas Parkway,2307
658,VQ941575062CS,P4,Erastus Brideaux,CO,Antioquia,984 Randy Avenue,051457
659,NH186058915NC,P1,Rockey Isaak,BR,Gurupi,3102 Colorado Junction,77400-000
660,JQ865322402GI,P2,Jordon Kattenhorn,CZ,Vlkoš,77724 Rigney Terrace,751 19
661,BX904913109PU,P3,Annora Breache,CN,Longjing,60 Carberry Street,
662,NG893151328WH,P3,Hamlin Tibbs,ID,Bulakan,03 Corscot Park,
663,MC617417440HZ,P3,Kellby Sibbet,BR,Mossoró,63 Ramsey Parkway,59600-000
664,JQ866181115LI,P3,Danette Skeene,BR,Dom Pedro,8 Emmet Street,65765-000
665,MM234360143AK,P3,Nicolea Ronan,SO,Laascaanood,346 Briar Crest Court,
666,WX716710375DG,P2,Analiese Janning,ID,Dukoh,7736 Bonner Way,
667,VC007882738LR,P3,Roselle Stork,RU,Monastyrishche,35111 Golf View Junction,692380
668,CW212443664CK,X1,Theressa Juarez,JP,Kajiki,913 Menomonie Park,899-5241
669,FX920045699YT,R1,Julius Wedlock,PH,Pagatin,82576 Dawn Way,9607
670,MA068584407AH,R2,Kalvin Cranfield,ID,Umbanyar,2 Magdeline Center,
671,SQ631157041JY,R2,Darryl Farnall,CZ,Nový Malín,8 Lerdahl Court,788 03
672,BT851140869ER,P3,Darbie Threadgould,MZ,Maxixe,286 Oak Junction,
673,CW564030643VK,P2,Merv Bolt,ES,Gijon,6399 Oneill Lane,33204
674,PJ614637972OH,R2,Glynn de Clerc,PL,Damnica,658 Hovde Parkway,76-231
675,UY172098266RO,P4,Marissa Stryde,PL,Sypniewo,477 Ridge Oak Park,06-216
676,KV765508749QU,D2,Winnie Buchett,PR,San Juan,18801 Trailsway Circle,00928
677,LY165477044YW,P1,Felike Treves,CN,Yantian,44909 Washington Trail,
678,JB651633800JO,P3,Keenan Kroch,IR,Māsāl,1 Banding Point,
679,SN847458234WK,U2,Adriena Badland,IR,Tonekābon,18046 Pine View Pass,
680,DA589192374SN,D2,Beck Darrigoe,BR,Estância,4 West Center,49200-000
681,UD453767408NS,P1,Elset Claye,CO,Buenaventura,589 Gulseth Park,764517
682,IV610966287UM,P2,Dena Wilmut,RU,Valuyki,7031 Mesta Terrace,309999
683,EW421045533MK,P3,Benoite Peaple,TZ,Chanika,3753 6th Junction,
684,PU294251046JO,P3,Gage Dominick,PE,Sicaya,15 Delaware Crossing,
685,ZQ020508085JG,P4,Tarra Thorius,PH,Gulod,08 Graceland Court,1117
686,BD145591017OA,D1,Kania Reichelt,PT,Vila Chã de Ourique,9 Hoard Lane,2070-615
687,NH279103899OQ,P3,Alikee Milne,UA,Bayrachky,6 Corscot Park,
688,RJ921658450HO,R1,Molli MacWhirter,ID,Kendayakan,7 Summerview Trail,
689,UH289128211QA,P3,Jaime Prandy,AR,Famaillá,01636 Michigan Terrace,4132
690,BP386975049UB,P3,Kliment MacKay,CO,Galán,2097 Maple Wood Way,684058
691,QY851252501XU,P4,Shirl Dominick,PH,Nangka,4 Carberry Plaza,1808
692,DO727050434DO,U1,Friedrich Iacovone,RU,Russkiy,69272 Stephen Hill,690922
693,OB764587545YK,P3,Christopher Top,HN,Teupasenti,2 Eastwood Crossing,
694,QQ169804184RM,P4,Lyndsie Petric,PA,El Quiteño,60214 Main Terrace,
695,UR933461148QG,D1,Sharla Fletcher,ID,Dukuh Kaler,52 Springs Terrace,
696,QK330369539HB,D3,Kare Boscher,SE,Borås,9 Eliot Crossing,507 10
697,XV325037548AD,X1,Ignazio Tellwright,CN,Puqian,8106 Blackbird Plaza,
698,MY527397334IK,P2,Boycey Oxborough,CN,Guocun,13908 Bartelt Court,
699,JH981566001PQ,D2,Archie Steedman,ID,Kubangkondang,6905 Crownhardt Crossing,
700,XW025798732BJ,P2,Wenona Pounds,CD,Boende,8480 Blaine Parkway,
701,MI192150551CH,D2,Galvin Michelle,PE,Trinidad,3881 Manufacturers Terrace,
702,KA648725857FE,P3,Sela Quibell,TN,Menzel Abderhaman,9 Gina Road,
703,BI201342425WB,R2,Forrest De La Haye,PT,Albufeira,426 Bashford Terrace,8200-005
704,GZ124795480CF,P3,Kissee Vivian,KP,Hyesan-dong,4 Randy Center,
705,VY535587905AO,X1,Mariam Coomber,PH,Sulop,6 Gale Pass,8009
706,AF904308212XF,D1,Harriott Swaden,UA,Bohorodchany,5 Havey Crossing,
707,WC505534269JJ,P3,Dimitry De Gogay,RU,Yeysk,4108 Michigan Avenue,404172
708,FS470872435TA,P1,Emyle Ortmann,BO,Puerto Quijarro,29 Blaine Crossing,
709,MK603886644EP,P1,Sibbie Seyfart,CN,Lijia,5959 Summerview Road,
710,KI668107137JO,U1,Katinka Vance,BA,Sarajevo,885 Miller Pass,
711,MZ410871808LJ,D1,Gearard Roggerone,CN,Guantou,0 Luster Plaza,
712,VG951399356WQ,P2,Monte Hawking,NO,Tønsberg,2397 Meadow Vale Avenue,3119
713,II711095063IO,U1,Ashlen Willers,FI,Artjärvi,4747 Surrey Parkway,16201
714,ND446169997OS,R1,Pierre Kiddle,LC,Bisée,707 Algoma Place,
715,AS423280781IO,P3,Keir McQueen,LU,Rumelange,77906 7th Drive,L-3755
716,DV124571518LM,R2,Evin Kleinerman,CD,Likasi,43 Susan Junction,
717,JQ475014087XX,P3,Nerty Sawl,KP,Kosan,667 Morningstar Park,
718,VY143897303WS,D1,Zechariah Blaver,CN,Heshan,11 Melrose Drive,
719,CE335300830AU,P2,Arabele Caress,JP,Fussa,9535 Calypso Drive,197-0011
720,GK164078331NI,P3,Kaiser Harrad,PH,Malbug,4 Rigney Parkway,2402
721,QU669359388OX,P3,Gianni Eakle,CN,Bangxi,9664 Onsgard Place,
722,KR822871229IG,P2,Saidee Ruzek,FR,Aulnay-sous-Bois,62 Florence Center,93604 CEDEX
723,JN141560252CZ,P2,Casar Sapsforde,ID,Balong Wetan,6 School Center,
724,JT132480952VN,C2,Tansy Barbe,RU,Rybinsk,362 4th Circle,433782
725,SM608715646IJ,X1,Ambrose Vials,ID,Jembayan Hitam,76 Hovde Plaza,
726,LE339426431FG,D2,Inge Fritter,AM,Margara,03 Crowley Crossing,
727,AM231052094NW,P4,Francis Strotton,CR,Nicoya,570 David Way,50201
728,IX264432394SY,P3,Clari Vazquez,RU,Dzerzhinskiy,964 Sage Place,140083
729,IS436856904ZA,P3,Carmen Marlin,CN,Rizhao,47 Vernon Hill,
730,QO975196324YT,P3,Remy Randales,IE,Killorglin,0522 Sachtjen Parkway,H14
731,UV956537830KD,P3,Alecia Sterke,ID,Kuafeu,1933 Pearson Way,
732,UM753830472ZL,U1,Eldon Papierz,MX,Manlio Fabio Altamirano,0851 Little Fleur Alley,94970
733,CA316758356IT,R2,Letti Tolossi,FR,Dunkerque,12036 Pepper Wood Terrace,59376 CEDEX 1
734,PF486020897LO,P3,Wendell Gilman,CU,Cauto Cristo,27 Bartelt Place,
735,OL505207655RF,P3,Genia Schrei,ID,Sulo,2 Park Meadow Junction,
736,OG363659132VQ,P3,Laurel Le Teve,GR,Itéa,02 Acker Parkway,
737,FQ623598774GR,P4,Oberon Wrightam,JP,Furudate,3444 Jackson Center,990-2374
738,NW884663644IG,X1,Janeva Stolberg,CN,Hengjie,5140 Charing Cross Park,
739,ON464175424XM,D1,Beau O'Leary,CN,Lezhu,8 Havey Circle,
740,CJ465413333GG,P3,Gorden Easun,CN,HanHuang,25 Debs Court,
741,HJ788584624AL,X1,Petrina Fouracres,RU,Alpatovo,096 Browning Drive,433303
742,QA123244513WX,P3,Kendra Crossfeld,RU,Perovo,11704 Fallview Center,453002
743,GC225031386RJ,R2,Vonni Brinded,MG,Amparafaravola,11383 Maple Wood Street,
744,QL719941807FJ,D3,Juieta Trudgion,PY,San Pedro del Paraná,3548 Melrose Alley,
745,QN897672373YO,D3,Casie Hodjetts,ID,Loga,33 Homewood Center,
746,CN027627566TQ,D1,Josey Fulle,CN,Jianqiao,9943 Twin Pines Avenue,
747,VC421626456DO,P3,Rodie Wanderschek,MY,Puchong,508 Calypso Terrace,47140
748,RD192109355JV,P2,Viole Lough,PK,Minchinābād,62270 Dakota Court,58031
749,GK754158228LH,P2,Lothaire Mears,ID,Karangsari,2 Pepper Wood Hill,
750,AK661072173LU,P3,Felicia Petroff,PT,Quinta,34 School Circle,4980-559
751,UC756883958GK,R2,Lefty Gianni,LU,Esch-sur-Alzette,2402 Union Pass,L-4354
752,QL410148921UO,D3,Yasmeen McCrorie,RU,Medvedok,2 Summer Ridge Circle,613451
753,FN134821678XP,P4,Rebeca Dedenham,KP,Chongjin,0146 Northfield Circle,
754,OW329681930DN,R1,Adelind Portchmouth,GR,Mykonos,06383 Tomscot Terrace,
755,TU861463038WY,P3,Cortie Glazzard,CZ,Mladá Boleslav,3141 Fremont Crossing,511 01
756,BL550944286ZO,R1,Gaven Bernardez,RW,Nzega,51 Packers Crossing,
757,VM192389223DD,R2,Giuseppe McNiven,RS,Inđija,0677 Mifflin Parkway,
758,BU164931890JR,P3,Ronnie Ancliff,PH,Kitango,131 Brown Hill,6407
759,KB162136740LA,X1,Clyde McTague,CN,Huabu,4 Sunfield Court,
760,SA676255495OT,P3,Lynda McGrouther,LA,Muang Sing,15 Vernon Alley,
761,GG885052541ZQ,D2,Tobias Ellicombe,CN,Bowang,2520 School Hill,
762,XI363745200SD,P3,Theressa Scrinage,PE,Tarica,830 Bobwhite Circle,
763,HI011706483LV,D2,Milena Norgan,PH,Calape,976 Luster Court,6328
764,UJ281879864CS,P3,Tomaso Kave,CN,Kuntong,24 Golf Course Plaza,
765,KC820214891IL,R1,Locke Argente,MG,Miandrivazo,45 Buhler Street,
766,AU602252217HJ,R1,Jilli Monard,CN,Binhe,3939 Corscot Plaza,
767,JI333623292QP,D3,Otes Calafato,ID,Ngreco,3 Old Gate Pass,
768,JW041301404XJ,X1,Orbadiah Lambart,JO,Safi,784 Village Center,
769,IW561969388BO,P4,Leonie Coull,FI,Harjavalta,3 Bunting Lane,29201
770,IV289120426WW,P4,Esme McKew,NO,Oslo,05 Crownhardt Lane,0031
771,JL787041814ND,U1,Radcliffe Oxtarby,DO,Villa Francisca,6453 Golf Course Terrace,10215
772,VC427160386PM,P3,Sianna Nials,GR,Kouvarás,1 Fulton Court,
773,DJ858754602FX,D2,Bobby Furber,JO,Malkā,6 Chive Alley,
774,GH824918553TM,P2,Alaster Arnold,SE,Sundbyberg,51547 Morningstar Junction,172 39
775,JG618839434YD,P3,Morey Taks,NA,Nkurenkuru,387 Russell Hill,
776,MR019594122WD,P3,Maddalena Martindale,JP,Itoman,299 Pawling Junction,901-0361
777,GA705521105QX,P2,Marci Kase,FI,Kontiolahti,7415 Arizona Parkway,81101
778,HE875479618ZE,P4,Phelia Saffon,JP,Aso,91 Linden Court,986-0705
779,KY030645705SV,P1,Filia Kopelman,ID,Lamadong,241 Moulton Way,
780,XM815142458KZ,D1,Sibelle Braghini,PT,Rio,69869 Ohio Crossing,4905-074
781,IN845898428HV,R1,Sumner Rottgers,UA,Zalesnoye,8875 Del Sol Crossing,
782,NA539544079VB,P3,Kary Butteris,ID,Tegalalang,4 Lien Alley,
783,HM982874274OH,U1,Harlie Matieu,CN,Xinpu,88035 Magdeline Parkway,
784,WQ437325966WD,P3,Peggy Lisciandro,BO,Santiago del Torno,708 Myrtle Way,
785,VA889823284DX,D1,Sherwood Tite,CN,Beijie,4631 Schlimgen Point,
786,SP735424809OI,X1,Tiff Willoughley,IR,Qom,767 Ohio Alley,
787,GY023248906LC,R2,Gualterio Griffen,MQ,Le Lamentin,75 Morrow Lane,97283 CEDEX 1
788,IB997595632HA,D3,Aileen Bottinelli,PL,Trzebunia,71445 Bayside Street,32-438
789,IR316249754FA,P2,Pennie Ricards,CA,Neebing,7 Golf View Parkway,P7L
790,CR145626871ZU,D1,Ara Valentin,BR,Passo Fundo,5 Melby Court,99000-000
791,SX355278729IS,C2,Donnell Lilleycrop,TT,Mucurapo,398 Warbler Drive,
792,IO046664220AL,D2,Kristofer Dust,ID,Pocokan Satu,97 Schiller Drive,
793,VP869232479KS,R2,Edna Glendenning,CN,Huaqiao,046 Dahle Lane,
794,BV265802341HY,R2,Hershel Allsepp,CN,Liangcunchang,344 Eliot Circle,
795,TS436449299NW,P1,Gardiner Britnell,ID,Tambakbaya,193 Hudson Alley,
796,TJ289554765WP,R1,Dotty Stearndale,ID,Cikupa,0939 Orin Lane,
797,LE527217996AA,P3,Saundra Imorts,CN,Tuquan,544 Nova Circle,
798,RX478954110TX,P3,Sadie Shorto,TN,Jendouba,479 Gateway Circle,
799,FQ201140143HA,R2,Rudd Watson,US,Washington,050 Forster Circle,20226
800,YG508734340UD,D1,Gizela Chiplin,BY,Drahichyn,1022 Melody Hill,
801,NA455132853FZ,C2,Wyatt Bande,MH,Rongelap,2 Schlimgen Parkway,96960
802,SQ993938103OC,R1,Myranda Pointing,FR,Saint-Brieuc,63 Fordem Crossing,22025 CEDEX 1
803,AI813868334CB,P4,Anabal Hourihan,US,Columbus,48 Florence Center,43240
804,FP232636147IO,P3,Barney Geary,BR,Tabira,24213 Larry Plaza,56780-000
805,ZA207173390HQ,P1,Kristoffer Fletcher,CN,Liangcunchang,3294 Browning Circle,
806,CV572562221BT,D1,Esme Whitmore,ID,Pakisaji,83298 Pearson Terrace,
807,EP094570739ES,D2,Johnny Somersett,CN,Yongfa,45552 Oak Valley Avenue,
808,ZB524519689VD,P4,Elberta Bullingham,CZ,Dobříš,8 Shopko Way,263 01
809,CE023097749BL,U2,Arnaldo Jobey,MA,Tanalt,0435 Maple Junction,
810,JQ451396387TA,P3,Vasilis Harbinson,BR,Rio das Ostras,5517 Dixon Hill,28890-000
811,RZ972974875AU,R2,Adolpho Ferriman,CN,Hutang,5946 Hermina Lane,
812,GD122541454VW,D1,Kathy Gleeson,RU,Krapivna,63 Forest Dale Place,301233
813,HV597458631RG,U2,Stepha Orthmann,IT,Livorno,46 Maywood Park,57124
814,VG795684110EI,P2,Melvin Pyle,CN,Batan,2 Artisan Street,
815,TG280990722MQ,P3,Florencia Durning,GR,Perístasi,39921 Summit Parkway,
816,GK195660431BQ,D2,Joe Cuningham,SY,Dārayyā,4 Emmet Parkway,
817,PA927352700HN,P3,Tabina Saunder,CA,Moosomin,97774 Morning Alley,H4J
818,BW137587118MY,P4,Waylan Antrag,CN,Luxia,2057 Duke Point,
819,VV836535347CX,R2,Thorin Elesander,TZ,Mvomero,59 High Crossing Hill,
820,CU768847605YJ,P3,Alvera Ossenna,US,Houston,1 Green Ridge Center,77260
821,YH924041355MG,D1,Glendon Symmers,MX,Santa Clara,24808 Lighthouse Bay Junction,50090
822,VG497172427HE,R2,Una Bottini,FR,Tarbes,27948 Shoshone Lane,65911 CEDEX 9
823,IK498506915LB,P4,Abe Domini,FR,Antony,24 Duke Street,92762 CEDEX
824,KV842669734UE,P4,Tillie Haselgrove,ID,Salamnunggal,377 Sloan Terrace,
825,BB912829270DW,X1,Jewell Di Baudi,FR,Limoges,14 Sugar Court,87066 CEDEX 2
826,FK984193142MQ,P3,Barrie Jehan,ME,Bijela,1427 Golden Leaf Lane,
827,EO210035679ZL,D1,Christabel Welfare,UG,Adjumani,9375 3rd Terrace,
828,DA446903811DU,P2,Corrina Couronne,BR,Divinópolis,564 Schmedeman Terrace,35500-000
829,GM826126788PF,P4,Matelda Cockroft,RU,Azovo,07 6th Street,646880
830,IO177269748UG,P3,Moira Fernando,SE,Stockholm,2 Fremont Trail,101 22
831,QD274126118BH,P3,Rusty Irving,CN,Fenglin,6 Doe Crossing Alley,
832,DV291910998YZ,D1,Celinda Downes,CN,Shiguai,6989 Ramsey Plaza,
833,BI530690242DZ,P4,Guendolen Virgin,PT,Chãos,36 Lotheville Drive,4640-301
834,AC916418770EK,X1,Berrie Dosedale,FR,Pont-Audemer,41827 Bluestem Center,27509 CEDEX
835,TG835613807YO,D1,Fayette Clyant,JP,Yonago,72 Sundown Point,692-0212
836,VE342719128CI,D1,Aggy Domenc,UA,Truskavets,3 Schurz Drive,
837,OI479081440EF,D2,Devonne Cuttelar,LK,Tangalla,7 Westerfield Alley,82200
838,KB039588754GG,P3,Anthea Knevett,US,Cleveland,82989 Dunning Pass,44185
839,YZ019236622EY,P2,Gayla Senton,CN,Maoqitun,91 Charing Cross Drive,
840,BZ286555873SP,R2,Gayleen Longhirst,SE,Skogås,7995 Oneill Center,142 50
841,ZR817346386NC,P2,Bonnibelle Hanks,ID,Pakuwon,2 Farragut Street,
842,TZ528541299JF,P3,Hunter Asif,GT,Sacapulas,36834 Carey Road,14016
843,SV886241097SZ,D3,Krissy Halford,RU,Povorino,95 Blackbird Street,397355
844,RX389033363JU,P4,Gran Paten,CN,Shejiang,914 Graceland Circle,
845,UA624639211YC,P4,Fairleigh Dur,US,Boulder,54247 Dennis Drive,80305
846,RU563783925VL,P2,Dody Hancill,HR,Ludbreg,8475 Kedzie Hill,42230
847,CU384139294AC,P3,Hildagard Kas,PS,Zubūbah,90 Kedzie Trail,
848,ZE973193143HO,P4,Angelika Forbear,NZ,Westport,8351 Mitchell Pass,7866
849,VX522289451SD,D1,Bennie Walburn,LA,Phonsavan,2 Thompson Junction,
850,VO688112479SE,P3,Joyce Deluce,CN,Meiyuan,3190 6th Way,
851,MQ206995828SZ,X1,Terrel Docket,PE,Sucre,18 Sundown Hill,
852,DP323811270VC,D2,Heath Enrigo,CN,Maodian,231 David Drive,
853,BB487466174IY,P2,Eleni King,CN,Nyima,267 Mandrake Junction,
854,UU200284963OM,P3,Blanch Searby,ID,Tebluru,7 Sunfield Lane,
855,GC956367939ET,P3,Stafford Sprulls,JP,Sasebo,4000 South Point,859-6411
856,DM468525427SJ,D1,Dorelia Hayton,ID,Parigi,3 Fallview Park,
857,UW800154293FG,P3,Patsy Clowes,NO,Trondheim,7 Thompson Trail,7042
858,MI269132412OD,P3,Temple Dearth,CN,Xinminxiang,5939 Scoville Circle,
859,RZ067452060IY,D1,Tailor Heinig,CN,Fu’an,43484 Jenifer Court,
860,RA393447098JS,D2,Ashlee Humpherston,NO,Askim,0 Fordem Park,1808
861,IY058086590RJ,P4,Caryn Speechly,CO,La Dorada,2 Hayes Hill,175038
862,TM488202689DI,P3,Arlee Antony,BR,São Francisco do Sul,808 North Hill,89240-000
863,OW475163653HT,P4,Dusty Cannavan,SV,Rosario de Mora,4328 Cody Junction,
864,RE954902743GI,P2,Vale Ledwith,TN,Jendouba,5731 6th Road,
865,HZ993608899EX,D3,Cheston Leadley,US,San Diego,2 Hoepker Center,92170
866,TM804227990IG,P4,Mandy Laidler,JP,Nobeoka,9 Eliot Park,882-0877
867,SN780695059YU,D3,Nerissa Mintram,FR,Paris 08,3 Colorado Pass,75374 CEDEX 08
868,KO822722024RT,P4,Lem Skeene,CN,Changmao,718 Oak Plaza,
869,NT788412920AH,P1,Kris Melin,KZ,Arkalyk,2131 Hintze Park,
870,UV368182644JI,R1,Zelma Widmoor,UY,Santiago Vázquez,168 Talmadge Place,
871,SV182416910ST,P3,Tess Esslement,ID,Karangbayat,6965 Old Shore Alley,
872,EU951626483QN,D1,Kerrill Gonsalo,ZA,Himeville,1227 Talmadge Center,3652
873,JV471404206AU,P2,Farlee D'Antoni,CN,Qingzhou,4 Merrick Court,
874,BK476174238TQ,X1,Chandler Houlison,CN,Zhalinghu,00 Independence Street,
875,QS483846625IN,P4,Gibbie Tomlinson,KR,Mungyeong,737 Fair Oaks Pass,
876,CP467193771BL,P3,Gwendolyn Mitchel,PH,Basiao,4 Dennis Parkway,5806
877,RM398145136SK,P3,Nataline Ingleton,MU,Camp Thorel,9 Glendale Road,
878,NY786066932HV,P2,Bondy Mealing,IL,Or Yehuda,909 Debs Hill,
879,CP566211203VV,D2,Cord Heckner,VN,Ai Tu,8381 Independence Way,
880,OJ705298653QU,R2,Robena Wilne,CN,Shuiying,3690 Debra Place,
881,JK571290162NZ,P3,Juan Seager,PT,Chãos,5 Express Road,4690-805
882,VX287399741OW,R1,Alan Wadge,ET,Sebeta,16 Mallory Hill,
883,JO464610411IJ,P2,Marcello Rapier,SE,Söderhamn,3 Glacier Hill Center,826 31
884,KA528548249NK,D3,Conney Dybell,CN,Kokagax,592 Rowland Junction,
885,TT781383111SL,P4,Pavlov Sneaker,MK,Otlja,88203 Prentice Crossing,1315
886,CQ368363916FI,R1,Murdoch Spyvye,GR,Makrychóri,792 Kenwood Junction,
887,VZ756811962YX,D3,Rabbi Gibbin,BR,Livramento do Brumado,659 Weeping Birch Pass,46140-000
888,GD627347584CQ,C2,Leigh Hurlin,UG,Kajansi,5 Parkside Alley,
889,LE588915917BT,P3,Bel Batecok,CN,Jibu Hulangtu,59566 Mcbride Point,
890,OO281912790NI,P3,Odilia Balnave,CN,Fengyang,0177 Rieder Avenue,
891,SH559515858PS,P4,Glenna Ealden,PH,Macapsing,06420 Scoville Center,5103
892,KU600680784EV,U1,Elisa Klarzynski,CN,Huidong,2 Carberry Lane,
893,XA192403845HR,P2,Antone Jewise,ET,Finote Selam,0 Aberg Lane,
894,HS688614230GP,U1,Moira Goullee,ID,Ngulung Wetan,027 Doe Crossing Lane,
895,WF480430338JF,R1,Sauncho Longley,ID,Margoyoso,4675 Scott Circle,
896,PT522425488ZZ,P3,Clayborn Pitkethly,MN,Arvayheer,38 Golden Leaf Plaza,
897,GY608780603EA,P1,Brittani Humfrey,ID,Sarimukti Kaler,8532 Oxford Park,
898,PX893536400FV,P4,Doria Kinig,ID,Alanga,31177 Hoepker Trail,
899,CF485635369BG,P4,Sabra FitzGibbon,AU,Sydney South,856 Blackbird Way,1235
900,WS899738171QV,D3,Harv Dudson,RU,Kommunar,073 Dahle Plaza,346396
901,ER509815231WN,X1,Lexy Scougal,AZ,Sabirabad,6982 La Follette Way,
902,CM499464915XR,P3,Hamid Cornall,ID,Nglorogan,3771 Knutson Trail,
903,AK869784774FL,R1,Merralee Vasyatkin,FR,Hayange,906 Kings Trail,57704 CEDEX
904,OC663717050TF,P2,Levey Cutchee,ID,Karoya,9424 Maple Trail,
905,MM743491253PT,P3,Cindra Zelley,BR,Chã Grande,5506 Milwaukee Terrace,55636-000
906,EE496607828NP,P4,Ivory Matuszynski,CN,Jingyao,50 Kinsman Place,
907,NX742878661DR,P3,Miof mela Radborne,AF,Dūāb,47330 Swallow Trail,
908,MZ778153682RC,P3,Garrett Leport,CN,Fuxing,84033 Fairfield Drive,
909,DR673874247DN,P2,Pavla Loxton,CN,Zuogaiduoma,93726 Ilene Road,
910,OS604033237RZ,P2,Candra Gentle,AL,Kajan,7 Mallard Trail,
911,XD694051164HT,P3,Fernandina O'Scully,JP,Kamaishi,1 Valley Edge Way,409-2522
912,NV137442021GP,P3,Averell Swane,SE,Strömsund,79 Sunbrook Way,833 34
913,BU185039561XJ,P3,Alfons Dolder,PS,Dayr Sāmit,3875 Village Road,
914,KF558562654UQ,C2,Patric McPaik,ID,Krajan Winong,48584 Kim Way,
915,OG285844299TW,P3,Yuma Tindle,CO,La Esperanza,8 Crescent Oaks Road,546058
916,JO908606165YT,P2,Elton Hesser,PT,Montes Velhos,5 Warner Crossing,7600-411
917,JB268345614AQ,P3,Doralynne Gulleford,CN,Sangzhen,153 Dwight Circle,
918,FD125322667OW,P3,Bartolemo Desbrow,BR,Itupiranga,5 Clarendon Road,68580-000
919,TM471529323NZ,C2,Pail Rivlin,GT,San Manuel Chaparrón,0 Clove Alley,22003
920,CM240807070KG,P2,Antoni Vockings,CN,Fenggao,007 Charing Cross Center,
921,JO963729589NT,P3,Eden Denge,UA,Kuty,954 Westerfield Road,
922,JJ901742172KR,C2,Rolfe Ruppeli,CY,Ágios Týchon,1 Texas Way,
923,ID307868335QD,R2,Felisha Catlow,PH,Dahay,7113 Shelley Road,9512
924,GF887487870AM,P3,Elysia Haddinton,RU,Tyoply Stan,6 Vahlen Road,391237
925,HV782914863PU,P2,Tracy Isham,CN,Guhuai,6846 Lakewood Gardens Place,
926,JP865055595UG,U1,Justino Newman,TH,Phuket,335 Portage Court,83120
927,AM080995981EQ,D3,Maxi Ledekker,KR,Pohang,28704 Heffernan Lane,
928,GJ713981641BY,R2,Mercie Aberkirdo,US,Burbank,4 Chinook Park,91505
929,GW500656645FP,P3,Goober Eagan,CN,Changyuan,72 Utah Junction,
930,BS457879768KP,P1,Kyle Leband,VE,Soledad,803 Clarendon Terrace,
931,DK547155502PG,U1,Kennie Salterne,PE,Vilque,635 Del Mar Avenue,
932,JF681377470GO,P2,Maire Connold,PT,Nossa Senhora de Machede,3914 Hallows Drive,7005-676
933,MQ622283065IF,P2,Larina Callcott,RU,Lotoshino,45663 Cottonwood Park,303508
934,SW300445131BO,P4,Beryle Ibbett,JP,Gifu-shi,23362 Bellgrove Pass,504-0968
935,QM785926233JI,P3,Dionysus Middler,CN,Liukou,5780 Sunfield Terrace,
936,XN682601885JU,D1,Donaugh O'Cullen,SD,Nyala,0407 Sutteridge Junction,
937,MX694913971KU,D2,Hy Antic,MY,Kuala Lumpur,5519 Rowland Crossing,53100
938,QU823534321RP,R2,Orelle Gitsham,HU,Budapest,8088 Kensington Center,1024
939,ON071866361OT,P3,Worthy Hanney,BR,Blumenau,57672 North Junction,89000-000
940,BI525527077OD,P4,Dall Crossdale,CN,Hengxizhen,7 Randy Point,
941,KX138167015SS,P3,Reagan Lister,CN,Yunmenling,61750 Homewood Trail,
942,RR201761628EE,P1,Gregoire Chick,RU,Podsineye,2 Arizona Lane,655670
943,FM912752199QR,P4,Madel Chesshyre,TH,Sawankhalok,9788 Moulton Center,64110
944,MC720913868MD,R1,Trev Matteucci,JP,Kakamigahara,454 Lakeland Terrace,509-0147
945,EV715416202OL,U1,Pearla Churchin,RU,Maloyaroslavets,781 Declaration Pass,249884
946,IZ930958049BT,P3,Brenn Bourchier,CO,Palmar de Varela,93710 Vahlen Center,083087
947,UE647322346KQ,U1,Hugues Bleasdale,KN,Newcastle,6 Sachtjen Pass,
948,CI350717747BF,P2,Cassandry O'Neill,BR,Cravinhos,868 Reinke Parkway,14140-000
949,WC984186671DX,D1,Petrina Boram,DE,Dillenburg,94 Johnson Junction,35687
950,MS788064667WA,P1,Umeko Saffell,ID,Baratleke,0 Garrison Center,
951,UX901118271XJ,C2,Trixi Berni,CN,Zhaodong,6440 Jana Court,
952,CA845590757HX,C2,Leesa Humbee,CN,Huangnaihai,21443 Stang Point,
953,HS884214626EA,P2,Gerianna Finnigan,PH,Mambulo,80 Kenwood Drive,4407
954,RC737097406ZQ,P2,Ivett Regglar,BR,Saubara,3 Cody Parkway,44220-000
955,YT182657944HV,X1,Shellie Dayce,VE,San Casimiro,5428 Milwaukee Junction,
956,LC092340902BC,U1,Caldwell Condit,CN,Karmai,988 Kedzie Point,
957,OA000489144WR,P3,Eadmund Newbatt,SE,Johanneshov,39074 Becker Drive,121 36
958,HA948833951KU,P2,Isidora Cottrell,CA,Invermere,8659 Dixon Terrace,J1K
959,XR358055633QX,D3,Emelina Mowle,PL,Skoki,31962 John Wall Street,62-085
960,UV179688609YO,X1,Denny Deppen,PH,Causip,77 Dayton Terrace,4430
961,ED702780449MF,R1,Sonni Harrington,SE,Mjölby,65453 Anderson Way,595 94
962,VL159543141RC,D2,Mora Redier,PH,Ibabang Tayuman,1926 Independence Circle,3017
963,UB659484370ZP,P3,Billie Girardez,CN,Huiqi,530 Prentice Plaza,
964,AV007529620OH,D2,Marta MattiCCI,CN,Fushun,565 Wayridge Trail,
965,FT326870223AD,U1,Franny Kleinholz,MA,Selouane,49 Kropf Crossing,
966,VY638951112VI,D1,Justine Impett,AR,Concepción del Bermejo,24 Hanover Parkway,5250
967,ME425707015VL,P3,Toiboid Rowbury,BR,Baixo Guandu,29235 Brentwood Center,29730-000
968,VZ338694447ID,P1,Glynis Hawkes,US,San Francisco,6032 Moose Road,94121
969,MX989201747UO,P3,Pooh Excell,AR,Castelli,64553 Reinke Trail,7114
970,YP962879741TG,P3,Bettine Rosina,CN,Shatian,777 Warner Circle,
971,KG524069769CM,U1,Bertrando Zollner,CN,Nanyang,738 Twin Pines Alley,
972,VC560861958JJ,P3,Margot Hallas,RU,Korfovskiy,870 Starling Lane,601423
973,LU188977737KZ,D3,Walton Robichon,JP,Maki,897 Steensland Road,959-1748
974,XG105444596WZ,D2,Fons Khoter,SE,Haparanda,7938 Esch Pass,953 34
975,OT695576127WA,P1,Lev Bulloch,ID,Sobeok,69 Scofield Drive,
976,RA772262190YT,P3,Elbertine Plain,CN,Sihai,52 Lake View Parkway,
977,OQ220501024CQ,D2,Margalo Doding,CN,Jiangnan,7900 Arapahoe Park,
978,VV868609555SV,R1,Aurlie Utley,CN,Nanhai,34274 4th Circle,
979,KG196917433SY,P3,Ilyse Elstob,CO,San Carlos,26796 Briar Crest Center,232517
980,FD976581530NS,P3,Johanna Cassie,SY,Khān Shaykhūn,0456 Hollow Ridge Lane,
981,RZ738133974WD,D2,Thomasine McCandless,JP,Muramatsu,016 Dapin Circle,441-3603
982,CX892935069XT,P2,Wiley Lowdyane,CO,Bello,1870 Sundown Terrace,051059
983,VP621993815KX,P4,Shelden Shears,BR,Palhoça,33204 Jackson Trail,88130-000
984,AH659299964RB,D2,Oralie Shorten,CN,Jiawu,324 Evergreen Pass,
985,EJ042956998VW,P3,Jermain English,ID,Wotan,74 Upham Junction,
986,BP810431940SC,D3,Cole Marsh,BG,Pleven,95 Memorial Road,5885
987,OR258433577JU,P2,Tan Jolliss,TH,Na Muen,920 Talisman Drive,55180
988,MD622097770BP,P3,Leena Scoular,JP,Akita Shi,82439 Hooker Point,501-1235
989,OO604632516ZG,P3,Inge Snoden,NL,Nijmegen,335 Prentice Road,6519
990,NT644537768ZQ,D2,Obie Fedynski,CN,Fuxing,1 Russell Circle,
991,OQ173766791SC,D1,Jonah Lidington,SE,Bromma,27 Corscot Court,167 66
992,PW758846522KX,U1,Else Tindley,DE,Berlin,74007 Corben Street,13599
993,SP935700818JK,P3,Everett Crebott,ID,Nangaroro,6 Warner Street,
994,XH392179116IA,P2,Poul Honacker,CN,Songqiao,54255 Anniversary Lane,
995,OB201906682BK,D2,Kimmie Zannetti,FR,Lescar,2902 Monument Street,64234 CEDEX
996,MM469766007CI,D2,Sydel Deveril,JP,Mobara,9459 Kingsford Pass,964-0432
997,EX296596249GI,U1,Belia Scherme,AL,Fushë-Bulqizë,992 Fulton Court,
998,TS114582107WJ,P3,Kaia Chadburn,KR,Jinan-gun,50 Scoville Plaza,
999,WC967359955YA,C1,Marianne Stienham,SE,Nyköping,79026 Summer Ridge Junction,611 24
1000,LM937034216JD,D1,Kimball Bonnett,LU,Useldange,3905 Schlimgen Terrace,L-8708
