[
	{
		"trackingnumber": "OQ377603531AX",
		"status": "D3",
		"name": "Sade Pittman",
		"destination": "Ap #241-4106 Sem. Street",
		"city": "Chichester",
		"postcode": "WS4V 3RX"
	},
	{
		"trackingnumber": "BM524438024OI",
		"status": "D3",
		"name": "Hedwig Durham",
		"destination": "535-1631 Pellentesque. Avenue",
		"city": "Sherborne",
		"postcode": "U42 3VE"
	},
	{
		"trackingnumber": "WK717495886SU",
		"status": "P2",
		"name": "Alana Golden",
		"destination": "Ap #995-8957 Natoque Rd.",
		"city": "Fochabers",
		"postcode": "K1J 3OH"
	},
	{
		"trackingnumber": "WH579888584XG",
		"status": "P4",
		"name": "Andrew Gaines",
		"destination": "Ap #759-8971 Feugiat Avenue",
		"city": "Aylesbury",
		"postcode": "SV3C 4TW"
	},
	{
		"trackingnumber": "VP939401480IN",
		"status": "D2",
		"name": "Donna Brewer",
		"destination": "3794 Egestas. Av.",
		"city": "Crieff",
		"postcode": "BI1Q 7VA"
	},
	{
		"trackingnumber": "JL762182247RW",
		"status": "P3",
		"name": "Nolan Hahn",
		"destination": "P.O. Box 588, 4431 Venenatis Road",
		"city": "Birmingham",
		"postcode": "IK27 2JG"
	},
	{
		"trackingnumber": "VI326852816IH",
		"status": "D1",
		"name": "Stewart Day",
		"destination": "650-1916 Nulla. Road",
		"city": "Felixstowe",
		"postcode": "QN81 9OC"
	},
	{
		"trackingnumber": "BW846157616EC",
		"status": "U1",
		"name": "Tatiana Rosa",
		"destination": "673-4823 Non, Road",
		"city": "Llandrindod Wells",
		"postcode": "F22 9SQ"
	},
	{
		"trackingnumber": "YN726874250FY",
		"status": "P2",
		"name": "Aileen Barnes",
		"destination": "6121 Et Rd.",
		"city": "Newtonmore",
		"postcode": "R43 8IG"
	},
	{
		"trackingnumber": "DF434873007PB",
		"status": "P3",
		"name": "Cairo Shelton",
		"destination": "Ap #723-4716 Natoque Ave",
		"city": "Cawdor",
		"postcode": "R8Q 4JJ"
	},
	{
		"trackingnumber": "ZS414403845GZ",
		"status": "U2",
		"name": "Roanna Harper",
		"destination": "Ap #266-8381 Risus. Street",
		"city": "Carluke",
		"postcode": "F36 5UI"
	},
	{
		"trackingnumber": "GJ854355133XK",
		"status": "C2",
		"name": "Mira Humphrey",
		"destination": "Ap #365-409 Aliquam St.",
		"city": "Clackmannan",
		"postcode": "Z51 3XU"
	},
	{
		"trackingnumber": "SD773250033KD",
		"status": "R1",
		"name": "Vincent Atkins",
		"destination": "Ap #679-2400 Sed Ave",
		"city": "Northampton",
		"postcode": "ED81 1PX"
	},
	{
		"trackingnumber": "DQ224984462FL",
		"status": "U1",
		"name": "Hilda Hobbs",
		"destination": "666-7093 Lorem St.",
		"city": "Alloa",
		"postcode": "CO54 6YN"
	},
	{
		"trackingnumber": "GR774754618YV",
		"status": "R2",
		"name": "Ivy Figueroa",
		"destination": "655-9114 Lacus. Av.",
		"city": "Sromness",
		"postcode": "WL3 2FI"
	},
	{
		"trackingnumber": "CE614874289YE",
		"status": "R1",
		"name": "Samson Norris",
		"destination": "2825 In, Av.",
		"city": "Abergele",
		"postcode": "BW2E 7WH"
	},
	{
		"trackingnumber": "ZN516770853UN",
		"status": "U1",
		"name": "Idona Gibson",
		"destination": "P.O. Box 469, 7733 A Ave",
		"city": "Castletown",
		"postcode": "JI0K 5PO"
	},
	{
		"trackingnumber": "DO471473390LU",
		"status": "R2",
		"name": "Keiko Shelton",
		"destination": "433-5930 Adipiscing St.",
		"city": "Worthing",
		"postcode": "JR51 6ZR"
	},
	{
		"trackingnumber": "AB751111311LL",
		"status": "C1",
		"name": "Zena Mcgee",
		"destination": "3906 Egestas Avenue",
		"city": "Stamford",
		"postcode": "IE3C 6WK"
	},
	{
		"trackingnumber": "UD453955356JC",
		"status": "U1",
		"name": "Gray Hyde",
		"destination": "709-6849 Volutpat Av.",
		"city": "Durness",
		"postcode": "EM44 0QH"
	},
	{
		"trackingnumber": "XY115125813CE",
		"status": "D1",
		"name": "April Griffith",
		"destination": "223-9162 Nulla Street",
		"city": "Stonehaven",
		"postcode": "V94 0NS"
	},
	{
		"trackingnumber": "SN747699545BR",
		"status": "R2",
		"name": "Christine Mathews",
		"destination": "P.O. Box 566, 4209 Ligula Ave",
		"city": "Swansea",
		"postcode": "S9 9PP"
	},
	{
		"trackingnumber": "DC111361067RN",
		"status": "C1",
		"name": "Jason Coleman",
		"destination": "424-5339 Malesuada. Rd.",
		"city": "Lerwick",
		"postcode": "HW77 8KW"
	},
	{
		"trackingnumber": "ZD886421354YI",
		"status": "P1",
		"name": "Rachel Richards",
		"destination": "P.O. Box 769, 1262 Sed Rd.",
		"city": "Barmouth",
		"postcode": "V3Q 9PU"
	},
	{
		"trackingnumber": "KD901252354TC",
		"status": "P1",
		"name": "Henry Wilkins",
		"destination": "658-6280 Magna. Av.",
		"city": "Wisbech",
		"postcode": "Q1U 2JO"
	},
	{
		"trackingnumber": "EV542338043KN",
		"status": "D2",
		"name": "Ifeoma Henry",
		"destination": "Ap #158-5631 Tellus. Road",
		"city": "Inverbervie",
		"postcode": "WJ17 4UD"
	},
	{
		"trackingnumber": "DJ842528664OP",
		"status": "P1",
		"name": "Ivy Booth",
		"destination": "P.O. Box 902, 6702 Dolor. St.",
		"city": "Millport",
		"postcode": "A1 4DB"
	},
	{
		"trackingnumber": "MB426147648MC",
		"status": "P2",
		"name": "Rajah Shields",
		"destination": "999-4090 Quis, Avenue",
		"city": "Portree",
		"postcode": "ZP6 1SH"
	},
	{
		"trackingnumber": "LM532166228MV",
		"status": "D3",
		"name": "Daryl Whitehead",
		"destination": "249-6712 Non, St.",
		"city": "Alness",
		"postcode": "K6 4SK"
	},
	{
		"trackingnumber": "WW722305912IK",
		"status": "D3",
		"name": "Pandora Beach",
		"destination": "P.O. Box 978, 5363 Sed Street",
		"city": "Stratford-upon-Avon",
		"postcode": "B28 4LK"
	},
	{
		"trackingnumber": "ZQ756291019UI",
		"status": "P4",
		"name": "Veronica Kinney",
		"destination": "P.O. Box 972, 3828 Ante, Avenue",
		"city": "Hatfield",
		"postcode": "DG5U 4CY"
	},
	{
		"trackingnumber": "AN023203528TX",
		"status": "P2",
		"name": "Quentin Gamble",
		"destination": "8922 Nec, Av.",
		"city": "Kirkwall",
		"postcode": "PT6 2SE"
	},
	{
		"trackingnumber": "XV214943757BT",
		"status": "C2",
		"name": "Alfonso West",
		"destination": "Ap #144-6750 Pretium St.",
		"city": "North Berwick",
		"postcode": "O2G 8NE"
	},
	{
		"trackingnumber": "WF144837162WO",
		"status": "P4",
		"name": "Hyacinth Mcmahon",
		"destination": "725-3114 Phasellus Rd.",
		"city": "Inverness",
		"postcode": "Z2 6RV"
	},
	{
		"trackingnumber": "JG181155773UE",
		"status": "R1",
		"name": "Fiona Oliver",
		"destination": "186-2909 Lacus. Rd.",
		"city": "Jedburgh",
		"postcode": "RU1P 2EB"
	},
	{
		"trackingnumber": "OD543738235AD",
		"status": "R2",
		"name": "Xander Bradford",
		"destination": "5028 Sem, Av.",
		"city": "Pembroke",
		"postcode": "OI38 6RV"
	},
	{
		"trackingnumber": "FD475328655BL",
		"status": "C2",
		"name": "Murphy Rowe",
		"destination": "Ap #163-4019 Pretium Rd.",
		"city": "Southampton",
		"postcode": "SM5 0GQ"
	},
	{
		"trackingnumber": "CW166207069WY",
		"status": "P4",
		"name": "Bert Cooley",
		"destination": "798-7763 Nibh Rd.",
		"city": "Tenby",
		"postcode": "GP57 8MC"
	},
	{
		"trackingnumber": "QG658672113VC",
		"status": "P4",
		"name": "Cadman Becker",
		"destination": "Ap #716-4774 Quis Avenue",
		"city": "Warminster",
		"postcode": "W2G 2PS"
	},
	{
		"trackingnumber": "IC442836327KK",
		"status": "R1",
		"name": "Linda Carpenter",
		"destination": "366-1699 Gravida St.",
		"city": "Leominster",
		"postcode": "E87 0MT"
	},
	{
		"trackingnumber": "SE686178695XR",
		"status": "R2",
		"name": "Elaine Tyler",
		"destination": "660-2341 Erat. St.",
		"city": "Fraserburgh",
		"postcode": "W6 7GK"
	},
	{
		"trackingnumber": "LM432628250UF",
		"status": "P2",
		"name": "MacKensie Holman",
		"destination": "P.O. Box 347, 9031 In Rd.",
		"city": "Milnathort",
		"postcode": "L89 2XA"
	},
	{
		"trackingnumber": "EW543193265BF",
		"status": "U2",
		"name": "Elton Campos",
		"destination": "Ap #586-3631 Vitae, Av.",
		"city": "Redruth",
		"postcode": "D5 5QC"
	},
	{
		"trackingnumber": "OX332472438DG",
		"status": "D2",
		"name": "Sebastian Miller",
		"destination": "Ap #256-6369 Nulla Rd.",
		"city": "Troon",
		"postcode": "F1 9TC"
	},
	{
		"trackingnumber": "GV681676687KI",
		"status": "D2",
		"name": "Richard Zimmerman",
		"destination": "P.O. Box 692, 6279 Donec St.",
		"city": "Milnathort",
		"postcode": "A7N 0JM"
	},
	{
		"trackingnumber": "WE805138634NY",
		"status": "P3",
		"name": "Sybill Chambers",
		"destination": "643-6975 Dis Av.",
		"city": "Forfar",
		"postcode": "RA5 4CO"
	},
	{
		"trackingnumber": "TM172896822LD",
		"status": "R2",
		"name": "Julian Shelton",
		"destination": "Ap #530-1154 Arcu St.",
		"city": "Chester",
		"postcode": "P8 9WE"
	},
	{
		"trackingnumber": "AD068159478ZL",
		"status": "P1",
		"name": "Marny Webb",
		"destination": "3175 Lobortis Ave",
		"city": "Falmouth",
		"postcode": "B4 8BB"
	},
	{
		"trackingnumber": "XE410038443UX",
		"status": "R2",
		"name": "Mohammad Underwood",
		"destination": "702-4758 Non Rd.",
		"city": "Jedburgh",
		"postcode": "YG3Z 3IW"
	},
	{
		"trackingnumber": "MW544693146YT",
		"status": "P3",
		"name": "Bruce Ramos",
		"destination": "120-277 Ultricies St.",
		"city": "Cumnock",
		"postcode": "U55 6NC"
	},
	{
		"trackingnumber": "TR863402628MF",
		"status": "P3",
		"name": "Sage Vasquez",
		"destination": "P.O. Box 499, 6449 Orci. St.",
		"city": "Holyhead",
		"postcode": "E8 1FR"
	},
	{
		"trackingnumber": "RB782559131SY",
		"status": "R2",
		"name": "Aspen Hardin",
		"destination": "3528 Donec Avenue",
		"city": "Glossop",
		"postcode": "XH7 4TR"
	},
	{
		"trackingnumber": "EG114745895GY",
		"status": "C1",
		"name": "John Holt",
		"destination": "157-2404 Odio. Rd.",
		"city": "Helmsdale",
		"postcode": "M10 2KH"
	},
	{
		"trackingnumber": "TY053469133EF",
		"status": "P1",
		"name": "Kirk Hardy",
		"destination": "956-4463 Et, St.",
		"city": "Oxford",
		"postcode": "MM4 1SD"
	},
	{
		"trackingnumber": "IR377615837PR",
		"status": "C1",
		"name": "Harlan Austin",
		"destination": "Ap #113-1716 Vestibulum Rd.",
		"city": "Skegness",
		"postcode": "CN13 8QJ"
	},
	{
		"trackingnumber": "LF922459917IH",
		"status": "D1",
		"name": "Mufutau Mcclain",
		"destination": "P.O. Box 657, 305 Quis Rd.",
		"city": "Coldstream",
		"postcode": "N7 9LT"
	},
	{
		"trackingnumber": "OC968522989YU",
		"status": "P1",
		"name": "Rooney Blankenship",
		"destination": "316-9142 Ante, Street",
		"city": "Uppingham. Cottesmore",
		"postcode": "XG22 9QK"
	},
	{
		"trackingnumber": "PE973512547AI",
		"status": "R2",
		"name": "Jakeem Britt",
		"destination": "P.O. Box 660, 212 Eu Road",
		"city": "Stratford-upon-Avon",
		"postcode": "HQ0R 1FZ"
	},
	{
		"trackingnumber": "UD275214264EB",
		"status": "U1",
		"name": "Cadman Watkins",
		"destination": "130-310 Lobortis Rd.",
		"city": "Nairn",
		"postcode": "E5 0HE"
	},
	{
		"trackingnumber": "XG721378135PL",
		"status": "D2",
		"name": "Gary Patel",
		"destination": "Ap #170-6200 Arcu. Rd.",
		"city": "Worksop",
		"postcode": "CN5H 8YO"
	},
	{
		"trackingnumber": "RF359513314ED",
		"status": "D1",
		"name": "Farrah Navarro",
		"destination": "614-3659 In Rd.",
		"city": "Lochranza",
		"postcode": "II8O 0BT"
	},
	{
		"trackingnumber": "QS976422783FQ",
		"status": "P4",
		"name": "Nerea Hardin",
		"destination": "9592 Lacus Rd.",
		"city": "Greenock",
		"postcode": "W2 6WR"
	},
	{
		"trackingnumber": "LP362668521YM",
		"status": "D1",
		"name": "Graiden Cain",
		"destination": "Ap #871-5851 Sed Av.",
		"city": "Annan",
		"postcode": "P4G 0VD"
	},
	{
		"trackingnumber": "SN147385266MQ",
		"status": "R1",
		"name": "Jade Moses",
		"destination": "P.O. Box 175, 4505 Dolor. St.",
		"city": "Llanelli",
		"postcode": "Y1 9PS"
	},
	{
		"trackingnumber": "UK826573698UF",
		"status": "U2",
		"name": "Dale Brooks",
		"destination": "P.O. Box 281, 1261 Adipiscing. Avenue",
		"city": "Scalloway",
		"postcode": "X35 7CM"
	},
	{
		"trackingnumber": "OG037260132IO",
		"status": "D2",
		"name": "Curran Hutchinson",
		"destination": "1659 Tincidunt Street",
		"city": "Edinburgh",
		"postcode": "EY57 0BQ"
	},
	{
		"trackingnumber": "NU347885415IM",
		"status": "R1",
		"name": "Stuart Hogan",
		"destination": "P.O. Box 802, 5389 Arcu Avenue",
		"city": "Brechin",
		"postcode": "W4Q 1NL"
	},
	{
		"trackingnumber": "QW528410015NF",
		"status": "C2",
		"name": "Ashely Farley",
		"destination": "8782 Faucibus Av.",
		"city": "Shrewsbury",
		"postcode": "Z3F 8VL"
	},
	{
		"trackingnumber": "MY621648637VI",
		"status": "D1",
		"name": "MacKensie Moody",
		"destination": "P.O. Box 557, 5676 Mauris Rd.",
		"city": "Luton",
		"postcode": "L30 4WB"
	},
	{
		"trackingnumber": "SB111216292FW",
		"status": "U1",
		"name": "Rowan Gardner",
		"destination": "P.O. Box 406, 3383 Dolor St.",
		"city": "Edinburgh",
		"postcode": "ZR8 8SQ"
	},
	{
		"trackingnumber": "ZQ743007805MX",
		"status": "U1",
		"name": "Medge Waller",
		"destination": "8883 Duis Avenue",
		"city": "Chelmsford",
		"postcode": "TP15 1LB"
	},
	{
		"trackingnumber": "CM584476167OR",
		"status": "R1",
		"name": "Dorothy Watts",
		"destination": "P.O. Box 763, 3192 Suspendisse Street",
		"city": "March",
		"postcode": "T53 9FV"
	},
	{
		"trackingnumber": "FO556177773XB",
		"status": "D1",
		"name": "Yardley Gregory",
		"destination": "709-1244 Ornare Road",
		"city": "Tenby",
		"postcode": "OI44 6NV"
	},
	{
		"trackingnumber": "LY224763510PB",
		"status": "R2",
		"name": "Nola Bush",
		"destination": "Ap #916-3286 Nunc Rd.",
		"city": "Castletown",
		"postcode": "KN3E 6HN"
	},
	{
		"trackingnumber": "JD136166278XP",
		"status": "U2",
		"name": "Kai Thornton",
		"destination": "816-1701 Adipiscing Rd.",
		"city": "Weston-super-Mare",
		"postcode": "MM7I 3BG"
	},
	{
		"trackingnumber": "LB012019977HS",
		"status": "D1",
		"name": "Amanda Bush",
		"destination": "132-2983 Euismod Road",
		"city": "Montgomery",
		"postcode": "F8Y 6IJ"
	},
	{
		"trackingnumber": "BS756015228CT",
		"status": "P2",
		"name": "Michael Cole",
		"destination": "Ap #146-4584 Aliquam Rd.",
		"city": "Fochabers",
		"postcode": "UX2 1QX"
	},
	{
		"trackingnumber": "BO107574485TK",
		"status": "P4",
		"name": "Kaseem Norman",
		"destination": "Ap #265-2838 Est. St.",
		"city": "Hawick",
		"postcode": "E3 3JP"
	},
	{
		"trackingnumber": "DX413321031MG",
		"status": "C1",
		"name": "Yoko Graves",
		"destination": "P.O. Box 621, 1894 In Rd.",
		"city": "Wrexham",
		"postcode": "YR8M 3OK"
	},
	{
		"trackingnumber": "LH226019306KU",
		"status": "U1",
		"name": "Quyn Cummings",
		"destination": "Ap #905-4796 Purus, Avenue",
		"city": "Kirkwall",
		"postcode": "K8Y 8OG"
	},
	{
		"trackingnumber": "FS228887522ZM",
		"status": "D3",
		"name": "Tate Hall",
		"destination": "441-5992 Etiam St.",
		"city": "Redruth",
		"postcode": "X2 8HY"
	},
	{
		"trackingnumber": "GL712452744FL",
		"status": "P2",
		"name": "Zachary Garner",
		"destination": "140-7702 Duis Av.",
		"city": "Bournemouth",
		"postcode": "E7 5DN"
	},
	{
		"trackingnumber": "MA126114123HM",
		"status": "R2",
		"name": "Desirae Knox",
		"destination": "744-7347 Id, Ave",
		"city": "Weymouth",
		"postcode": "H37 5ZV"
	},
	{
		"trackingnumber": "XL962659579UD",
		"status": "R2",
		"name": "August Rogers",
		"destination": "Ap #571-3052 Nisl. St.",
		"city": "Merthyr Tydfil",
		"postcode": "R2R 2BG"
	},
	{
		"trackingnumber": "FN578135637JL",
		"status": "R1",
		"name": "Althea Poole",
		"destination": "Ap #277-5938 Libero. St.",
		"city": "Carmarthen",
		"postcode": "C6Y 4SD"
	},
	{
		"trackingnumber": "VG265471143XG",
		"status": "P4",
		"name": "Zeph Figueroa",
		"destination": "Ap #912-5195 Iaculis Rd.",
		"city": "Cwmbran",
		"postcode": "X4F 7ZC"
	},
	{
		"trackingnumber": "WO164255308UX",
		"status": "C2",
		"name": "Arthur Keith",
		"destination": "Ap #284-5674 Non Rd.",
		"city": "Keswick",
		"postcode": "QA2M 8JN"
	},
	{
		"trackingnumber": "GV352122874BZ",
		"status": "P3",
		"name": "Palmer Palmer",
		"destination": "260-1280 Malesuada Street",
		"city": "Bo'ness",
		"postcode": "ZU8 4MI"
	},
	{
		"trackingnumber": "OO195010448NJ",
		"status": "U1",
		"name": "Britanney Stewart",
		"destination": "632-2171 Pede. Ave",
		"city": "Hay-on-Wye",
		"postcode": "MH1 2VC"
	},
	{
		"trackingnumber": "JM508255465GD",
		"status": "P3",
		"name": "Yvette Patton",
		"destination": "P.O. Box 182, 9333 Pellentesque Avenue",
		"city": "Milford Haven",
		"postcode": "U8H 4LR"
	},
	{
		"trackingnumber": "QH985181357YV",
		"status": "R1",
		"name": "Russell Fleming",
		"destination": "969-9483 Ipsum Rd.",
		"city": "Southend",
		"postcode": "CB3 4GK"
	},
	{
		"trackingnumber": "BW210814433PH",
		"status": "P3",
		"name": "Camden O'Neill",
		"destination": "P.O. Box 734, 6674 Sed, Rd.",
		"city": "Blackwood",
		"postcode": "W70 1EH"
	},
	{
		"trackingnumber": "TC502324068CE",
		"status": "C2",
		"name": "Aiko Rodriquez",
		"destination": "1428 Posuere Av.",
		"city": "Huntingdon",
		"postcode": "IK2 2PE"
	},
	{
		"trackingnumber": "KH662753243ZM",
		"status": "R2",
		"name": "Kessie Stark",
		"destination": "8617 Integer Rd.",
		"city": "Stratford-upon-Avon",
		"postcode": "BK1 4DF"
	},
	{
		"trackingnumber": "LV724451464JL",
		"status": "D1",
		"name": "Devin Anderson",
		"destination": "390 Metus. Avenue",
		"city": "Coatbridge",
		"postcode": "VK73 1MR"
	},
	{
		"trackingnumber": "WM597702377DN",
		"status": "P2",
		"name": "Colin Page",
		"destination": "Ap #478-1729 Fringilla, Street",
		"city": "Harlow",
		"postcode": "K1E 2LJ"
	},
	{
		"trackingnumber": "KG922501621KY",
		"status": "P4",
		"name": "Adria Frank",
		"destination": "774-4323 Interdum. Street",
		"city": "Denny",
		"postcode": "Y7 8LM"
	},
	{
		"trackingnumber": "KJ310673585HI",
		"status": "R2",
		"name": "Felicia Newton",
		"destination": "Ap #567-8889 Egestas. Rd.",
		"city": "Dunstable",
		"postcode": "TK1 6KB"
	},
	{
		"trackingnumber": "TV122966617WO",
		"status": "C1",
		"name": "Sandra Osborne",
		"destination": "Ap #946-103 Sed St.",
		"city": "Kinross",
		"postcode": "K41 7HL"
	},
	{
		"trackingnumber": "DH413108409MF",
		"status": "U1",
		"name": "Holly Bailey",
		"destination": "Ap #911-9025 Nulla St.",
		"city": "Callander",
		"postcode": "QC86 2CF"
	},
	{
		"trackingnumber": "JQ616710277FZ",
		"status": "P2",
		"name": "Deacon Mathis",
		"destination": "Ap #994-4701 Cursus Road",
		"city": "Invergordon",
		"postcode": "GS18 2PT"
	},
	{
		"trackingnumber": "PS436473858NT",
		"status": "D1",
		"name": "Talon Beard",
		"destination": "956-8535 Nunc Ave",
		"city": "Crawley",
		"postcode": "HK7 2TK"
	},
	{
		"trackingnumber": "UY946568117IR",
		"status": "C2",
		"name": "Willow Evans",
		"destination": "430-9009 Molestie Rd.",
		"city": "Huntley",
		"postcode": "Y8 7JU"
	},
	{
		"trackingnumber": "WS986568664XZ",
		"status": "P2",
		"name": "Hasad Pratt",
		"destination": "246-7678 Vel Avenue",
		"city": "Lampeter",
		"postcode": "N97 2PW"
	},
	{
		"trackingnumber": "DF804562529EJ",
		"status": "R2",
		"name": "Jerome Moody",
		"destination": "Ap #804-902 Egestas Rd.",
		"city": "Sromness",
		"postcode": "T13 3CZ"
	},
	{
		"trackingnumber": "CC673491244SX",
		"status": "P3",
		"name": "Bruno Dotson",
		"destination": "P.O. Box 634, 4939 Risus. Rd.",
		"city": "Wigtown",
		"postcode": "XQ3 7FR"
	},
	{
		"trackingnumber": "RM337885254XT",
		"status": "R1",
		"name": "Idona Cherry",
		"destination": "323-5435 Accumsan Rd.",
		"city": "Swansea",
		"postcode": "UA4J 6KD"
	},
	{
		"trackingnumber": "VQ484795868WJ",
		"status": "D1",
		"name": "Sarah Austin",
		"destination": "Ap #628-177 Nonummy St.",
		"city": "Bristol",
		"postcode": "EK5T 7GD"
	},
	{
		"trackingnumber": "IW841746590TZ",
		"status": "P4",
		"name": "Ulric Cameron",
		"destination": "P.O. Box 469, 9135 Ultrices St.",
		"city": "Warminster",
		"postcode": "WT2X 8UE"
	},
	{
		"trackingnumber": "BC321607728PT",
		"status": "U2",
		"name": "Alexandra Sheppard",
		"destination": "Ap #635-6542 Nonummy Ave",
		"city": "Witney",
		"postcode": "E4 6EH"
	},
	{
		"trackingnumber": "SN998743744LT",
		"status": "R1",
		"name": "Eleanor Franks",
		"destination": "Ap #112-5199 Metus Ave",
		"city": "Witney",
		"postcode": "O15 2UE"
	},
	{
		"trackingnumber": "ER025464914LG",
		"status": "D1",
		"name": "Hayes Holt",
		"destination": "900-5974 Taciti Street",
		"city": "Burntisland",
		"postcode": "MP2X 3EE"
	},
	{
		"trackingnumber": "JS833473684AP",
		"status": "R1",
		"name": "Nelle Knight",
		"destination": "505-4252 Tincidunt Av.",
		"city": "Holyhead",
		"postcode": "RG7U 3SJ"
	},
	{
		"trackingnumber": "RQ404662548UC",
		"status": "P3",
		"name": "Erasmus Lott",
		"destination": "Ap #344-3485 Dui Ave",
		"city": "Kinross",
		"postcode": "MA27 1CV"
	},
	{
		"trackingnumber": "BG366752132VA",
		"status": "R1",
		"name": "Tana Roth",
		"destination": "Ap #274-5268 Enim. Rd.",
		"city": "Hawick",
		"postcode": "KV3 5GD"
	},
	{
		"trackingnumber": "SL982255852SV",
		"status": "R1",
		"name": "Autumn Powell",
		"destination": "713-3343 Tincidunt St.",
		"city": "Marlborough",
		"postcode": "VR2 1OB"
	},
	{
		"trackingnumber": "ZT352633528XL",
		"status": "D3",
		"name": "Ainsley Day",
		"destination": "8935 Lectus Av.",
		"city": "Plymouth",
		"postcode": "P8 0ML"
	},
	{
		"trackingnumber": "YR183532971VZ",
		"status": "P4",
		"name": "Sopoline Emerson",
		"destination": "561-3021 Arcu. Road",
		"city": "Largs",
		"postcode": "V5W 7WI"
	},
	{
		"trackingnumber": "OO663984744QP",
		"status": "C1",
		"name": "Orson Christensen",
		"destination": "616-8170 Laoreet St.",
		"city": "Margate",
		"postcode": "KI5 0HW"
	},
	{
		"trackingnumber": "OA401935214YB",
		"status": "U1",
		"name": "Debra Gill",
		"destination": "2525 In Road",
		"city": "Broxburn",
		"postcode": "B8H 6WG"
	},
	{
		"trackingnumber": "YF315255053PF",
		"status": "R2",
		"name": "Elaine Peck",
		"destination": "205-2537 Non, St.",
		"city": "Lochranza",
		"postcode": "Q38 0UN"
	},
	{
		"trackingnumber": "XO187676424NZ",
		"status": "R1",
		"name": "Florence Woodward",
		"destination": "684-1598 Nec Ave",
		"city": "Ilkeston",
		"postcode": "X56 3IH"
	},
	{
		"trackingnumber": "UM710651678CH",
		"status": "P2",
		"name": "Joshua Singleton",
		"destination": "255-7545 Proin Rd.",
		"city": "Portsmouth",
		"postcode": "YT50 3NR"
	},
	{
		"trackingnumber": "XC864373414IE",
		"status": "P2",
		"name": "Helen Lyons",
		"destination": "P.O. Box 916, 7084 Mi Road",
		"city": "Hinckley",
		"postcode": "G42 3KC"
	},
	{
		"trackingnumber": "EY576330476KI",
		"status": "P4",
		"name": "Lilah Dunlap",
		"destination": "P.O. Box 288, 8484 Ut St.",
		"city": "Kendal",
		"postcode": "T5 2GH"
	},
	{
		"trackingnumber": "RL161468652PH",
		"status": "D2",
		"name": "Talon Willis",
		"destination": "844-2507 Nunc Street",
		"city": "Guildford",
		"postcode": "JU57 8LY"
	},
	{
		"trackingnumber": "NB460755768BI",
		"status": "P4",
		"name": "Rudyard Hutchinson",
		"destination": "393-2411 A Rd.",
		"city": "Inveraray",
		"postcode": "RC9K 3DH"
	},
	{
		"trackingnumber": "YM623468445EI",
		"status": "P3",
		"name": "Dylan Mccullough",
		"destination": "992-8678 Non Rd.",
		"city": "Halkirk",
		"postcode": "W8N 8NN"
	},
	{
		"trackingnumber": "PX240284837EG",
		"status": "P4",
		"name": "Uta Orr",
		"destination": "162-7780 Dis Av.",
		"city": "Banchory",
		"postcode": "G7 1EN"
	},
	{
		"trackingnumber": "JV882028657RI",
		"status": "D3",
		"name": "Paula Thornton",
		"destination": "535-6052 Pellentesque Rd.",
		"city": "Llandrindod Wells",
		"postcode": "T4 3XR"
	},
	{
		"trackingnumber": "UW846574183UE",
		"status": "D1",
		"name": "Signe Mcmahon",
		"destination": "267-9878 Arcu St.",
		"city": "Macduff",
		"postcode": "BH8 2XP"
	},
	{
		"trackingnumber": "MC509270787BC",
		"status": "P3",
		"name": "Amery Montgomery",
		"destination": "983-1636 Odio Ave",
		"city": "Poole",
		"postcode": "WZ87 4UF"
	},
	{
		"trackingnumber": "KT396491691YB",
		"status": "U1",
		"name": "Zachery Alvarado",
		"destination": "753-3420 Nunc Av.",
		"city": "Merthyr Tydfil",
		"postcode": "T6 1NM"
	},
	{
		"trackingnumber": "XO527351470QE",
		"status": "C2",
		"name": "Dacey Marquez",
		"destination": "427-6439 Eleifend Road",
		"city": "Thurso",
		"postcode": "GN6S 3YF"
	},
	{
		"trackingnumber": "CM753728481ES",
		"status": "D3",
		"name": "Scarlett Valenzuela",
		"destination": "9105 Magna Street",
		"city": "Leominster",
		"postcode": "QP8 4EP"
	},
	{
		"trackingnumber": "UC651115193GN",
		"status": "P2",
		"name": "Yvette Lester",
		"destination": "1997 Tempor St.",
		"city": "Irvine",
		"postcode": "F8 2GN"
	},
	{
		"trackingnumber": "IP311138236LX",
		"status": "P3",
		"name": "Garrett Rutledge",
		"destination": "317-3675 A Road",
		"city": "Poole",
		"postcode": "L69 5LS"
	},
	{
		"trackingnumber": "YF782492086DX",
		"status": "R1",
		"name": "Hunter Gibbs",
		"destination": "Ap #506-2512 Placerat, Street",
		"city": "Maidenhead",
		"postcode": "KE35 6NY"
	},
	{
		"trackingnumber": "RQ762832245ZQ",
		"status": "D1",
		"name": "Isaiah Hyde",
		"destination": "Ap #443-5096 Lorem, Av.",
		"city": "Stockport",
		"postcode": "N7L 7DO"
	},
	{
		"trackingnumber": "LY443424521QP",
		"status": "P3",
		"name": "Sopoline Alexander",
		"destination": "531-3337 Lectus Road",
		"city": "Rhayader",
		"postcode": "RY9 7IW"
	},
	{
		"trackingnumber": "XU712416344IT",
		"status": "R2",
		"name": "Meghan Flowers",
		"destination": "6070 Consectetuer Av.",
		"city": "Tullibody",
		"postcode": "I46 2PX"
	},
	{
		"trackingnumber": "WP666168741KW",
		"status": "P4",
		"name": "Gillian Peters",
		"destination": "Ap #870-1888 A Av.",
		"city": "Tavistock",
		"postcode": "WX3 6JQ"
	},
	{
		"trackingnumber": "JQ644733821DE",
		"status": "U1",
		"name": "Mark Gallegos",
		"destination": "P.O. Box 758, 9785 Enim. Av.",
		"city": "Abergele",
		"postcode": "QC3R 5UG"
	},
	{
		"trackingnumber": "YX129783318FN",
		"status": "D3",
		"name": "Sybill Ramirez",
		"destination": "159-6603 Semper St.",
		"city": "Bo'ness",
		"postcode": "P5 4UM"
	},
	{
		"trackingnumber": "OH040711372KW",
		"status": "P1",
		"name": "Declan Holland",
		"destination": "Ap #537-2367 Nec, Rd.",
		"city": "Hatfield",
		"postcode": "N8 7JM"
	},
	{
		"trackingnumber": "ST889080186GA",
		"status": "D3",
		"name": "Tucker Williams",
		"destination": "590-1146 Egestas, St.",
		"city": "York",
		"postcode": "G9 6TP"
	},
	{
		"trackingnumber": "VN956660688FR",
		"status": "D2",
		"name": "Risa Salas",
		"destination": "P.O. Box 955, 143 Eu Street",
		"city": "Kirkwall",
		"postcode": "J7I 1RB"
	},
	{
		"trackingnumber": "HB741433628AT",
		"status": "C2",
		"name": "Nero Kidd",
		"destination": "273-8962 Praesent Road",
		"city": "Maidstone",
		"postcode": "OK5N 7NQ"
	},
	{
		"trackingnumber": "QC737316652DI",
		"status": "D2",
		"name": "Angelica Savage",
		"destination": "927-5981 Eu Avenue",
		"city": "Carluke",
		"postcode": "J31 2RX"
	},
	{
		"trackingnumber": "HL077517394OY",
		"status": "D2",
		"name": "James Ward",
		"destination": "166-5872 Semper St.",
		"city": "Kington",
		"postcode": "V6J 4EU"
	},
	{
		"trackingnumber": "RQ302786566ME",
		"status": "P2",
		"name": "Cally Hood",
		"destination": "P.O. Box 416, 5823 Turpis. St.",
		"city": "Bury St. Edmunds",
		"postcode": "N6 8QR"
	},
	{
		"trackingnumber": "NR583785244OI",
		"status": "P3",
		"name": "Teegan Mason",
		"destination": "479-6354 Nunc Rd.",
		"city": "Bromyard",
		"postcode": "XF9 8OW"
	},
	{
		"trackingnumber": "PY693722026BF",
		"status": "D3",
		"name": "Noelle Wolf",
		"destination": "Ap #799-5978 Elit Av.",
		"city": "Kirkwall",
		"postcode": "D16 3XR"
	},
	{
		"trackingnumber": "HU773613633YW",
		"status": "D3",
		"name": "Abraham Clayton",
		"destination": "992-1753 A, Rd.",
		"city": "Milnathort",
		"postcode": "Q3T 5NU"
	},
	{
		"trackingnumber": "IX059137523QL",
		"status": "R1",
		"name": "Ezekiel Crawford",
		"destination": "446-2654 Mauris Av.",
		"city": "Auldearn",
		"postcode": "V4X 7SR"
	},
	{
		"trackingnumber": "LJ934248781KV",
		"status": "D2",
		"name": "Ciara Strickland",
		"destination": "Ap #507-6671 Dictum Av.",
		"city": "Ross-on-Wye",
		"postcode": "TL4 2KY"
	},
	{
		"trackingnumber": "AF872246752GX",
		"status": "P2",
		"name": "Angelica Ryan",
		"destination": "767-868 Odio. Avenue",
		"city": "Rochester",
		"postcode": "FB8 3CP"
	},
	{
		"trackingnumber": "QN846641554XT",
		"status": "R2",
		"name": "Clio Sweeney",
		"destination": "753-2960 Morbi Av.",
		"city": "Scunthorpe",
		"postcode": "OP3 3MI"
	},
	{
		"trackingnumber": "BE421302651QT",
		"status": "D3",
		"name": "Marsden Edwards",
		"destination": "7087 Bibendum Avenue",
		"city": "Cawdor",
		"postcode": "LR02 7UM"
	},
	{
		"trackingnumber": "XQ675815657TW",
		"status": "D1",
		"name": "Candace Bowman",
		"destination": "808-258 Ornare Street",
		"city": "Inverness",
		"postcode": "W64 1DU"
	},
	{
		"trackingnumber": "TM323864037LS",
		"status": "R2",
		"name": "Aristotle Silva",
		"destination": "6118 Lorem, Street",
		"city": "Chepstow",
		"postcode": "I7X 6RQ"
	},
	{
		"trackingnumber": "FJ844698777TO",
		"status": "D3",
		"name": "Ryder Frederick",
		"destination": "8579 Vestibulum Rd.",
		"city": "Sunderland",
		"postcode": "UY32 7BS"
	},
	{
		"trackingnumber": "FG215454257PO",
		"status": "P3",
		"name": "Iliana Freeman",
		"destination": "P.O. Box 298, 708 Condimentum Street",
		"city": "East Kilbride",
		"postcode": "NE0 5GJ"
	},
	{
		"trackingnumber": "TP481129584BI",
		"status": "D3",
		"name": "Caryn Wheeler",
		"destination": "505-7842 Integer Road",
		"city": "Glenrothes",
		"postcode": "WW3A 2TC"
	},
	{
		"trackingnumber": "RN425713155MC",
		"status": "D1",
		"name": "Troy Phelps",
		"destination": "6753 Vel, Rd.",
		"city": "Durness",
		"postcode": "DB8O 8YD"
	},
	{
		"trackingnumber": "BS612113762FT",
		"status": "P3",
		"name": "Teagan Mccarty",
		"destination": "3146 Sem St.",
		"city": "Barmouth",
		"postcode": "LI2 0BC"
	},
	{
		"trackingnumber": "KI882533205HW",
		"status": "C1",
		"name": "Dai Gould",
		"destination": "8809 Nisl Street",
		"city": "Kincardine",
		"postcode": "S4 6OM"
	},
	{
		"trackingnumber": "NS698835507XQ",
		"status": "C1",
		"name": "Channing Tillman",
		"destination": "8881 Erat. Rd.",
		"city": "Weymouth",
		"postcode": "GF4 1KO"
	},
	{
		"trackingnumber": "LQ519214888OP",
		"status": "P3",
		"name": "Ruth Patel",
		"destination": "P.O. Box 684, 3084 Nibh Street",
		"city": "Skegness",
		"postcode": "GM4 7MD"
	},
	{
		"trackingnumber": "TM753267221VT",
		"status": "C2",
		"name": "Yardley Morrison",
		"destination": "686-6796 Molestie Road",
		"city": "Kircudbright",
		"postcode": "ZG88 1DL"
	},
	{
		"trackingnumber": "TG050267841YD",
		"status": "P4",
		"name": "Savannah Carroll",
		"destination": "9966 Rutrum Street",
		"city": "Dolgellau",
		"postcode": "XM31 3HM"
	},
	{
		"trackingnumber": "KQ578847665PP",
		"status": "D2",
		"name": "Adrienne Bauer",
		"destination": "370-1549 Pede. Ave",
		"city": "Moffat",
		"postcode": "DH4R 1SG"
	},
	{
		"trackingnumber": "BT074772432HF",
		"status": "D2",
		"name": "Lucas Good",
		"destination": "Ap #822-3022 A Rd.",
		"city": "Brighton",
		"postcode": "P13 9OQ"
	},
	{
		"trackingnumber": "BE752673288QJ",
		"status": "D1",
		"name": "Abigail Adkins",
		"destination": "1895 Libero Rd.",
		"city": "Chesterfield",
		"postcode": "UX57 9FC"
	},
	{
		"trackingnumber": "LF197257167YF",
		"status": "D1",
		"name": "Philip Ortega",
		"destination": "Ap #268-9614 Turpis. St.",
		"city": "Kilmalcolm",
		"postcode": "AI8 9DJ"
	},
	{
		"trackingnumber": "QA551330207TU",
		"status": "C1",
		"name": "Ursa Mckenzie",
		"destination": "P.O. Box 538, 6402 Suspendisse Rd.",
		"city": "Gretna",
		"postcode": "G8 5KD"
	},
	{
		"trackingnumber": "VC974196374OK",
		"status": "C1",
		"name": "Barrett Robertson",
		"destination": "936-9150 Aliquet Rd.",
		"city": "Stoke-on-Trent",
		"postcode": "N4U 3UL"
	},
	{
		"trackingnumber": "WK285486884ET",
		"status": "R1",
		"name": "James Holt",
		"destination": "565-5544 Quis, Rd.",
		"city": "Prestatyn",
		"postcode": "XJ98 1TX"
	},
	{
		"trackingnumber": "JY436451253TO",
		"status": "P1",
		"name": "Jamalia Hahn",
		"destination": "Ap #575-9637 Dolor Street",
		"city": "Guildford",
		"postcode": "T35 0TP"
	},
	{
		"trackingnumber": "XR740025225EX",
		"status": "D3",
		"name": "Kieran Haley",
		"destination": "Ap #347-476 Tempor Ave",
		"city": "Campbeltown",
		"postcode": "T6 7UV"
	},
	{
		"trackingnumber": "RO823869348RC",
		"status": "C1",
		"name": "Tatiana Hardy",
		"destination": "3933 Maecenas Avenue",
		"city": "Glasgow",
		"postcode": "MS8 9BL"
	},
	{
		"trackingnumber": "SY796356697PI",
		"status": "C1",
		"name": "Madeline Daniels",
		"destination": "Ap #685-4338 Arcu. Street",
		"city": "Falkirk",
		"postcode": "X4Q 1CF"
	},
	{
		"trackingnumber": "YF201162677HI",
		"status": "U2",
		"name": "Harrison Schneider",
		"destination": "Ap #879-7592 Risus. Rd.",
		"city": "Flint",
		"postcode": "X1C 5LD"
	},
	{
		"trackingnumber": "SW444077679OD",
		"status": "P1",
		"name": "Echo Case",
		"destination": "Ap #708-5420 Odio Av.",
		"city": "Tywyn",
		"postcode": "EH8F 8SX"
	},
	{
		"trackingnumber": "QW848146891UT",
		"status": "U1",
		"name": "Melyssa Davis",
		"destination": "3154 Scelerisque Road",
		"city": "Aylesbury",
		"postcode": "PX61 1CZ"
	},
	{
		"trackingnumber": "TS866806130KL",
		"status": "D2",
		"name": "Deirdre Mills",
		"destination": "Ap #378-4971 Neque Ave",
		"city": "Portsoy",
		"postcode": "L8 3CQ"
	},
	{
		"trackingnumber": "TJ876444411GE",
		"status": "P2",
		"name": "April House",
		"destination": "P.O. Box 410, 8024 Augue St.",
		"city": "Durham",
		"postcode": "NE1V 1PM"
	},
	{
		"trackingnumber": "PV585910346PU",
		"status": "R2",
		"name": "Ian Nash",
		"destination": "Ap #546-1612 Venenatis St.",
		"city": "Telford",
		"postcode": "K3Z 7PB"
	},
	{
		"trackingnumber": "GB482768269NS",
		"status": "D3",
		"name": "Brian Pickett",
		"destination": "Ap #899-1597 Amet Ave",
		"city": "Sromness",
		"postcode": "RH76 7TI"
	},
	{
		"trackingnumber": "UR247182678LF",
		"status": "P1",
		"name": "Ivan Rose",
		"destination": "Ap #283-9839 Augue Rd.",
		"city": "Blackwood",
		"postcode": "A65 0VW"
	},
	{
		"trackingnumber": "VL248012263CY",
		"status": "C2",
		"name": "Victoria Conley",
		"destination": "Ap #989-7354 Luctus Road",
		"city": "Machynlleth",
		"postcode": "YR89 5YJ"
	},
	{
		"trackingnumber": "AF231074557GR",
		"status": "C2",
		"name": "Sigourney Hale",
		"destination": "Ap #655-6351 Euismod Avenue",
		"city": "Keith",
		"postcode": "FI1E 4FI"
	},
	{
		"trackingnumber": "HK381811314AW",
		"status": "D2",
		"name": "Skyler Vance",
		"destination": "P.O. Box 380, 4361 Sit Road",
		"city": "Golspie",
		"postcode": "FT1 6ND"
	},
	{
		"trackingnumber": "AA462848826UI",
		"status": "R1",
		"name": "Amaya Bean",
		"destination": "886-8659 Libero. Rd.",
		"city": "Hawick",
		"postcode": "M03 9IB"
	},
	{
		"trackingnumber": "EY622541122BT",
		"status": "R2",
		"name": "Cathleen Peterson",
		"destination": "P.O. Box 287, 2694 Lorem Avenue",
		"city": "Saltcoats",
		"postcode": "O8 3NX"
	},
	{
		"trackingnumber": "IM447064245PO",
		"status": "C1",
		"name": "Camilla Aguilar",
		"destination": "808-1069 Semper Av.",
		"city": "Guildford",
		"postcode": "JN4 4FJ"
	},
	{
		"trackingnumber": "WV460426577YL",
		"status": "C2",
		"name": "Montana Walters",
		"destination": "145-7806 Litora Ave",
		"city": "Inverbervie",
		"postcode": "UT51 8KH"
	},
	{
		"trackingnumber": "VV438493151XH",
		"status": "C1",
		"name": "Orli Nichols",
		"destination": "P.O. Box 845, 2002 Ante Rd.",
		"city": "Montgomery",
		"postcode": "P12 9HH"
	},
	{
		"trackingnumber": "UB078664110MR",
		"status": "D3",
		"name": "Duncan Sykes",
		"destination": "328-4748 Sit Ave",
		"city": "Sudbury",
		"postcode": "LA80 1OL"
	},
	{
		"trackingnumber": "LW824878200EO",
		"status": "C1",
		"name": "Hedley Nieves",
		"destination": "Ap #504-8633 Non, St.",
		"city": "Ammanford",
		"postcode": "X07 5NS"
	},
	{
		"trackingnumber": "FW933771859NQ",
		"status": "P1",
		"name": "Arthur Jensen",
		"destination": "P.O. Box 998, 9190 Elit Street",
		"city": "Barmouth",
		"postcode": "UM1Q 2TB"
	},
	{
		"trackingnumber": "CZ155983655FQ",
		"status": "D1",
		"name": "Meredith Middleton",
		"destination": "913-8105 Condimentum. St.",
		"city": "Ammanford",
		"postcode": "M5W 6WM"
	},
	{
		"trackingnumber": "FU255573865XE",
		"status": "U1",
		"name": "Cora Boyle",
		"destination": "835-6435 Aliquam Ave",
		"city": "Kendal",
		"postcode": "J6V 2LI"
	},
	{
		"trackingnumber": "XG517332438VU",
		"status": "D1",
		"name": "Sonia Valentine",
		"destination": "P.O. Box 656, 2584 Feugiat. Street",
		"city": "Caerphilly",
		"postcode": "U3 6SF"
	},
	{
		"trackingnumber": "FL664857315OP",
		"status": "P2",
		"name": "Grady Oneal",
		"destination": "Ap #667-5809 Neque St.",
		"city": "Bath",
		"postcode": "EN8 9BS"
	},
	{
		"trackingnumber": "DL284707245ND",
		"status": "P4",
		"name": "Bernard Macdonald",
		"destination": "Ap #286-364 Elit Avenue",
		"city": "Ferness",
		"postcode": "K6 9FS"
	},
	{
		"trackingnumber": "VV866106751XN",
		"status": "P2",
		"name": "Carl Sargent",
		"destination": "796-6151 Lectus Av.",
		"city": "Watford",
		"postcode": "EV8 6CQ"
	},
	{
		"trackingnumber": "RX185385362XL",
		"status": "U1",
		"name": "Amery Sutton",
		"destination": "Ap #302-4596 Cras St.",
		"city": "Rochester",
		"postcode": "QY1D 1AV"
	},
	{
		"trackingnumber": "LB375554507DJ",
		"status": "D1",
		"name": "Cynthia Delacruz",
		"destination": "205-964 Blandit Ave",
		"city": "Sromness",
		"postcode": "D4 7IX"
	},
	{
		"trackingnumber": "ZK757526633WT",
		"status": "U2",
		"name": "Alexis Gill",
		"destination": "842-7981 Montes, St.",
		"city": "Newton Stewart",
		"postcode": "OJ37 7XM"
	},
	{
		"trackingnumber": "YP633871376XM",
		"status": "P4",
		"name": "Reagan Cline",
		"destination": "859-6725 In St.",
		"city": "Halesowen",
		"postcode": "B5 3XN"
	},
	{
		"trackingnumber": "UW267888747WH",
		"status": "C1",
		"name": "Ifeoma Buck",
		"destination": "677-8877 Vitae Rd.",
		"city": "Port Glasgow",
		"postcode": "D2 8IP"
	},
	{
		"trackingnumber": "TH232951485SB",
		"status": "R2",
		"name": "Garrett Brennan",
		"destination": "5564 Risus. St.",
		"city": "Bracknell",
		"postcode": "DI8 5TG"
	},
	{
		"trackingnumber": "HR363243934GC",
		"status": "P4",
		"name": "Winter Horn",
		"destination": "7332 Accumsan Rd.",
		"city": "Dover",
		"postcode": "V2S 7DC"
	},
	{
		"trackingnumber": "YE722465616RQ",
		"status": "R2",
		"name": "Addison Barr",
		"destination": "Ap #313-3292 Aliquam Street",
		"city": "Weymouth",
		"postcode": "J62 4GB"
	},
	{
		"trackingnumber": "KB571456753FD",
		"status": "D2",
		"name": "Amir Mcconnell",
		"destination": "514-7929 Nisi. St.",
		"city": "Hemel Hempstead",
		"postcode": "N23 6CL"
	},
	{
		"trackingnumber": "OK806233415YO",
		"status": "P2",
		"name": "Xenos Carver",
		"destination": "P.O. Box 948, 7407 Lorem. St.",
		"city": "Peterborough",
		"postcode": "XW7C 6ZY"
	},
	{
		"trackingnumber": "NX635997762WY",
		"status": "D3",
		"name": "Griffin Kent",
		"destination": "Ap #391-6335 Aliquet St.",
		"city": "Canterbury",
		"postcode": "UR67 5IM"
	},
	{
		"trackingnumber": "VS186446536KP",
		"status": "U1",
		"name": "Adria Solis",
		"destination": "P.O. Box 966, 8450 Vivamus Road",
		"city": "Balfour",
		"postcode": "Y6 4XV"
	},
	{
		"trackingnumber": "BF184469518PM",
		"status": "C2",
		"name": "Wynter Marks",
		"destination": "Ap #594-6847 Est Street",
		"city": "Barry",
		"postcode": "Y4 3CC"
	},
	{
		"trackingnumber": "UC830515921AT",
		"status": "U2",
		"name": "Giselle Grant",
		"destination": "Ap #144-9618 Elementum St.",
		"city": "Builth Wells",
		"postcode": "X71 3SM"
	},
	{
		"trackingnumber": "HI125921938KP",
		"status": "D2",
		"name": "Benjamin Sears",
		"destination": "Ap #130-5917 Semper Av.",
		"city": "Kirkwall",
		"postcode": "O3T 4ZH"
	},
	{
		"trackingnumber": "KP668879572IO",
		"status": "R2",
		"name": "Priscilla Johnston",
		"destination": "7487 Amet Ave",
		"city": "Whitchurch",
		"postcode": "IL4F 7GN"
	},
	{
		"trackingnumber": "KH184238136MV",
		"status": "D1",
		"name": "Leslie Graham",
		"destination": "Ap #162-9356 Amet St.",
		"city": "Forfar",
		"postcode": "VJ4 4LF"
	},
	{
		"trackingnumber": "LQ429725259CY",
		"status": "P1",
		"name": "Dale Irwin",
		"destination": "680-4301 Conubia Road",
		"city": "Hawick",
		"postcode": "E21 5MJ"
	},
	{
		"trackingnumber": "PG745845267PS",
		"status": "D3",
		"name": "Hakeem Ortiz",
		"destination": "Ap #582-9998 Quis Ave",
		"city": "Bracknell",
		"postcode": "W2 4WW"
	},
	{
		"trackingnumber": "XM783675204EI",
		"status": "P4",
		"name": "Lucian Cooley",
		"destination": "P.O. Box 195, 7761 Posuere, St.",
		"city": "Tredegar",
		"postcode": "QW84 4HR"
	},
	{
		"trackingnumber": "CO266563568LW",
		"status": "D3",
		"name": "Yasir Marquez",
		"destination": "2025 Leo Road",
		"city": "Chippenham",
		"postcode": "CY08 8IN"
	},
	{
		"trackingnumber": "MX865521326OQ",
		"status": "D3",
		"name": "Kiona Whitley",
		"destination": "433-9342 Sit Street",
		"city": "Macclesfield",
		"postcode": "E97 6DN"
	},
	{
		"trackingnumber": "RZ468419165XL",
		"status": "P2",
		"name": "Paula Beasley",
		"destination": "P.O. Box 736, 2453 Felis St.",
		"city": "Bracknell",
		"postcode": "V28 3WT"
	},
	{
		"trackingnumber": "NO487893712ZW",
		"status": "D1",
		"name": "Slade Witt",
		"destination": "489-1050 Gravida. St.",
		"city": "Caerphilly",
		"postcode": "CF37 7DV"
	},
	{
		"trackingnumber": "DI154862910JU",
		"status": "P4",
		"name": "Britanney Mays",
		"destination": "515-3200 Aenean Avenue",
		"city": "St. David's",
		"postcode": "T17 2RS"
	},
	{
		"trackingnumber": "PJ217829926YI",
		"status": "C1",
		"name": "Doris Reyes",
		"destination": "Ap #191-5554 Tellus Road",
		"city": "Tewkesbury",
		"postcode": "NT1 1NJ"
	},
	{
		"trackingnumber": "XB174538840YN",
		"status": "U1",
		"name": "Roanna Mercer",
		"destination": "8087 In St.",
		"city": "Camborne",
		"postcode": "IM3 5MX"
	},
	{
		"trackingnumber": "IQ125263145FD",
		"status": "D2",
		"name": "Martena Franks",
		"destination": "440-2284 Ac Rd.",
		"city": "Cumnock",
		"postcode": "Y51 9TT"
	},
	{
		"trackingnumber": "OL844834541DT",
		"status": "U2",
		"name": "Allistair Jordan",
		"destination": "P.O. Box 744, 3768 Aliquam Street",
		"city": "Llangollen",
		"postcode": "HR8H 7IX"
	},
	{
		"trackingnumber": "TL526345817QQ",
		"status": "P3",
		"name": "Uta Malone",
		"destination": "Ap #334-114 Phasellus Street",
		"city": "Hawick",
		"postcode": "P3 2AL"
	},
	{
		"trackingnumber": "LC169576754GH",
		"status": "D2",
		"name": "Fay Hatfield",
		"destination": "Ap #698-8815 Massa. Rd.",
		"city": "Chelmsford",
		"postcode": "XB6J 8FJ"
	},
	{
		"trackingnumber": "WF665242264QD",
		"status": "P3",
		"name": "Louis Velasquez",
		"destination": "386-9688 Scelerisque St.",
		"city": "Leominster",
		"postcode": "CD4V 6ZM"
	},
	{
		"trackingnumber": "CO625521222MU",
		"status": "D3",
		"name": "Alden Mcguire",
		"destination": "385-7650 Et Ave",
		"city": "Llangefni",
		"postcode": "SJ4P 7JZ"
	},
	{
		"trackingnumber": "TH810515533UO",
		"status": "U1",
		"name": "May Meyer",
		"destination": "261-9428 Mauris Av.",
		"city": "Llanelli",
		"postcode": "YK4 3RT"
	},
	{
		"trackingnumber": "GX348472874ZU",
		"status": "P2",
		"name": "Sylvester Hammond",
		"destination": "Ap #620-7521 Ridiculus Ave",
		"city": "Evesham",
		"postcode": "Z8P 1QH"
	},
	{
		"trackingnumber": "DT639552316HI",
		"status": "U1",
		"name": "Zelenia Peck",
		"destination": "P.O. Box 270, 1370 Sagittis Ave",
		"city": "Tiverton",
		"postcode": "RB3C 2HS"
	},
	{
		"trackingnumber": "KC583614316KU",
		"status": "P2",
		"name": "Odysseus Rowe",
		"destination": "162-7886 Eu Rd.",
		"city": "Appleby",
		"postcode": "G1S 5MR"
	},
	{
		"trackingnumber": "QC734676287HI",
		"status": "C1",
		"name": "Cooper Olsen",
		"destination": "Ap #267-1056 Lacinia Av.",
		"city": "Laurencekirk",
		"postcode": "SG77 7FM"
	},
	{
		"trackingnumber": "QT086228423II",
		"status": "P3",
		"name": "Quinn Guerrero",
		"destination": "Ap #215-7224 Donec Rd.",
		"city": "North Berwick",
		"postcode": "SE3 4HX"
	},
	{
		"trackingnumber": "XN326455749HI",
		"status": "R2",
		"name": "Fitzgerald Hammond",
		"destination": "Ap #926-7861 Purus Ave",
		"city": "Keswick",
		"postcode": "LV34 5XI"
	},
	{
		"trackingnumber": "TE668550815CY",
		"status": "U1",
		"name": "Tara Saunders",
		"destination": "P.O. Box 651, 5792 Dis Rd.",
		"city": "Bolton",
		"postcode": "G6 3NE"
	},
	{
		"trackingnumber": "IU713888562EL",
		"status": "P3",
		"name": "Nasim Reed",
		"destination": "P.O. Box 921, 2290 Sem, St.",
		"city": "Basildon",
		"postcode": "C66 5AV"
	},
	{
		"trackingnumber": "KL817175870ZW",
		"status": "D1",
		"name": "Kermit Alexander",
		"destination": "Ap #395-4885 Nec, St.",
		"city": "Dunfermline",
		"postcode": "SX3 9VD"
	},
	{
		"trackingnumber": "TO766514331BF",
		"status": "C1",
		"name": "Quinlan Duke",
		"destination": "Ap #317-5523 Volutpat. Street",
		"city": "Nuneaton",
		"postcode": "DI36 0GW"
	},
	{
		"trackingnumber": "TS743024614CK",
		"status": "D2",
		"name": "Athena Martin",
		"destination": "Ap #609-6610 Vel Ave",
		"city": "Irvine",
		"postcode": "R94 5BY"
	},
	{
		"trackingnumber": "DT456451113OZ",
		"status": "P1",
		"name": "Dana Drake",
		"destination": "Ap #530-7234 Sed St.",
		"city": "Whithorn",
		"postcode": "S48 8HR"
	},
	{
		"trackingnumber": "EI578764657IX",
		"status": "P4",
		"name": "Odette Schmidt",
		"destination": "588-3423 Elit, Ave",
		"city": "Barnstaple",
		"postcode": "D68 5KR"
	},
	{
		"trackingnumber": "MP849802331RW",
		"status": "P1",
		"name": "Cecilia Colon",
		"destination": "262-8396 Integer St.",
		"city": "Crieff",
		"postcode": "QN63 2RJ"
	},
	{
		"trackingnumber": "GT588238632OV",
		"status": "C1",
		"name": "Nola Nguyen",
		"destination": "926-4503 Nullam Road",
		"city": "Dereham",
		"postcode": "J7 1ER"
	},
	{
		"trackingnumber": "UN877667567VC",
		"status": "P3",
		"name": "Gary Hyde",
		"destination": "710-4253 Felis. St.",
		"city": "Henley-on-Thames",
		"postcode": "F18 1QN"
	},
	{
		"trackingnumber": "VZ615051398KF",
		"status": "C2",
		"name": "Breanna Pace",
		"destination": "Ap #872-4678 Nascetur St.",
		"city": "Appleby",
		"postcode": "XT3 1ND"
	},
	{
		"trackingnumber": "TT722427895KN",
		"status": "P2",
		"name": "Lacy Sykes",
		"destination": "225-948 Magna. Rd.",
		"city": "Bromyard",
		"postcode": "K8O 4NQ"
	},
	{
		"trackingnumber": "CT134486773UM",
		"status": "D3",
		"name": "Kerry Knox",
		"destination": "6666 A, St.",
		"city": "Cirencester",
		"postcode": "LK6Z 5JZ"
	},
	{
		"trackingnumber": "EI015733133TD",
		"status": "P3",
		"name": "Alan Nunez",
		"destination": "127-7914 Non, Road",
		"city": "St. Andrews",
		"postcode": "EG2 5OS"
	},
	{
		"trackingnumber": "LY816542268NQ",
		"status": "U1",
		"name": "Kevyn Stark",
		"destination": "P.O. Box 898, 535 Sem Rd.",
		"city": "Milnathort",
		"postcode": "OK4 2EX"
	},
	{
		"trackingnumber": "GZ428636429ME",
		"status": "R1",
		"name": "Eaton Rodriquez",
		"destination": "4154 Amet, Av.",
		"city": "Cardiff",
		"postcode": "NQ63 2QD"
	},
	{
		"trackingnumber": "XD876022554DA",
		"status": "P4",
		"name": "Emery Stephens",
		"destination": "499-8378 Feugiat Road",
		"city": "Baltasound",
		"postcode": "O6 6MB"
	},
	{
		"trackingnumber": "SR543356054PU",
		"status": "D1",
		"name": "Pascale Conrad",
		"destination": "Ap #822-763 Convallis, Rd.",
		"city": "Llanelli",
		"postcode": "V6A 1PI"
	},
	{
		"trackingnumber": "EQ217683136ID",
		"status": "P2",
		"name": "Lois Adams",
		"destination": "271-3406 Odio St.",
		"city": "Keith",
		"postcode": "X1 6KT"
	},
	{
		"trackingnumber": "NT843133335UK",
		"status": "U1",
		"name": "Angelica Brennan",
		"destination": "Ap #992-1267 Sit Street",
		"city": "Poole",
		"postcode": "RX46 6XL"
	},
	{
		"trackingnumber": "LT891472279DA",
		"status": "P4",
		"name": "Victor Workman",
		"destination": "326-4222 Egestas Rd.",
		"city": "Bridgend",
		"postcode": "GP2G 7LR"
	},
	{
		"trackingnumber": "RJ329896218JW",
		"status": "U1",
		"name": "James Watts",
		"destination": "Ap #629-1450 Urna, Av.",
		"city": "Banbury",
		"postcode": "OV2 4EC"
	},
	{
		"trackingnumber": "JH478462537RO",
		"status": "C1",
		"name": "Leigh Lloyd",
		"destination": "946-8493 Consequat Rd.",
		"city": "Watford",
		"postcode": "X7 8KL"
	},
	{
		"trackingnumber": "LL432988344LK",
		"status": "U2",
		"name": "Hillary Guy",
		"destination": "Ap #246-2600 A, Av.",
		"city": "Coventry",
		"postcode": "EY56 2BC"
	},
	{
		"trackingnumber": "RB485557591HZ",
		"status": "P3",
		"name": "Jolene Berg",
		"destination": "Ap #698-6046 Nibh Av.",
		"city": "Skegness",
		"postcode": "H21 8ZD"
	},
	{
		"trackingnumber": "TP983978647YD",
		"status": "U1",
		"name": "Timothy Cannon",
		"destination": "625-748 Sed, Road",
		"city": "Basingstoke",
		"postcode": "EW8M 5YO"
	},
	{
		"trackingnumber": "GB885662655DX",
		"status": "P4",
		"name": "Kim Nolan",
		"destination": "Ap #875-7155 Rutrum St.",
		"city": "Coldstream",
		"postcode": "B4X 4UR"
	},
	{
		"trackingnumber": "KN858982965FT",
		"status": "D3",
		"name": "Anne Rollins",
		"destination": "Ap #593-2245 Sed Ave",
		"city": "Norwich",
		"postcode": "VH05 7CP"
	},
	{
		"trackingnumber": "NG949363129HG",
		"status": "P3",
		"name": "Lewis Justice",
		"destination": "P.O. Box 497, 2259 Fusce Avenue",
		"city": "St. Ives",
		"postcode": "HO6 9KV"
	},
	{
		"trackingnumber": "HD426463472DD",
		"status": "P3",
		"name": "Aphrodite Gray",
		"destination": "705-7882 Sed St.",
		"city": "Chelmsford",
		"postcode": "X38 8MU"
	},
	{
		"trackingnumber": "WR672286768SP",
		"status": "C1",
		"name": "Ivory Flowers",
		"destination": "P.O. Box 361, 7524 Cursus St.",
		"city": "Keswick",
		"postcode": "Q87 4QG"
	},
	{
		"trackingnumber": "CE841132515JB",
		"status": "P2",
		"name": "Brandon Sweet",
		"destination": "3841 Cursus. St.",
		"city": "Tranent",
		"postcode": "D7Q 8LY"
	},
	{
		"trackingnumber": "PX895170848UV",
		"status": "D2",
		"name": "Chadwick Riley",
		"destination": "4799 Aliquam Av.",
		"city": "Carmarthen",
		"postcode": "WR2N 7AJ"
	},
	{
		"trackingnumber": "HO781871251IQ",
		"status": "R1",
		"name": "Dominique Price",
		"destination": "840-8228 Et Road",
		"city": "Duns",
		"postcode": "HE23 5WY"
	},
	{
		"trackingnumber": "HX386616372NY",
		"status": "D2",
		"name": "Anthony Berry",
		"destination": "P.O. Box 632, 7480 Mauris. St.",
		"city": "Rothesay",
		"postcode": "SL4 2FY"
	},
	{
		"trackingnumber": "WO954614347ZO",
		"status": "P3",
		"name": "Olivia Hernandez",
		"destination": "6072 Venenatis Road",
		"city": "Inverness",
		"postcode": "F7Y 9OC"
	},
	{
		"trackingnumber": "GB853848057DR",
		"status": "R2",
		"name": "Warren Woods",
		"destination": "190-8011 Nulla Rd.",
		"city": "Blairgowrie",
		"postcode": "U8 8NF"
	},
	{
		"trackingnumber": "PS253577267BC",
		"status": "C2",
		"name": "Alan Simpson",
		"destination": "9179 Nunc Road",
		"city": "Golspie",
		"postcode": "OF54 2OB"
	},
	{
		"trackingnumber": "SI566575828WD",
		"status": "D3",
		"name": "Wallace Perez",
		"destination": "Ap #346-6956 Semper Rd.",
		"city": "Oban",
		"postcode": "WC7I 7HV"
	},
	{
		"trackingnumber": "IF228711327WM",
		"status": "P4",
		"name": "Oleg Campbell",
		"destination": "421-4653 Urna. Street",
		"city": "Whitchurch",
		"postcode": "FJ8H 2JR"
	},
	{
		"trackingnumber": "UT626542212OP",
		"status": "D3",
		"name": "Cody Raymond",
		"destination": "P.O. Box 140, 9041 Vehicula Avenue",
		"city": "Clydebank",
		"postcode": "ES7 8TF"
	},
	{
		"trackingnumber": "LG681231234EH",
		"status": "U2",
		"name": "Kevin Talley",
		"destination": "149-9993 Massa. Street",
		"city": "Louth",
		"postcode": "G0M 9VL"
	},
	{
		"trackingnumber": "MD836633142XN",
		"status": "C2",
		"name": "Macy Mathis",
		"destination": "230-7431 Mauris Road",
		"city": "Linlithgow",
		"postcode": "T2 3GY"
	},
	{
		"trackingnumber": "GJ865661444TV",
		"status": "P2",
		"name": "Kennedy Tanner",
		"destination": "Ap #874-7067 Gravida. Street",
		"city": "King's Lynn",
		"postcode": "B50 6OP"
	},
	{
		"trackingnumber": "OH555358388GD",
		"status": "U1",
		"name": "Travis Tran",
		"destination": "827-8414 Quam. Rd.",
		"city": "Brighton",
		"postcode": "DP8 3PY"
	},
	{
		"trackingnumber": "CE906677410PT",
		"status": "U2",
		"name": "Tanner Wilson",
		"destination": "P.O. Box 347, 945 Dolor, Rd.",
		"city": "Taunton",
		"postcode": "C73 6GI"
	},
	{
		"trackingnumber": "VQ965805838HF",
		"status": "C2",
		"name": "Alfonso Harding",
		"destination": "Ap #475-8369 Tempus St.",
		"city": "Tillicoultry",
		"postcode": "QP0 7MK"
	},
	{
		"trackingnumber": "NW831887877PB",
		"status": "U2",
		"name": "Yen Byrd",
		"destination": "634-1082 Quis, Street",
		"city": "Clackmannan",
		"postcode": "IF06 9IB"
	},
	{
		"trackingnumber": "JN528226208IP",
		"status": "D1",
		"name": "Leandra Whitehead",
		"destination": "177-2041 A Road",
		"city": "Halkirk",
		"postcode": "FV08 4MI"
	},
	{
		"trackingnumber": "FD678338751DW",
		"status": "P3",
		"name": "Herrod Spencer",
		"destination": "633-2629 Mauris Ave",
		"city": "Melton Mowbray",
		"postcode": "C83 1RG"
	},
	{
		"trackingnumber": "TG217452339RN",
		"status": "R2",
		"name": "Jonas Romero",
		"destination": "4078 A, Rd.",
		"city": "Amlwch",
		"postcode": "SN75 2CL"
	},
	{
		"trackingnumber": "GG489457288EM",
		"status": "P1",
		"name": "Denise Morris",
		"destination": "3327 Auctor Avenue",
		"city": "Stockton-on-Tees",
		"postcode": "BJ79 5RG"
	},
	{
		"trackingnumber": "XJ898849527XI",
		"status": "D1",
		"name": "Rahim Cotton",
		"destination": "P.O. Box 149, 9718 Amet, Ave",
		"city": "Kirriemuir",
		"postcode": "Q4 7OG"
	},
	{
		"trackingnumber": "RV089072756YK",
		"status": "C2",
		"name": "Heidi Douglas",
		"destination": "Ap #905-8147 Ornare Avenue",
		"city": "Bungay",
		"postcode": "F64 1FW"
	},
	{
		"trackingnumber": "FL502833686YM",
		"status": "D1",
		"name": "Nina Dillard",
		"destination": "Ap #375-2660 Nam Av.",
		"city": "Dingwall",
		"postcode": "LD7P 6JL"
	},
	{
		"trackingnumber": "KL215648147HC",
		"status": "D1",
		"name": "Bevis Kidd",
		"destination": "Ap #696-6065 Mauris Ave",
		"city": "Linton",
		"postcode": "RK7T 3YH"
	},
	{
		"trackingnumber": "ED770110191SK",
		"status": "R2",
		"name": "Vanna Watson",
		"destination": "578-1573 Blandit. Ave",
		"city": "Maidenhead",
		"postcode": "VE1W 4AP"
	},
	{
		"trackingnumber": "UK450597189NF",
		"status": "P3",
		"name": "Xander Acevedo",
		"destination": "P.O. Box 232, 7695 Aliquam Ave",
		"city": "Tranent",
		"postcode": "SJ9 2XW"
	},
	{
		"trackingnumber": "FC052835227BP",
		"status": "U1",
		"name": "Chester Ortega",
		"destination": "793-7408 Porttitor St.",
		"city": "Rothesay",
		"postcode": "C2 8ZI"
	},
	{
		"trackingnumber": "IG548104895UL",
		"status": "D2",
		"name": "Fletcher Jensen",
		"destination": "373-4575 Nunc Ave",
		"city": "Tain",
		"postcode": "E4 7HQ"
	},
	{
		"trackingnumber": "EF350761246JH",
		"status": "R1",
		"name": "Tatum Forbes",
		"destination": "Ap #872-9502 Mi, Rd.",
		"city": "Dunstable",
		"postcode": "Y1F 8HB"
	},
	{
		"trackingnumber": "DY656514227AO",
		"status": "D2",
		"name": "Petra Zimmerman",
		"destination": "1712 Sed St.",
		"city": "Bonnyrigg",
		"postcode": "GX1X 6KJ"
	},
	{
		"trackingnumber": "IF851189735FZ",
		"status": "U1",
		"name": "Palmer Burnett",
		"destination": "Ap #369-6149 Est, St.",
		"city": "Witney",
		"postcode": "K3 5IR"
	},
	{
		"trackingnumber": "UN564348506GH",
		"status": "P1",
		"name": "Yardley Contreras",
		"destination": "Ap #655-5749 Libero St.",
		"city": "Denny",
		"postcode": "UR9 6EZ"
	},
	{
		"trackingnumber": "SC546471704VE",
		"status": "P2",
		"name": "Leslie Hartman",
		"destination": "P.O. Box 237, 1005 Sagittis. Street",
		"city": "Mansfield",
		"postcode": "D5 6DI"
	},
	{
		"trackingnumber": "HK487583235SQ",
		"status": "C1",
		"name": "Daquan Rasmussen",
		"destination": "P.O. Box 507, 3835 Vitae, Ave",
		"city": "Glasgow",
		"postcode": "CA47 6RQ"
	},
	{
		"trackingnumber": "QL276522739BD",
		"status": "P3",
		"name": "Aaron Moss",
		"destination": "P.O. Box 972, 8709 Tristique Ave",
		"city": "Buckley",
		"postcode": "Y8B 6FY"
	},
	{
		"trackingnumber": "OP207562528TZ",
		"status": "R2",
		"name": "Joan Madden",
		"destination": "Ap #816-8391 Cursus Avenue",
		"city": "Hamilton",
		"postcode": "R2H 3SC"
	},
	{
		"trackingnumber": "KW497797402PA",
		"status": "U2",
		"name": "Robert Fulton",
		"destination": "P.O. Box 374, 591 Pellentesque Avenue",
		"city": "Berwick-upon-Tweed",
		"postcode": "G08 2HM"
	},
	{
		"trackingnumber": "OK143288727NE",
		"status": "U1",
		"name": "Kay Crane",
		"destination": "6973 Gravida Av.",
		"city": "Builth Wells",
		"postcode": "NH7Y 3GW"
	},
	{
		"trackingnumber": "VD337627672SZ",
		"status": "P1",
		"name": "Charles Monroe",
		"destination": "P.O. Box 126, 5058 Vulputate Rd.",
		"city": "Kingussie",
		"postcode": "YS0 1QW"
	},
	{
		"trackingnumber": "GU355866265WG",
		"status": "D1",
		"name": "Bianca Davenport",
		"destination": "696-718 Et, Street",
		"city": "Bridgwater",
		"postcode": "D3K 1EG"
	},
	{
		"trackingnumber": "PB302755975SW",
		"status": "D2",
		"name": "Eaton Hebert",
		"destination": "Ap #928-7001 Magna Road",
		"city": "Kinross",
		"postcode": "RH56 4HO"
	},
	{
		"trackingnumber": "CR042845127QR",
		"status": "P4",
		"name": "Phoebe Manning",
		"destination": "549-2591 Etiam Ave",
		"city": "Balfour",
		"postcode": "SD4 8PF"
	},
	{
		"trackingnumber": "PU778522386FT",
		"status": "P3",
		"name": "Hedda Hines",
		"destination": "215-4930 Ipsum Av.",
		"city": "Campbeltown",
		"postcode": "S51 3PG"
	},
	{
		"trackingnumber": "IN321475105GT",
		"status": "D2",
		"name": "Colin Hanson",
		"destination": "P.O. Box 403, 3394 Parturient Ave",
		"city": "Lutterworth",
		"postcode": "C4 4OA"
	},
	{
		"trackingnumber": "KT373756013VF",
		"status": "U2",
		"name": "Stuart Puckett",
		"destination": "Ap #998-914 Dictum. Ave",
		"city": "Plymouth",
		"postcode": "EQ1R 5PS"
	},
	{
		"trackingnumber": "HN583654602YV",
		"status": "P2",
		"name": "Jana Aguilar",
		"destination": "428-6521 Eu Street",
		"city": "Lerwick",
		"postcode": "I3 6QE"
	},
	{
		"trackingnumber": "OT588531504EX",
		"status": "P3",
		"name": "Erica Rios",
		"destination": "Ap #279-513 Magna. Street",
		"city": "Brighton",
		"postcode": "N41 9QW"
	},
	{
		"trackingnumber": "HC941779236OK",
		"status": "U1",
		"name": "Josephine Carson",
		"destination": "333-9796 Tortor. Avenue",
		"city": "Durness",
		"postcode": "K27 4PL"
	},
	{
		"trackingnumber": "FB587956786DM",
		"status": "D1",
		"name": "Chelsea Leach",
		"destination": "5691 Auctor Rd.",
		"city": "Morpeth",
		"postcode": "VT4P 5QP"
	},
	{
		"trackingnumber": "BO221728022TL",
		"status": "D3",
		"name": "Maris Roberts",
		"destination": "554-4024 Morbi Rd.",
		"city": "Ruthin",
		"postcode": "CS2R 1PW"
	},
	{
		"trackingnumber": "EZ382214464IU",
		"status": "D3",
		"name": "Francis Castro",
		"destination": "144-339 Justo Road",
		"city": "Dover",
		"postcode": "P53 4AQ"
	},
	{
		"trackingnumber": "DD923035617JR",
		"status": "D3",
		"name": "Jameson Contreras",
		"destination": "968-5293 A Av.",
		"city": "Dolgellau",
		"postcode": "E41 1RQ"
	},
	{
		"trackingnumber": "LE427162660EE",
		"status": "R1",
		"name": "Phelan Brock",
		"destination": "P.O. Box 658, 1563 Placerat, Ave",
		"city": "Bala",
		"postcode": "F7G 0BL"
	},
	{
		"trackingnumber": "BV680074134KE",
		"status": "D3",
		"name": "Emery Nixon",
		"destination": "6874 Volutpat. St.",
		"city": "Oakham",
		"postcode": "H9E 4LU"
	},
	{
		"trackingnumber": "DR754841234PP",
		"status": "P3",
		"name": "Tobias Melendez",
		"destination": "186-8012 Erat Road",
		"city": "Musselburgh",
		"postcode": "R62 5MT"
	},
	{
		"trackingnumber": "FM964300176DG",
		"status": "D3",
		"name": "Olympia Cunningham",
		"destination": "P.O. Box 180, 6192 Sed Avenue",
		"city": "New Quay",
		"postcode": "Z3 7WE"
	},
	{
		"trackingnumber": "YK651275771WJ",
		"status": "R1",
		"name": "Ali Hinton",
		"destination": "P.O. Box 307, 6492 Ac Rd.",
		"city": "Paignton",
		"postcode": "H9 4KP"
	},
	{
		"trackingnumber": "QS728743406XV",
		"status": "P3",
		"name": "Reece Shepard",
		"destination": "664-626 Et, Rd.",
		"city": "Alexandria",
		"postcode": "S66 8CX"
	},
	{
		"trackingnumber": "AZ683223878GP",
		"status": "D2",
		"name": "Damon Graves",
		"destination": "524-788 Etiam St.",
		"city": "Rugby",
		"postcode": "UV9I 7YS"
	},
	{
		"trackingnumber": "ZU416265856XF",
		"status": "D2",
		"name": "Keith Sosa",
		"destination": "P.O. Box 828, 3489 Ligula Rd.",
		"city": "Malvern",
		"postcode": "RD4 8ZJ"
	},
	{
		"trackingnumber": "AQ622251215ZG",
		"status": "D1",
		"name": "David Compton",
		"destination": "957-1214 Dui. Street",
		"city": "Coldstream",
		"postcode": "O37 6TZ"
	},
	{
		"trackingnumber": "UX478551159LQ",
		"status": "R2",
		"name": "Cathleen Nichols",
		"destination": "3294 Maecenas Ave",
		"city": "St. Clears",
		"postcode": "X67 5KF"
	},
	{
		"trackingnumber": "OM543371615WB",
		"status": "U1",
		"name": "Gavin Gallagher",
		"destination": "Ap #358-4947 Quam St.",
		"city": "Bournemouth",
		"postcode": "IO4 5ES"
	},
	{
		"trackingnumber": "EZ739567008HP",
		"status": "D3",
		"name": "Lara Noel",
		"destination": "Ap #797-9468 Duis St.",
		"city": "Newcastle-upon-Tyne",
		"postcode": "CQ17 6XJ"
	},
	{
		"trackingnumber": "TC159117638OK",
		"status": "R2",
		"name": "Angela Marshall",
		"destination": "Ap #988-8939 Eu Street",
		"city": "Hereford",
		"postcode": "K5 4WF"
	},
	{
		"trackingnumber": "VM815624229QP",
		"status": "U1",
		"name": "Julian Hill",
		"destination": "Ap #810-804 Ac St.",
		"city": "Bristol",
		"postcode": "J45 8HJ"
	},
	{
		"trackingnumber": "HW758784839PX",
		"status": "R2",
		"name": "Darrel Mcgee",
		"destination": "241-567 Molestie Av.",
		"city": "Coventry",
		"postcode": "TC8Y 2VV"
	},
	{
		"trackingnumber": "XQ241527667PR",
		"status": "C1",
		"name": "Finn Vazquez",
		"destination": "Ap #344-3541 Sagittis. Avenue",
		"city": "Winchester",
		"postcode": "VB6I 7CB"
	},
	{
		"trackingnumber": "TL846336618QF",
		"status": "P1",
		"name": "Aidan Duran",
		"destination": "250-9853 Eu Avenue",
		"city": "Ferness",
		"postcode": "U81 3IB"
	},
	{
		"trackingnumber": "IN978242828ES",
		"status": "D3",
		"name": "Wyoming Contreras",
		"destination": "Ap #597-3478 Sit Avenue",
		"city": "Kingussie",
		"postcode": "E0X 8AX"
	},
	{
		"trackingnumber": "LI633844233GU",
		"status": "P2",
		"name": "Sara Romero",
		"destination": "628-9160 Cum St.",
		"city": "Ferness",
		"postcode": "CC48 7OY"
	},
	{
		"trackingnumber": "MT785171641TO",
		"status": "P2",
		"name": "Kibo Berry",
		"destination": "P.O. Box 567, 210 Pellentesque Av.",
		"city": "Wandsworth",
		"postcode": "FH3 4JV"
	},
	{
		"trackingnumber": "OM420829817AQ",
		"status": "P3",
		"name": "Donovan Charles",
		"destination": "Ap #461-2061 Iaculis St.",
		"city": "Stockton-on-Tees",
		"postcode": "SD30 7LN"
	},
	{
		"trackingnumber": "QR664470221HN",
		"status": "D3",
		"name": "James Wise",
		"destination": "P.O. Box 321, 8125 Accumsan Road",
		"city": "Tenby",
		"postcode": "II1 9LP"
	},
	{
		"trackingnumber": "YC464174311SM",
		"status": "P2",
		"name": "Erica Berger",
		"destination": "967-9083 Ipsum Av.",
		"city": "Leominster",
		"postcode": "N45 1MO"
	},
	{
		"trackingnumber": "MK814738676VI",
		"status": "P4",
		"name": "Quentin Flores",
		"destination": "619-3067 Lorem, Road",
		"city": "Brodick",
		"postcode": "YP12 6TG"
	},
	{
		"trackingnumber": "OA516858707EZ",
		"status": "R1",
		"name": "Davis Mclaughlin",
		"destination": "Ap #733-7366 Posuere, St.",
		"city": "Hinckley",
		"postcode": "U1 6MD"
	},
	{
		"trackingnumber": "YC671895740GH",
		"status": "P2",
		"name": "Genevieve Conrad",
		"destination": "578 A Rd.",
		"city": "Turriff",
		"postcode": "G68 1EB"
	},
	{
		"trackingnumber": "VS942124575HJ",
		"status": "D2",
		"name": "Duncan Dickson",
		"destination": "119-6022 Ac Rd.",
		"city": "Brodick",
		"postcode": "HS36 1FJ"
	},
	{
		"trackingnumber": "KW619742323TP",
		"status": "U1",
		"name": "Abel Frost",
		"destination": "219-3150 Turpis St.",
		"city": "Oakham",
		"postcode": "S1 8NB"
	},
	{
		"trackingnumber": "EG628567475WY",
		"status": "R1",
		"name": "Oscar Mcdaniel",
		"destination": "366-7188 Diam Road",
		"city": "Renfrew",
		"postcode": "O74 6DY"
	},
	{
		"trackingnumber": "CH225733438WN",
		"status": "P1",
		"name": "Preston Pitts",
		"destination": "1810 Mauris Street",
		"city": "Bolton",
		"postcode": "XU03 2PS"
	},
	{
		"trackingnumber": "YW810757324IF",
		"status": "P2",
		"name": "Hilary Cleveland",
		"destination": "Ap #126-3330 A Avenue",
		"city": "Bridgwater",
		"postcode": "F63 6OI"
	},
	{
		"trackingnumber": "PI634597785JR",
		"status": "C2",
		"name": "Jenna Browning",
		"destination": "969-7972 Metus St.",
		"city": "Thame",
		"postcode": "CY5 9VR"
	},
	{
		"trackingnumber": "DE158447107MH",
		"status": "D3",
		"name": "Avram Ramos",
		"destination": "P.O. Box 229, 1407 Fringilla St.",
		"city": "Presteigne",
		"postcode": "XP2M 5SJ"
	},
	{
		"trackingnumber": "JP835938929LA",
		"status": "P1",
		"name": "Charity Silva",
		"destination": "469-4092 Sem St.",
		"city": "Ammanford",
		"postcode": "TB7 3LL"
	},
	{
		"trackingnumber": "BS148848413OK",
		"status": "U1",
		"name": "Portia Frederick",
		"destination": "932-9230 Ipsum St.",
		"city": "Loughborough",
		"postcode": "T7F 1KA"
	},
	{
		"trackingnumber": "PH278354762PK",
		"status": "C2",
		"name": "Nero Martinez",
		"destination": "P.O. Box 410, 1502 Integer St.",
		"city": "Malvern",
		"postcode": "Q0 3VJ"
	},
	{
		"trackingnumber": "KN449222621XV",
		"status": "P1",
		"name": "Quon Mercer",
		"destination": "Ap #815-7615 Pede, Rd.",
		"city": "Kilmarnock",
		"postcode": "E2K 6PI"
	},
	{
		"trackingnumber": "PB416614413HN",
		"status": "C2",
		"name": "Xenos Hatfield",
		"destination": "P.O. Box 571, 6518 Ultrices. Road",
		"city": "Laurencekirk",
		"postcode": "Z8 7OW"
	},
	{
		"trackingnumber": "ZY602778823GZ",
		"status": "C1",
		"name": "Graham Payne",
		"destination": "P.O. Box 563, 2882 Ac Rd.",
		"city": "Berwick-upon-Tweed",
		"postcode": "G0 1JC"
	},
	{
		"trackingnumber": "TN361660860GD",
		"status": "C1",
		"name": "Jack Conner",
		"destination": "203-6288 Ante Ave",
		"city": "Salisbury",
		"postcode": "QO6 8HN"
	},
	{
		"trackingnumber": "EW621654552NG",
		"status": "D3",
		"name": "Maris Booker",
		"destination": "Ap #625-4712 Sodales Street",
		"city": "Saltcoats",
		"postcode": "HK23 6QY"
	},
	{
		"trackingnumber": "ZE812775652UX",
		"status": "C2",
		"name": "Jeanette Stuart",
		"destination": "5446 Risus Av.",
		"city": "Weston-super-Mare",
		"postcode": "Q9C 1JS"
	},
	{
		"trackingnumber": "UI584360208FN",
		"status": "P1",
		"name": "Linda Burnett",
		"destination": "903-8434 A, Road",
		"city": "Halkirk",
		"postcode": "SA7 2AJ"
	},
	{
		"trackingnumber": "VE899188465AF",
		"status": "P1",
		"name": "Cameron Alston",
		"destination": "Ap #123-4700 Aliquet Street",
		"city": "Wimborne Minster",
		"postcode": "BM7Q 5OY"
	},
	{
		"trackingnumber": "ZU368871836FG",
		"status": "P3",
		"name": "Jada Sexton",
		"destination": "268-1487 Aliquam Street",
		"city": "Sherborne",
		"postcode": "EY64 5NE"
	},
	{
		"trackingnumber": "NE956750287NX",
		"status": "P2",
		"name": "Kylee Barber",
		"destination": "155-2401 Etiam Av.",
		"city": "Washington",
		"postcode": "H2J 9BO"
	},
	{
		"trackingnumber": "SJ644439619ME",
		"status": "P4",
		"name": "Isaiah Bennett",
		"destination": "9901 Augue Rd.",
		"city": "Warminster",
		"postcode": "MC4 2IO"
	},
	{
		"trackingnumber": "AU864306278NF",
		"status": "C2",
		"name": "Hyacinth Knox",
		"destination": "Ap #189-1035 Ultrices Rd.",
		"city": "Kirriemuir",
		"postcode": "UH76 5QH"
	},
	{
		"trackingnumber": "RJ247617212SH",
		"status": "P1",
		"name": "Fritz Carpenter",
		"destination": "181-9004 Vel Av.",
		"city": "Stourbridge",
		"postcode": "TH18 3RL"
	},
	{
		"trackingnumber": "TP558518424GG",
		"status": "D2",
		"name": "Amir Newman",
		"destination": "103-9240 Sed Avenue",
		"city": "Kinross",
		"postcode": "TO3Y 5WM"
	},
	{
		"trackingnumber": "FH281263176VT",
		"status": "D1",
		"name": "Daniel Waters",
		"destination": "Ap #146-5201 Donec Av.",
		"city": "Cromer",
		"postcode": "L75 5TT"
	},
	{
		"trackingnumber": "CT416549771WU",
		"status": "D3",
		"name": "Lionel Cabrera",
		"destination": "2919 Vulputate Ave",
		"city": "March",
		"postcode": "MO8Y 2SN"
	},
	{
		"trackingnumber": "LL744783535WE",
		"status": "P1",
		"name": "Selma Williams",
		"destination": "224-6386 Amet, St.",
		"city": "Whitehaven",
		"postcode": "KR4W 7GS"
	},
	{
		"trackingnumber": "VO156391267UQ",
		"status": "D2",
		"name": "Cruz Lynch",
		"destination": "820-6288 Ut, Rd.",
		"city": "Tiverton",
		"postcode": "FO8X 6UH"
	},
	{
		"trackingnumber": "PX657518250HE",
		"status": "R1",
		"name": "Justine Kelley",
		"destination": "P.O. Box 663, 2801 Proin Rd.",
		"city": "Stockport",
		"postcode": "E5U 5ZI"
	},
	{
		"trackingnumber": "BS967286044DP",
		"status": "D3",
		"name": "Shannon Middleton",
		"destination": "905-9368 Eu St.",
		"city": "Biggleswade",
		"postcode": "V3 1XY"
	},
	{
		"trackingnumber": "UV480117757XN",
		"status": "D3",
		"name": "Austin Stout",
		"destination": "239-7300 Cras Av.",
		"city": "Tain",
		"postcode": "X1Q 9MK"
	},
	{
		"trackingnumber": "LK025209224DR",
		"status": "D2",
		"name": "Chava Townsend",
		"destination": "Ap #937-7156 Aliquam Road",
		"city": "Ammanford",
		"postcode": "J3D 5RO"
	},
	{
		"trackingnumber": "DC921550937NY",
		"status": "C1",
		"name": "Victoria Sweeney",
		"destination": "P.O. Box 514, 6468 Nec, St.",
		"city": "Pitlochry",
		"postcode": "N4K 0HC"
	},
	{
		"trackingnumber": "UG817920583MH",
		"status": "P1",
		"name": "Warren Chang",
		"destination": "P.O. Box 781, 2472 Mattis. St.",
		"city": "Southampton",
		"postcode": "IV5 5AN"
	},
	{
		"trackingnumber": "JU853582252MY",
		"status": "R2",
		"name": "Ciaran Melton",
		"destination": "853-3234 Aliquam Road",
		"city": "Sromness",
		"postcode": "YQ3B 3OX"
	},
	{
		"trackingnumber": "PB623425476LW",
		"status": "P4",
		"name": "Dora Zamora",
		"destination": "P.O. Box 995, 4311 Dui Rd.",
		"city": "Haverhill",
		"postcode": "OF1S 1SW"
	},
	{
		"trackingnumber": "IJ600247616CN",
		"status": "R2",
		"name": "Dorian Bartlett",
		"destination": "415-4445 Porttitor Street",
		"city": "Yaxley",
		"postcode": "T1 5WZ"
	},
	{
		"trackingnumber": "NO262822473LD",
		"status": "C1",
		"name": "Carly Mays",
		"destination": "644-6463 Rhoncus. Road",
		"city": "Yeovil",
		"postcode": "KH47 0WL"
	},
	{
		"trackingnumber": "YE353288743SC",
		"status": "D2",
		"name": "Debra Maldonado",
		"destination": "P.O. Box 748, 9077 Dolor Rd.",
		"city": "Chippenham",
		"postcode": "P7H 8CE"
	},
	{
		"trackingnumber": "WW253517789UN",
		"status": "R2",
		"name": "Grant Cotton",
		"destination": "643-7336 Eget Rd.",
		"city": "Tillicoultry",
		"postcode": "NF9N 8QU"
	},
	{
		"trackingnumber": "GU151282338CG",
		"status": "D2",
		"name": "Murphy Lancaster",
		"destination": "P.O. Box 891, 4306 Fusce Road",
		"city": "Ashbourne",
		"postcode": "SL6 2FK"
	},
	{
		"trackingnumber": "LT484948062EK",
		"status": "C1",
		"name": "Beck Livingston",
		"destination": "Ap #723-6240 Quis St.",
		"city": "Swadlincote",
		"postcode": "PV8U 4DH"
	},
	{
		"trackingnumber": "XG836563061VU",
		"status": "D1",
		"name": "Lee Baker",
		"destination": "Ap #621-3706 Nulla. St.",
		"city": "Prestatyn",
		"postcode": "Y4N 8HR"
	},
	{
		"trackingnumber": "OG375925507XV",
		"status": "P2",
		"name": "Kameko Willis",
		"destination": "Ap #705-5728 Phasellus Av.",
		"city": "Tregaron",
		"postcode": "X8W 0NS"
	},
	{
		"trackingnumber": "MJ159813137IN",
		"status": "D2",
		"name": "Emmanuel Maxwell",
		"destination": "P.O. Box 102, 1848 Curabitur Rd.",
		"city": "Hull",
		"postcode": "EF99 2HU"
	},
	{
		"trackingnumber": "MI377902582GP",
		"status": "C2",
		"name": "MacKenzie Duncan",
		"destination": "Ap #190-1167 Duis Road",
		"city": "Portsoy",
		"postcode": "JM99 0PH"
	},
	{
		"trackingnumber": "IH336553364XP",
		"status": "P3",
		"name": "Ferdinand Jensen",
		"destination": "Ap #434-8057 Penatibus St.",
		"city": "Edinburgh",
		"postcode": "LK70 0TB"
	},
	{
		"trackingnumber": "BY655340579JQ",
		"status": "D1",
		"name": "Derek White",
		"destination": "9399 Dis Avenue",
		"city": "Morpeth",
		"postcode": "EK5 8BK"
	},
	{
		"trackingnumber": "RI376280128JQ",
		"status": "P3",
		"name": "Brock Smith",
		"destination": "8192 Dui. Rd.",
		"city": "Jedburgh",
		"postcode": "A1 2UA"
	},
	{
		"trackingnumber": "UU537340645UO",
		"status": "C2",
		"name": "Reagan Barnett",
		"destination": "717-3325 Elit, Rd.",
		"city": "Barrow-in-Furness",
		"postcode": "A5N 2YR"
	},
	{
		"trackingnumber": "VD669966072EH",
		"status": "D1",
		"name": "Elaine Knight",
		"destination": "866-4916 Lorem, Avenue",
		"city": "Abergavenny",
		"postcode": "C54 4EI"
	},
	{
		"trackingnumber": "WT387251306KU",
		"status": "R2",
		"name": "Remedios Bright",
		"destination": "Ap #681-269 Eget Rd.",
		"city": "Abergele",
		"postcode": "NT7X 7TA"
	},
	{
		"trackingnumber": "IH162122891YK",
		"status": "D1",
		"name": "Iona Brady",
		"destination": "956-5091 Quis Av.",
		"city": "Haddington",
		"postcode": "F7 4SV"
	},
	{
		"trackingnumber": "OU358281317GX",
		"status": "D3",
		"name": "Alana Matthews",
		"destination": "301-1971 Natoque Rd.",
		"city": "Blairgowrie",
		"postcode": "TV5 9MR"
	},
	{
		"trackingnumber": "KL573419217WF",
		"status": "C2",
		"name": "Yasir Randall",
		"destination": "604-9029 Lacinia. Rd.",
		"city": "Tredegar",
		"postcode": "GV88 2SG"
	},
	{
		"trackingnumber": "ID105561053WN",
		"status": "P3",
		"name": "Jermaine Michael",
		"destination": "P.O. Box 976, 3845 Risus. Rd.",
		"city": "Knighton",
		"postcode": "GK9 2DE"
	},
	{
		"trackingnumber": "GJ781937927GV",
		"status": "C1",
		"name": "Camden Reilly",
		"destination": "Ap #680-6156 Ac, St.",
		"city": "Witney",
		"postcode": "IK2 9SX"
	},
	{
		"trackingnumber": "IR584882705VK",
		"status": "P2",
		"name": "Leonard Orr",
		"destination": "Ap #706-3668 Vestibulum Av.",
		"city": "Sromness",
		"postcode": "M9A 6UC"
	},
	{
		"trackingnumber": "QM865133885PS",
		"status": "U1",
		"name": "Belle Carpenter",
		"destination": "242-2276 Amet, Ave",
		"city": "Laurencekirk",
		"postcode": "XS21 6OD"
	},
	{
		"trackingnumber": "TA358808355JU",
		"status": "P3",
		"name": "April Shields",
		"destination": "6366 Lobortis. Rd.",
		"city": "Macclesfield",
		"postcode": "QP9 7ZO"
	},
	{
		"trackingnumber": "YQ357588541QM",
		"status": "C1",
		"name": "Upton Hood",
		"destination": "Ap #540-8471 Urna. Rd.",
		"city": "New Galloway",
		"postcode": "DR2 1DN"
	},
	{
		"trackingnumber": "PW288082050OC",
		"status": "U2",
		"name": "Fay Bradford",
		"destination": "Ap #218-7237 Quis Rd.",
		"city": "Laurencekirk",
		"postcode": "Y3S 7KJ"
	},
	{
		"trackingnumber": "KP847624172AB",
		"status": "D3",
		"name": "Duncan Santiago",
		"destination": "Ap #279-6087 Lorem Street",
		"city": "Kircudbright",
		"postcode": "N5W 9HO"
	},
	{
		"trackingnumber": "UD304351588XV",
		"status": "C1",
		"name": "Halee Maddox",
		"destination": "845-6724 Luctus Rd.",
		"city": "Huntingdon",
		"postcode": "D3B 4SQ"
	},
	{
		"trackingnumber": "LW858004906MW",
		"status": "P2",
		"name": "Jamal Mcpherson",
		"destination": "594-2624 Nibh. Avenue",
		"city": "Manchester",
		"postcode": "LK6 8SF"
	},
	{
		"trackingnumber": "PP035427335WY",
		"status": "P3",
		"name": "Urielle Espinoza",
		"destination": "Ap #583-9550 Ornare, St.",
		"city": "Peterhead",
		"postcode": "YR8C 8QH"
	},
	{
		"trackingnumber": "YB618646519DX",
		"status": "D3",
		"name": "Amaya Jordan",
		"destination": "Ap #518-7650 Malesuada Avenue",
		"city": "Ellesmere Port",
		"postcode": "F3 0RU"
	},
	{
		"trackingnumber": "EK061484436GM",
		"status": "P1",
		"name": "Yuri Burris",
		"destination": "562-272 Vivamus St.",
		"city": "Lincoln",
		"postcode": "J87 6XZ"
	},
	{
		"trackingnumber": "RE836455937WF",
		"status": "D2",
		"name": "Maile Powers",
		"destination": "P.O. Box 203, 9558 Vulputate St.",
		"city": "Alloa",
		"postcode": "MK3 2QD"
	},
	{
		"trackingnumber": "YL112861705SM",
		"status": "C1",
		"name": "Linus Webb",
		"destination": "9258 Sodales Road",
		"city": "Glastonbury",
		"postcode": "N7L 6CN"
	},
	{
		"trackingnumber": "GT827135557QF",
		"status": "D3",
		"name": "Selma Montoya",
		"destination": "602-5374 Nam Rd.",
		"city": "Peterhead",
		"postcode": "GI50 4FW"
	},
	{
		"trackingnumber": "EP066062153CD",
		"status": "D1",
		"name": "Phyllis Lynch",
		"destination": "Ap #152-9634 Aliquam Rd.",
		"city": "Tillicoultry",
		"postcode": "XL73 5MD"
	},
	{
		"trackingnumber": "NB151506975EX",
		"status": "C1",
		"name": "Alec Wilkins",
		"destination": "Ap #491-7332 Interdum Avenue",
		"city": "Skegness",
		"postcode": "ZX52 3MU"
	},
	{
		"trackingnumber": "XX493373218BI",
		"status": "P3",
		"name": "Tara Padilla",
		"destination": "423-3019 Cursus Rd.",
		"city": "Sromness",
		"postcode": "SU6 8YB"
	},
	{
		"trackingnumber": "GP343788743VL",
		"status": "D1",
		"name": "Hedley Mayer",
		"destination": "Ap #848-110 Enim. Av.",
		"city": "Cawdor",
		"postcode": "EB4 1QD"
	},
	{
		"trackingnumber": "JK584692716QE",
		"status": "P4",
		"name": "Cailin Lynch",
		"destination": "456-9785 Lorem Ave",
		"city": "Perth",
		"postcode": "F8J 8FW"
	},
	{
		"trackingnumber": "WJ557506343TV",
		"status": "P4",
		"name": "Castor Mcclain",
		"destination": "Ap #230-2104 Nulla Av.",
		"city": "Poole",
		"postcode": "Z3 6MC"
	},
	{
		"trackingnumber": "VY862558735AV",
		"status": "D3",
		"name": "Jerry Sweeney",
		"destination": "Ap #923-6132 Etiam St.",
		"city": "Tullibody",
		"postcode": "K7G 6IC"
	},
	{
		"trackingnumber": "DB148660109ER",
		"status": "C2",
		"name": "Kaseem Miles",
		"destination": "Ap #395-9846 Turpis. Rd.",
		"city": "Lauder",
		"postcode": "L35 7ZC"
	},
	{
		"trackingnumber": "LJ306283170SL",
		"status": "C1",
		"name": "Yen Austin",
		"destination": "884-4838 Et Road",
		"city": "Chatteris",
		"postcode": "UO92 8NM"
	},
	{
		"trackingnumber": "PI207245318JX",
		"status": "P4",
		"name": "Xaviera Pickett",
		"destination": "554-1259 In St.",
		"city": "Dalbeattie",
		"postcode": "U5F 0ED"
	},
	{
		"trackingnumber": "YI187853073PD",
		"status": "P4",
		"name": "Fritz Thornton",
		"destination": "5963 Non, Road",
		"city": "Saltcoats",
		"postcode": "KK38 5ZR"
	},
	{
		"trackingnumber": "JE473728826DE",
		"status": "R1",
		"name": "Leslie Cunningham",
		"destination": "P.O. Box 126, 1715 A, Avenue",
		"city": "Wimbledon",
		"postcode": "J58 5FR"
	},
	{
		"trackingnumber": "HW618479427VW",
		"status": "C1",
		"name": "Jillian Mueller",
		"destination": "788-4941 Ut, Av.",
		"city": "Glenrothes",
		"postcode": "PG6 8PC"
	},
	{
		"trackingnumber": "TN534468582PW",
		"status": "P4",
		"name": "Winifred Daniels",
		"destination": "396-9399 Nibh. Rd.",
		"city": "Huntingdon",
		"postcode": "T9 2VN"
	},
	{
		"trackingnumber": "IP494338937QL",
		"status": "P1",
		"name": "Camden Atkinson",
		"destination": "123-5651 Donec St.",
		"city": "Newtonmore",
		"postcode": "X4K 5ML"
	},
	{
		"trackingnumber": "XY073114556UK",
		"status": "P4",
		"name": "Oliver Cabrera",
		"destination": "497-8364 Ipsum. Av.",
		"city": "Southampton",
		"postcode": "EE1 7UD"
	},
	{
		"trackingnumber": "CS142056635XG",
		"status": "P4",
		"name": "Zia Howell",
		"destination": "388-2665 Amet Road",
		"city": "Tillicoultry",
		"postcode": "HT8O 6NS"
	},
	{
		"trackingnumber": "GN730848873JT",
		"status": "C2",
		"name": "Mannix Russell",
		"destination": "785-1657 Nec Rd.",
		"city": "Castle Douglas",
		"postcode": "QE4O 7KZ"
	},
	{
		"trackingnumber": "CB288265303TP",
		"status": "D1",
		"name": "Regan Galloway",
		"destination": "525-146 Varius St.",
		"city": "Swindon",
		"postcode": "X8 4EK"
	},
	{
		"trackingnumber": "SU312396286LU",
		"status": "R2",
		"name": "Daphne Bradley",
		"destination": "2392 Penatibus Rd.",
		"city": "Moffat",
		"postcode": "GF57 1QF"
	},
	{
		"trackingnumber": "EV742578675CP",
		"status": "P4",
		"name": "Vielka Pruitt",
		"destination": "731-2627 Ac St.",
		"city": "Ayr",
		"postcode": "B3M 2KJ"
	},
	{
		"trackingnumber": "LD663283071OE",
		"status": "C1",
		"name": "Lance Matthews",
		"destination": "P.O. Box 649, 8866 Nonummy St.",
		"city": "Leicester",
		"postcode": "J6X 0QG"
	},
	{
		"trackingnumber": "YX014748582SS",
		"status": "D3",
		"name": "Kyra Holden",
		"destination": "653-7692 Sed Ave",
		"city": "Leighton Buzzard",
		"postcode": "B9U 3FF"
	},
	{
		"trackingnumber": "EG127543473KL",
		"status": "D3",
		"name": "Xander Finch",
		"destination": "Ap #388-9646 Dui Ave",
		"city": "Marlborough",
		"postcode": "VN7Z 3XW"
	},
	{
		"trackingnumber": "HR052563638EU",
		"status": "D3",
		"name": "Jenna Bond",
		"destination": "Ap #991-6083 Lorem. Avenue",
		"city": "St. David's",
		"postcode": "V4C 1LO"
	},
	{
		"trackingnumber": "OF581983617RV",
		"status": "D1",
		"name": "Tarik Olson",
		"destination": "Ap #753-9493 Vitae Rd.",
		"city": "Banchory",
		"postcode": "OG9 6NL"
	},
	{
		"trackingnumber": "EY065803100NK",
		"status": "P4",
		"name": "Serina Jackson",
		"destination": "593-4662 Ac Road",
		"city": "Berwick-upon-Tweed",
		"postcode": "FS1T 2GD"
	},
	{
		"trackingnumber": "MM553234521TM",
		"status": "D3",
		"name": "Alden Tyler",
		"destination": "134-2809 Felis Street",
		"city": "Preston",
		"postcode": "J1 5KQ"
	},
	{
		"trackingnumber": "FF851607230HN",
		"status": "P3",
		"name": "Elton Kirk",
		"destination": "6872 Sed Street",
		"city": "Exeter",
		"postcode": "P8 1JI"
	},
	{
		"trackingnumber": "SV166746458MY",
		"status": "P2",
		"name": "Ariana Cunningham",
		"destination": "878-1844 Et Rd.",
		"city": "Musselburgh",
		"postcode": "L42 6JL"
	},
	{
		"trackingnumber": "XK222759116KG",
		"status": "C2",
		"name": "Kyla Christian",
		"destination": "Ap #865-9519 Aliquet Avenue",
		"city": "Kinross",
		"postcode": "M3Q 1VM"
	},
	{
		"trackingnumber": "TP717885933KV",
		"status": "R2",
		"name": "Melvin Roberts",
		"destination": "8290 Fringilla St.",
		"city": "Lerwick",
		"postcode": "Y7 0XP"
	},
	{
		"trackingnumber": "GO121515423KU",
		"status": "R2",
		"name": "Lenore Harmon",
		"destination": "P.O. Box 290, 9130 Donec Av.",
		"city": "Bolton",
		"postcode": "O62 0AK"
	},
	{
		"trackingnumber": "WF848817199FJ",
		"status": "P3",
		"name": "Ashton Huffman",
		"destination": "4831 Sit St.",
		"city": "Ross-on-Wye",
		"postcode": "PO53 9LK"
	},
	{
		"trackingnumber": "OV294787451TD",
		"status": "U1",
		"name": "Hiroko Walter",
		"destination": "P.O. Box 806, 5820 Malesuada Rd.",
		"city": "Sudbury",
		"postcode": "UE9 6ES"
	},
	{
		"trackingnumber": "ZK204284731DM",
		"status": "D3",
		"name": "Guy Hickman",
		"destination": "Ap #506-1893 Feugiat Av.",
		"city": "Bathgate",
		"postcode": "U71 2CZ"
	},
	{
		"trackingnumber": "XE548365564TS",
		"status": "U1",
		"name": "Galvin Robinson",
		"destination": "Ap #357-1663 Ornare Rd.",
		"city": "Castletown",
		"postcode": "QK0 6ZM"
	},
	{
		"trackingnumber": "KO294782324GG",
		"status": "P3",
		"name": "Tyler Guerra",
		"destination": "761-6113 Urna Av.",
		"city": "Blaenau Ffestiniog",
		"postcode": "XQ6N 8FU"
	},
	{
		"trackingnumber": "EE095753485DK",
		"status": "R2",
		"name": "Ingrid Mullins",
		"destination": "Ap #699-114 Tincidunt Road",
		"city": "Southampton",
		"postcode": "H88 4EU"
	},
	{
		"trackingnumber": "QP661662677SJ",
		"status": "D2",
		"name": "Aline Velazquez",
		"destination": "P.O. Box 266, 1638 Nec Rd.",
		"city": "Canterbury",
		"postcode": "G3W 9MM"
	},
	{
		"trackingnumber": "OB126346593VN",
		"status": "D2",
		"name": "Jolie Campos",
		"destination": "280-4837 Donec St.",
		"city": "Coalville",
		"postcode": "K32 3KF"
	},
	{
		"trackingnumber": "DU366741315RI",
		"status": "P3",
		"name": "Abigail Rivers",
		"destination": "2048 Id Street",
		"city": "Abergele",
		"postcode": "J52 3ZF"
	},
	{
		"trackingnumber": "VD276273101QS",
		"status": "P3",
		"name": "Brody Roy",
		"destination": "Ap #574-8841 Nunc Avenue",
		"city": "Appleby",
		"postcode": "CG2 5IS"
	},
	{
		"trackingnumber": "SE855034412NV",
		"status": "U1",
		"name": "Benedict Bush",
		"destination": "Ap #158-4184 Vivamus Av.",
		"city": "Ruthin",
		"postcode": "OH63 7YR"
	},
	{
		"trackingnumber": "UH943394606FT",
		"status": "P3",
		"name": "Wang Rich",
		"destination": "579 Egestas. Avenue",
		"city": "Chichester",
		"postcode": "E7D 5MI"
	},
	{
		"trackingnumber": "GI018462310PN",
		"status": "P2",
		"name": "Brent Salinas",
		"destination": "7636 Non, St.",
		"city": "Northampton",
		"postcode": "BT5 4WA"
	},
	{
		"trackingnumber": "DW274728359CF",
		"status": "R1",
		"name": "Uriel Fry",
		"destination": "P.O. Box 897, 7600 Integer Ave",
		"city": "Tavistock",
		"postcode": "CD0 4SC"
	},
	{
		"trackingnumber": "VD462156825XI",
		"status": "P2",
		"name": "Tanisha Garcia",
		"destination": "P.O. Box 766, 1040 Dictum Road",
		"city": "Golspie",
		"postcode": "W4 7IM"
	},
	{
		"trackingnumber": "HD112836687PP",
		"status": "P4",
		"name": "Elmo Holmes",
		"destination": "675-4931 Nascetur Street",
		"city": "Scunthorpe",
		"postcode": "I36 6CZ"
	},
	{
		"trackingnumber": "YC251714328SU",
		"status": "P2",
		"name": "Sage Berry",
		"destination": "885-9954 Nulla Rd.",
		"city": "Cromer",
		"postcode": "XR50 8WF"
	},
	{
		"trackingnumber": "ME787525631HK",
		"status": "D2",
		"name": "Mechelle Barlow",
		"destination": "2084 Tristique St.",
		"city": "Macduff",
		"postcode": "U2 4QY"
	},
	{
		"trackingnumber": "WI052162269JV",
		"status": "P2",
		"name": "Mark Golden",
		"destination": "1922 Dolor Rd.",
		"city": "Blaenau Ffestiniog",
		"postcode": "B75 8UO"
	},
	{
		"trackingnumber": "PF183575727KI",
		"status": "D3",
		"name": "Martena Delacruz",
		"destination": "3202 Sem Av.",
		"city": "Canterbury",
		"postcode": "X6O 8CT"
	},
	{
		"trackingnumber": "OH714521266JT",
		"status": "C2",
		"name": "Miranda Hale",
		"destination": "P.O. Box 711, 2313 Diam Avenue",
		"city": "Greenock",
		"postcode": "R5 1RI"
	},
	{
		"trackingnumber": "XV805233246HT",
		"status": "C2",
		"name": "Lareina Hanson",
		"destination": "Ap #168-2203 Nec Avenue",
		"city": "Newark",
		"postcode": "V77 2EZ"
	},
	{
		"trackingnumber": "JT251346288FE",
		"status": "C1",
		"name": "Noelani Herrera",
		"destination": "7960 Phasellus Rd.",
		"city": "Kettering",
		"postcode": "L53 3ST"
	},
	{
		"trackingnumber": "ME445843331BQ",
		"status": "U1",
		"name": "Callum Rollins",
		"destination": "9442 Euismod Rd.",
		"city": "Driffield",
		"postcode": "OB5F 1FK"
	},
	{
		"trackingnumber": "TW749713035VY",
		"status": "R1",
		"name": "Megan Hernandez",
		"destination": "403-7256 Aenean Ave",
		"city": "Thurso",
		"postcode": "J2C 7NU"
	},
	{
		"trackingnumber": "KC861107653CU",
		"status": "C1",
		"name": "Jillian Kramer",
		"destination": "Ap #985-854 Dui. Av.",
		"city": "Llandrindod Wells",
		"postcode": "B2H 8LR"
	},
	{
		"trackingnumber": "HJ518676458RU",
		"status": "P2",
		"name": "Samson Silva",
		"destination": "7165 Quisque St.",
		"city": "Wandsworth",
		"postcode": "F52 4XS"
	},
	{
		"trackingnumber": "GH125665798PN",
		"status": "P3",
		"name": "Yen Erickson",
		"destination": "P.O. Box 167, 4027 Mollis Road",
		"city": "Alloa",
		"postcode": "E6V 1GO"
	},
	{
		"trackingnumber": "CD765383174YK",
		"status": "P2",
		"name": "Dara Hess",
		"destination": "Ap #699-104 Placerat. Avenue",
		"city": "Worthing",
		"postcode": "ET94 6KY"
	},
	{
		"trackingnumber": "LC433235474FD",
		"status": "U1",
		"name": "Garth Melton",
		"destination": "2871 Interdum St.",
		"city": "Linton",
		"postcode": "Y2 4KS"
	},
	{
		"trackingnumber": "CW629308243IL",
		"status": "R1",
		"name": "Teegan Pena",
		"destination": "5830 Malesuada Ave",
		"city": "Malvern",
		"postcode": "Y4 2NN"
	},
	{
		"trackingnumber": "RI693283733PC",
		"status": "D3",
		"name": "Lucy Reynolds",
		"destination": "850-5652 Nec, Road",
		"city": "Clovenfords",
		"postcode": "X83 0ZO"
	},
	{
		"trackingnumber": "ZI765273651RO",
		"status": "D2",
		"name": "Thaddeus Cantu",
		"destination": "Ap #730-1707 In Rd.",
		"city": "Stranraer",
		"postcode": "F8 9ML"
	},
	{
		"trackingnumber": "IE025622350ML",
		"status": "U1",
		"name": "Isabella Hines",
		"destination": "665 Convallis Av.",
		"city": "Chelmsford",
		"postcode": "I8 1YF"
	},
	{
		"trackingnumber": "RB086916144DK",
		"status": "C2",
		"name": "Hadassah Conway",
		"destination": "Ap #940-7478 Magna. Rd.",
		"city": "Fraserburgh",
		"postcode": "NG2 2WX"
	},
	{
		"trackingnumber": "VY952810361BJ",
		"status": "C2",
		"name": "Jorden Mathis",
		"destination": "7853 Mollis Road",
		"city": "Greenlaw",
		"postcode": "BE58 3IG"
	},
	{
		"trackingnumber": "FM455407606VU",
		"status": "P1",
		"name": "Arthur Foreman",
		"destination": "Ap #110-2496 Sagittis Street",
		"city": "Rugby",
		"postcode": "F6 2UB"
	},
	{
		"trackingnumber": "OA238844091JM",
		"status": "C1",
		"name": "Jolie Lloyd",
		"destination": "891 Augue Rd.",
		"city": "Glenrothes",
		"postcode": "HJ5 8SP"
	},
	{
		"trackingnumber": "MF636332385PZ",
		"status": "U1",
		"name": "Damon Martinez",
		"destination": "7029 At, Ave",
		"city": "Sherborne",
		"postcode": "T3R 3MR"
	}
]